address,description,store,thumb,id,distance,address2,city,state,zip,country,lat,lng,phone,fax,email,hours,url
Corniche,"
<p> <strong>Supermarket</strong> </p>
",COOP CORNICHE,,965,6444.2,,Abu Dhabi,,,United Arab Emirates,24.472044,54.340706,(02) 883-9705,,,"<table role=""presentation"" class=""wpsl-opening-hours""><tr><td>Monday</td><td><time>12:00 AM - 12:00 AM</time></td></tr><tr><td>Tuesday</td><td><time>12:00 AM - 12:00 AM</time></td></tr><tr><td>Wednesday</td><td><time>12:00 AM - 12:00 AM</time></td></tr><tr><td>Thursday</td><td><time>12:00 AM - 12:00 AM</time></td></tr><tr><td>Friday</td><td><time>12:00 AM - 12:00 AM</time></td></tr><tr><td>Saturday</td><td><time>12:00 AM - 12:00 AM</time></td></tr><tr><td>Sunday</td><td><time>12:00 AM - 12:00 AM</time></td></tr></table>",
Khalidiya,"
<p><strong>Supermarket</strong></p>
",SPAR KHALIDIYA,,927,6444.3,,Abu Dhabi,,,United Arab Emirates,24.47018,54.34221,(02) 679-6491,,customerservice@adcoops.com,"<table role=""presentation"" class=""wpsl-opening-hours""><tr><td>Monday</td><td><time>8:00 AM - 12:00 AM</time></td></tr><tr><td>Tuesday</td><td><time>8:00 AM - 12:00 AM</time></td></tr><tr><td>Wednesday</td><td><time>8:00 AM - 12:00 AM</time></td></tr><tr><td>Thursday</td><td><time>8:00 AM - 12:00 AM</time></td></tr><tr><td>Friday</td><td><time>8:00 AM - 12:00 AM</time></td></tr><tr><td>Saturday</td><td><time>8:00 AM - 12:00 AM</time></td></tr><tr><td>Sunday</td><td><time>8:00 AM - 12:00 AM</time></td></tr></table>",https://abudhabicoop.com/
Khalidiya Garden,"
<p> <strong>Supermarket</strong> </p>
",COOP KHALIDIYA GARDEN,,970,6444.6,,Abu Dhabi,,,United Arab Emirates,24.4679,54.34607,(02) 667-9222,,customerservice@adcoops.com,"<table role=""presentation"" class=""wpsl-opening-hours""><tr><td>Monday</td><td><time>8:00 AM - 12:00 AM</time></td></tr><tr><td>Tuesday</td><td><time>8:00 AM - 12:00 AM</time></td></tr><tr><td>Wednesday</td><td><time>8:00 AM - 12:00 AM</time></td></tr><tr><td>Thursday</td><td><time>8:00 AM - 12:00 AM</time></td></tr><tr><td>Friday</td><td><time>8:00 AM - 12:00 AM</time></td></tr><tr><td>Saturday</td><td><time>8:00 AM - 12:00 AM</time></td></tr><tr><td>Sunday</td><td><time>8:00 AM - 12:00 AM</time></td></tr></table>",https://abudhabicoop.com/
Dana,"
<p> <strong>Supermarket</strong> </p>
",COOP DANA,,963,6444.8,,Abu Dhabi,,,United Arab Emirates,24.47259,54.34652,(02) 665 1123,,customerservice@adcoops.com,"<table role=""presentation"" class=""wpsl-opening-hours""><tr><td>Monday</td><td><time>12:00 AM - 12:00 AM</time></td></tr><tr><td>Tuesday</td><td><time>12:00 AM - 12:00 AM</time></td></tr><tr><td>Wednesday</td><td><time>12:00 AM - 12:00 AM</time></td></tr><tr><td>Thursday</td><td><time>12:00 AM - 12:00 AM</time></td></tr><tr><td>Friday</td><td><time>12:00 AM - 12:00 AM</time></td></tr><tr><td>Saturday</td><td><time>12:00 AM - 12:00 AM</time></td></tr><tr><td>Sunday</td><td><time>12:00 AM - 12:00 AM</time></td></tr></table>",https://abudhabicoop.com/
Latifa,"
<p> <strong>Convenience</strong> </p>
",COOP LATIFA (NEW STORE),,978,6444.9,,Abu Dhabi,,,United Arab Emirates,24.471204,54.347784,02-6655743,,customerservice@adcoops.com,"<table role=""presentation"" class=""wpsl-opening-hours""><tr><td>Monday</td><td><time>8:00 AM - 12:00 AM</time></td></tr><tr><td>Tuesday</td><td><time>8:00 AM - 12:00 AM</time></td></tr><tr><td>Wednesday</td><td><time>8:00 AM - 12:00 AM</time></td></tr><tr><td>Thursday</td><td><time>8:00 AM - 12:00 AM</time></td></tr><tr><td>Friday</td><td><time>8:00 AM - 12:00 AM</time></td></tr><tr><td>Saturday</td><td><time>8:30 AM - 12:00 AM</time></td></tr><tr><td>Sunday</td><td><time>8:30 AM - 12:00 AM</time></td></tr></table>",https://abudhabicoop.com/
Abu Dhabi Coop AWQAF,"
<p> <strong>Supermarket</strong> </p>
",COOP AWQAF,,968,6445.6,,Abu Dhabi,,,United Arab Emirates,24.47702,54.35287,(02) 635-1119,,customerservice@adcoops.com,"<table role=""presentation"" class=""wpsl-opening-hours""><tr><td>Monday</td><td><time>12:00 AM - 12:00 AM</time></td></tr><tr><td>Tuesday</td><td><time>12:00 AM - 12:00 AM</time></td></tr><tr><td>Wednesday</td><td><time>12:00 AM - 12:00 AM</time></td></tr><tr><td>Thursday</td><td><time>12:00 AM - 12:00 AM</time></td></tr><tr><td>Friday</td><td><time>12:00 AM - 12:00 AM</time></td></tr><tr><td>Saturday</td><td><time>12:00 AM - 12:00 AM</time></td></tr><tr><td>Sunday</td><td><time>12:00 AM - 12:00 AM</time></td></tr></table>",https://abudhabicoop.com/
SPAR Family,"
<p>  <strong>Convenience</strong> </p>
",SPAR FAMILY,,1016,6445.6,,Abu Dhabi,,,United Arab Emirates,24.48195,54.35158,02 6280739,,customerservice@adcoops.com,"<table role=""presentation"" class=""wpsl-opening-hours""><tr><td>Monday</td><td><time>8:00 AM - 12:00 AM</time></td></tr><tr><td>Tuesday</td><td><time>8:00 AM - 12:00 AM</time></td></tr><tr><td>Wednesday</td><td><time>8:00 AM - 12:00 AM</time></td></tr><tr><td>Thursday</td><td><time>8:00 AM - 12:00 AM</time></td></tr><tr><td>Friday</td><td><time>8:00 AM - 12:00 AM</time></td></tr><tr><td>Saturday</td><td><time>8:00 AM - 12:00 AM</time></td></tr><tr><td>Sunday</td><td><time>8:00 AM - 12:00 AM</time></td></tr></table>",https://abudhabicoop.com/
SPAR C-18,"
<p>  <strong>Convenience</strong> </p>
",SPAR C-18,,1008,6445.7,,Abu Dhabi,,,United Arab Emirates,24.487236,54.350799,02 4499054,,customerservice@adcoops.com,"<table role=""presentation"" class=""wpsl-opening-hours""><tr><td>Monday</td><td><time>8:00 AM - 12:00 AM</time></td></tr><tr><td>Tuesday</td><td><time>8:00 AM - 12:00 AM</time></td></tr><tr><td>Wednesday</td><td><time>8:00 AM - 12:00 AM</time></td></tr><tr><td>Thursday</td><td><time>8:00 AM - 12:00 AM</time></td></tr><tr><td>Friday</td><td><time>8:00 AM - 12:00 AM</time></td></tr><tr><td>Saturday</td><td><time>8:00 AM - 12:00 AM</time></td></tr><tr><td>Sunday</td><td><time>8:00 AM - 12:00 AM</time></td></tr></table>",https://abudhabicoop.com/
Abu Dgabi Coop Buteen,"
<p> <strong>Hypermarket</strong> </p>
",COOP BUTEEN,,888,6445.8,,Abu Dhabi,,,United Arab Emirates,24.4621,54.35973,(02) 666 4600,,customerservice@adcoops.com,"<table role=""presentation"" class=""wpsl-opening-hours""><tr><td>Monday</td><td><time>12:00 AM - 12:00 AM</time></td></tr><tr><td>Tuesday</td><td><time>12:00 AM - 12:00 AM</time></td></tr><tr><td>Wednesday</td><td><time>12:00 AM - 12:00 AM</time></td></tr><tr><td>Thursday</td><td><time>12:00 AM - 12:00 AM</time></td></tr><tr><td>Friday</td><td><time>12:00 AM - 12:00 AM</time></td></tr><tr><td>Saturday</td><td><time>12:00 AM - 12:00 AM</time></td></tr><tr><td>Sunday</td><td><time>12:00 AM - 12:00 AM</time></td></tr></table>",https://abudhabicoop.com/
Lake View Tower,,COOP LAKE VIEW TOWER,,1024,6446.3,,Abu Dhabi,,,United Arab Emirates,24.490093,54.356292,800 232 6677 (800 ADCOOPS),,customerservice@adcoops.com,"<table role=""presentation"" class=""wpsl-opening-hours""><tr><td>Monday</td><td><time>12:00 AM - 12:00 AM</time></td></tr><tr><td>Tuesday</td><td><time>12:00 AM - 12:00 AM</time></td></tr><tr><td>Wednesday</td><td><time>12:00 AM - 12:00 AM</time></td></tr><tr><td>Thursday</td><td><time>12:00 AM - 12:00 AM</time></td></tr><tr><td>Friday</td><td><time>12:00 AM - 12:00 AM</time></td></tr><tr><td>Saturday</td><td><time>12:00 AM - 12:00 AM</time></td></tr><tr><td>Sunday</td><td><time>12:00 AM - 12:00 AM</time></td></tr></table>",https://abudhabicoop.com/
Khalifa St.,"
<p> <strong>Convenience</strong> </p>
",COOP KHALIFA ST. (ADIB),,974,6446.6,,Abu Dhabi,,,United Arab Emirates,24.48998,54.35889,(02) 551 0427,,customerservice@adcoops.com,"<table role=""presentation"" class=""wpsl-opening-hours""><tr><td>Monday</td><td><time>8:00 AM - 12:00 AM</time></td></tr><tr><td>Tuesday</td><td><time>8:00 AM - 12:00 AM</time></td></tr><tr><td>Wednesday</td><td><time>8:00 AM - 12:00 AM</time></td></tr><tr><td>Thursday</td><td><time>8:00 AM - 12:00 AM</time></td></tr><tr><td>Friday</td><td><time>8:00 AM - 12:00 AM</time></td></tr><tr><td>Saturday</td><td><time>8:00 AM - 12:00 AM</time></td></tr><tr><td>Sunday</td><td><time>8:00 AM - 12:00 AM</time></td></tr></table>",https://abudhabicoop.com/
Deena Tower,,COOP DEENA TOWER,,1022,6446.9,,Abu Dhabi,,,United Arab Emirates,24.49359,54.361095,800 232 6677 (800 ADCOOPS),,customerservice@adcoops.com,"<table role=""presentation"" class=""wpsl-opening-hours""><tr><td>Monday</td><td><time>12:00 AM - 12:00 AM</time></td></tr><tr><td>Tuesday</td><td><time>12:00 AM - 12:00 AM</time></td></tr><tr><td>Wednesday</td><td><time>12:00 AM - 12:00 AM</time></td></tr><tr><td>Thursday</td><td><time>12:00 AM - 12:00 AM</time></td></tr><tr><td>Friday</td><td><time>12:00 AM - 12:00 AM</time></td></tr><tr><td>Saturday</td><td><time>12:00 AM - 12:00 AM</time></td></tr><tr><td>Sunday</td><td><time>12:00 AM - 12:00 AM</time></td></tr></table>",https://abudhabicoop.com/
Madinat Zayed,"
<p> <strong>Supermarket</strong> </p>
",COOP MADINAT ZAYED,,956,6447,,Abu Dhabi,,,United Arab Emirates,24.48414,54.36494,(02) 632-4500,,customerservice@adcoops.com,"<table role=""presentation"" class=""wpsl-opening-hours""><tr><td>Monday</td><td><time>8:00 AM - 12:00 AM</time></td></tr><tr><td>Tuesday</td><td><time>8:00 AM - 12:00 AM</time></td></tr><tr><td>Wednesday</td><td><time>8:00 AM - 12:00 AM</time></td></tr><tr><td>Thursday</td><td><time>8:00 AM - 12:00 AM</time></td></tr><tr><td>Friday</td><td><time>8:00 AM - 12:00 AM</time></td></tr><tr><td>Saturday</td><td><time>8:00 AM - 12:00 AM</time></td></tr><tr><td>Sunday</td><td><time>8:00 AM - 12:00 AM</time></td></tr></table>",https://abudhabicoop.com/
Airport Road,"
<p><strong>Convenience</strong></p>
",SPAR AIRPORT ROAD,,1020,6447.3,,Abu Dhabi,,,United Arab Emirates,24.464909,54.374135,(02) 446 5497 / (02) 565 9173,,customerservice@adcoops.com,"<table role=""presentation"" class=""wpsl-opening-hours""><tr><td>Monday</td><td><time>8:00 AM - 12:00 AM</time></td></tr><tr><td>Tuesday</td><td><time>8:00 AM - 12:00 AM</time></td></tr><tr><td>Wednesday</td><td><time>8:00 AM - 12:00 AM</time></td></tr><tr><td>Thursday</td><td><time>8:00 AM - 12:00 AM</time></td></tr><tr><td>Friday</td><td><time>8:00 AM - 12:00 AM</time></td></tr><tr><td>Saturday</td><td><time>8:00 AM - 12:00 AM</time></td></tr><tr><td>Sunday</td><td><time>8:00 AM - 12:00 AM</time></td></tr></table>",https://abudhabicoop.com/
Hamdan,"
<p> <strong>Supermarket</strong> </p>
",COOP HAMDAN,,958,6447.6,,Abu Dhabi,,,United Arab Emirates,24.49389,54.36849,(02) 676 6766,,customerservice@adcoops.com,"<table role=""presentation"" class=""wpsl-opening-hours""><tr><td>Monday</td><td><time>12:00 AM - 12:00 AM</time></td></tr><tr><td>Tuesday</td><td><time>12:00 AM - 12:00 AM</time></td></tr><tr><td>Wednesday</td><td><time>12:00 AM - 12:00 AM</time></td></tr><tr><td>Thursday</td><td><time>12:00 AM - 12:00 AM</time></td></tr><tr><td>Friday</td><td><time>12:00 AM - 12:00 AM</time></td></tr><tr><td>Saturday</td><td><time>12:00 AM - 12:00 AM</time></td></tr><tr><td>Sunday</td><td><time>12:00 AM - 12:00 AM</time></td></tr></table>",https://abudhabicoop.com/
Al Jowhara Tower Corniche,"
<p><strong>Convenience</strong></p>
",SPAR JOWHARA,,937,6448.1,Abu Dhabi Tourist Club Area 833,Abu Dhabi,,,United Arab Emirates,24.50316,54.37024,(02) 565 9169 / (02) 446 4118,,customerservice@adcoops.com,"<table role=""presentation"" class=""wpsl-opening-hours""><tr><td>Monday</td><td><time>6:00 AM - 12:00 AM</time></td></tr><tr><td>Tuesday</td><td><time>6:00 AM - 12:00 AM</time></td></tr><tr><td>Wednesday</td><td><time>6:00 AM - 12:00 AM</time></td></tr><tr><td>Thursday</td><td><time>6:00 AM - 12:00 AM</time></td></tr><tr><td>Friday</td><td><time>6:00 AM - 12:00 AM</time></td></tr><tr><td>Saturday</td><td><time>6:00 AM - 12:00 AM</time></td></tr><tr><td>Sunday</td><td><time>6:00 AM - 12:00 AM</time></td></tr></table>",https://abudhabicoop.com/
Zayed 1st Street,"
<p> <strong>Supermarket</strong> </p>
",COOP ZAYED 1ST,,961,6448.2,,Abu Dhabi,,,United Arab Emirates,24.49303,54.37426,(02) 678 1999 / (02) 643 7213,,customerservice@adcoops.com,"<table role=""presentation"" class=""wpsl-opening-hours""><tr><td>Monday</td><td><time>12:00 AM - 12:00 AM</time></td></tr><tr><td>Tuesday</td><td><time>12:00 AM - 12:00 AM</time></td></tr><tr><td>Wednesday</td><td><time>12:00 AM - 12:00 AM</time></td></tr><tr><td>Thursday</td><td><time>12:00 AM - 12:00 AM</time></td></tr><tr><td>Friday</td><td><time>12:00 AM - 12:00 AM</time></td></tr><tr><td>Saturday</td><td><time>12:00 AM - 12:00 AM</time></td></tr><tr><td>Sunday</td><td><time>12:00 AM - 12:00 AM</time></td></tr></table>",https://abudhabicoop.com/
SPAR Electra,"
<p>  <strong>Convenience</strong> </p>
",SPAR ELECTRA,,1002,6448.4,,Abu Dhabi,,,United Arab Emirates,24.49571,54.37561,(02) 677 0777,,customerservice@adcoops.com,"<table role=""presentation"" class=""wpsl-opening-hours""><tr><td>Monday</td><td><time>8:00 AM - 12:00 AM</time></td></tr><tr><td>Tuesday</td><td><time>8:00 AM - 12:00 AM</time></td></tr><tr><td>Wednesday</td><td><time>8:00 AM - 12:00 AM</time></td></tr><tr><td>Thursday</td><td><time>8:00 AM - 12:00 AM</time></td></tr><tr><td>Friday</td><td><time>8:00 AM - 12:00 AM</time></td></tr><tr><td>Saturday</td><td><time>8:00 AM - 12:00 AM</time></td></tr><tr><td>Sunday</td><td><time>8:00 AM - 12:00 AM</time></td></tr></table>",https://abudhabicoop.com/
Plaza 30,"
<p><strong>Supermarket</strong></p>
",COOP PLAZA 30,,972,6448.5,,Abu Dhabi,,,United Arab Emirates,24.471335,54.385025,(02) 631 0563,,customerservice@adcoops.com,"<table role=""presentation"" class=""wpsl-opening-hours""><tr><td>Monday</td><td><time>8:00 AM - 12:00 AM</time></td></tr><tr><td>Tuesday</td><td><time>8:00 AM - 12:00 AM</time></td></tr><tr><td>Wednesday</td><td><time>8:00 AM - 12:00 AM</time></td></tr><tr><td>Thursday</td><td><time>8:00 AM - 12:00 AM</time></td></tr><tr><td>Friday</td><td><time>8:00 AM - 12:00 AM</time></td></tr><tr><td>Saturday</td><td><time>8:00 AM - 12:00 AM</time></td></tr><tr><td>Sunday</td><td><time>8:00 AM - 12:00 AM</time></td></tr></table>",https://abudhabicoop.com/
Abu Dhabi Coop Mina,"
<p> <strong>Hypermarket</strong> </p>
",COOP MINA,,893,6448.7,,Abu Dhabi,,,United Arab Emirates,24.51954,54.37147,(02) 673 4848,,customerservice@adcoops.com,"<table role=""presentation"" class=""wpsl-opening-hours""><tr><td>Monday</td><td><time>8:00 AM - 12:00 AM</time></td></tr><tr><td>Tuesday</td><td><time>8:00 AM - 12:00 AM</time></td></tr><tr><td>Wednesday</td><td><time>8:00 AM - 12:00 AM</time></td></tr><tr><td>Thursday</td><td><time>8:00 AM - 12:00 AM</time></td></tr><tr><td>Friday</td><td><time>8:00 AM - 12:00 AM</time></td></tr><tr><td>Saturday</td><td><time>8:00 AM - 12:00 AM</time></td></tr><tr><td>Sunday</td><td><time>8:00 AM - 12:00 AM</time></td></tr></table>",https://abudhabicoop.com/
Abu Dhabi Mall,"
<p> <strong>Hypermarket</strong> </p>
",COOP ABU DHABI MALL,,771,6449.1,,Abu Dhabi,,,United Arab Emirates,24.4966,54.38265,(02) 645-9777,,customerservice@adcoops.com,"<table role=""presentation"" class=""wpsl-opening-hours""><tr><td>Monday</td><td><time>8:00 AM - 12:00 AM</time></td></tr><tr><td>Tuesday</td><td><time>8:00 AM - 12:00 AM</time></td></tr><tr><td>Wednesday</td><td><time>8:00 AM - 12:00 AM</time></td></tr><tr><td>Thursday</td><td><time>8:00 AM - 12:00 PM</time></td></tr><tr><td>Friday</td><td><time>8:00 AM - 12:00 AM</time></td></tr><tr><td>Saturday</td><td><time>8:00 AM - 12:00 AM</time></td></tr><tr><td>Sunday</td><td><time>8:00 AM - 12:00 AM</time></td></tr></table>",https://abudhabicoop.com/
Al Zahiya,"
<p>  <strong>Convenience</strong> </p>
",SPAR AL ZAHIYA,,1004,6449.2,,Abu Dhabi,,,United Arab Emirates,24.49374,54.3846,(02) 441 4808,,customerservice@adcoops.com,"<table role=""presentation"" class=""wpsl-opening-hours""><tr><td>Monday</td><td><time>8:00 AM - 12:00 AM</time></td></tr><tr><td>Tuesday</td><td><time>8:00 AM - 12:00 AM</time></td></tr><tr><td>Wednesday</td><td><time>8:00 AM - 12:00 AM</time></td></tr><tr><td>Thursday</td><td><time>8:00 AM - 12:00 AM</time></td></tr><tr><td>Friday</td><td><time>8:00 AM - 12:00 AM</time></td></tr><tr><td>Saturday</td><td><time>8:00 AM - 12:00 AM</time></td></tr><tr><td>Sunday</td><td><time>8:00 AM - 12:00 AM</time></td></tr></table>",https://abudhabicoop.com/
Makani MBZ Z-7,"
<p> <strong>Supermarket</strong> </p>
",COOP MAKANI MBZ Z-7,,951,6449.6,,Abu Dhabi,,,United Arab Emirates,24.510502,54.383231,(02) 553 2120,,customerservice@adcoops.com,"<table role=""presentation"" class=""wpsl-opening-hours""><tr><td>Monday</td><td><time>8:00 AM - 12:00 AM</time></td></tr><tr><td>Tuesday</td><td><time>8:00 AM - 12:00 AM</time></td></tr><tr><td>Wednesday</td><td><time>8:00 AM - 12:00 AM</time></td></tr><tr><td>Thursday</td><td><time>8:00 AM - 12:00 AM</time></td></tr><tr><td>Friday</td><td><time>8:00 AM - 12:00 AM</time></td></tr><tr><td>Saturday</td><td><time>8:00 AM - 12:00 AM</time></td></tr><tr><td>Sunday</td><td><time>8:00 AM - 12:00 AM</time></td></tr></table>",https://abudhabicoop.com/
Muroor College,"
<p><strong>Convenience</strong></p>
",COOP POLICE MUROOR (COLLEGE),,982,6450.9,,Abu Dhabi,,,United Arab Emirates,24.43869,54.42051,(02) 448-8269,,customerservice@adcoops.com,"<table role=""presentation"" class=""wpsl-opening-hours""><tr><td>Monday</td><td><time>8:00 AM - 12:00 AM</time></td></tr><tr><td>Tuesday</td><td><time>8:00 AM - 12:00 AM</time></td></tr><tr><td>Wednesday</td><td><time>8:00 AM - 12:00 AM</time></td></tr><tr><td>Thursday</td><td><time>8:00 AM - 12:00 AM</time></td></tr><tr><td>Friday</td><td><time>8:00 AM - 12:00 AM</time></td></tr><tr><td>Saturday</td><td><time>8:00 AM - 12:00 AM</time></td></tr><tr><td>Sunday</td><td><time>8:00 AM - 12:00 AM</time></td></tr></table>",https://abudhabicoop.com/
Omega Tower,"
<p>  <strong>Convenience</strong> </p>
",SPAR OMEGA TOWER,,1006,6451.3,,Abu Dhabi,,,United Arab Emirates,24.499085,54.405050,(02) 679-8353,,customerservice@adcoops.com,"<table role=""presentation"" class=""wpsl-opening-hours""><tr><td>Monday</td><td><time>7:00 AM - 12:00 AM</time></td></tr><tr><td>Tuesday</td><td><time>7:00 AM - 12:00 AM</time></td></tr><tr><td>Wednesday</td><td><time>7:00 AM - 12:00 AM</time></td></tr><tr><td>Thursday</td><td><time>7:00 AM - 12:00 AM</time></td></tr><tr><td>Friday</td><td><time>7:00 AM - 12:00 AM</time></td></tr><tr><td>Saturday</td><td><time>7:00 AM - 12:00 AM</time></td></tr><tr><td>Sunday</td><td><time>7:00 AM - 12:00 AM</time></td></tr></table>",https://abudhabicoop.com/
Abu Dhabi Coop - Muroor,"
<p><strong>Hypermarket</strong></p>
",COOP MUROOR,,947,6452.6,,Abu Dhabi,,,United Arab Emirates,24.43362,54.43968,02-44898200,,customerservice@adcoops.com,"<table role=""presentation"" class=""wpsl-opening-hours""><tr><td>Monday</td><td><time>12:00 AM - 12:00 AM</time></td></tr><tr><td>Tuesday</td><td><time>12:00 AM - 12:00 AM</time></td></tr><tr><td>Wednesday</td><td><time>12:00 AM - 12:00 AM</time></td></tr><tr><td>Thursday</td><td><time>12:00 AM - 12:00 AM</time></td></tr><tr><td>Friday</td><td><time>12:00 AM - 12:00 AM</time></td></tr><tr><td>Saturday</td><td><time>12:00 AM - 12:00 AM</time></td></tr><tr><td>Sunday</td><td><time>12:00 AM - 12:00 AM</time></td></tr></table>",https://abudhabicoop.com/
Dhafeer Street - 31st St - Abu Dhabi,"
<p><strong>Hypermarket</strong></p>
",Abu Dhabi Co-operative Society &#8211; Muroor Branch,,891,6453,,Abu Dhabi,,,United Arab Emirates,24.443535,54.440122,800 232 6677 (800 ADCOOPS),,customerservice@adcoops.com,"<table role=""presentation"" class=""wpsl-opening-hours""><tr><td>Monday</td><td><time>12:00 AM - 12:00 AM</time></td></tr><tr><td>Tuesday</td><td><time>12:00 AM - 12:00 AM</time></td></tr><tr><td>Wednesday</td><td><time>12:00 AM - 12:00 AM</time></td></tr><tr><td>Thursday</td><td><time>12:00 AM - 12:00 AM</time></td></tr><tr><td>Friday</td><td><time>12:00 AM - 12:00 AM</time></td></tr><tr><td>Saturday</td><td><time>12:00 AM - 12:00 AM</time></td></tr><tr><td>Sunday</td><td><time>12:00 AM - 12:00 AM</time></td></tr></table>",
Police Al Maqta,"
<p> <strong>Convenience</strong> </p>
",COOP POLICE AL MAQTA,,976,6457.2,,Abu Dhabi,,,United Arab Emirates,24.417937,54.492055,800 232 6677 (800 ADCOOPS),,customerservice@adcoops.com,"<table role=""presentation"" class=""wpsl-opening-hours""><tr><td>Monday</td><td><time>8:00 AM - 12:00 AM</time></td></tr><tr><td>Tuesday</td><td><time>8:00 AM - 12:00 AM</time></td></tr><tr><td>Wednesday</td><td><time>8:00 AM - 12:00 AM</time></td></tr><tr><td>Thursday</td><td><time>8:00 AM - 12:00 AM</time></td></tr><tr><td>Friday</td><td><time>8:00 AM - 12:00 AM</time></td></tr><tr><td>Saturday</td><td><time>8:00 AM - 12:00 AM</time></td></tr><tr><td>Sunday</td><td><time>8:00 AM - 12:00 AM</time></td></tr></table>",https://abudhabicoop.com/
Bail Al Jasrain,"
<p> <strong>Supermarket</strong> </p>
",COOP BAIN AL JASRAIN,,949,6457.8,,Abu Dhabi,,,United Arab Emirates,24.414333,54.499194,(02) 444 1032,,customerservice@adcoops.com,"<table role=""presentation"" class=""wpsl-opening-hours""><tr><td>Monday</td><td><time>12:00 AM - 12:00 AM</time></td></tr><tr><td>Tuesday</td><td><time>12:00 AM - 12:00 AM</time></td></tr><tr><td>Wednesday</td><td><time>12:00 AM - 12:00 AM</time></td></tr><tr><td>Thursday</td><td><time>12:00 AM - 12:00 AM</time></td></tr><tr><td>Friday</td><td><time>12:00 AM - 12:00 AM</time></td></tr><tr><td>Saturday</td><td><time>12:00 AM - 12:00 AM</time></td></tr><tr><td>Sunday</td><td><time>12:00 AM - 12:00 AM</time></td></tr></table>",https://abudhabicoop.com/
Khalifa City A,"
<p><strong>Hypermarket</strong></p>
",SPAR KHALIFA CITY A,,929,6464.4,,Abu Dhabi,,,United Arab Emirates,24.40654,54.56923,(02) 557-7877,,customerservice@adcoops.com,"<table role=""presentation"" class=""wpsl-opening-hours""><tr><td>Monday</td><td><time>8:00 AM - 12:00 AM</time></td></tr><tr><td>Tuesday</td><td><time>8:00 AM - 12:00 AM</time></td></tr><tr><td>Wednesday</td><td><time>8:00 AM - 12:00 AM</time></td></tr><tr><td>Thursday</td><td><time>8:00 AM - 12:00 AM</time></td></tr><tr><td>Friday</td><td><time>8:00 AM - 12:00 AM</time></td></tr><tr><td>Saturday</td><td><time>8:00 AM - 12:00 AM</time></td></tr><tr><td>Sunday</td><td><time>8:00 AM - 12:00 AM</time></td></tr></table>",https://abudhabicoop.com/
Makani Khalifa City SE-13,"
<p> <strong>Supermarket</strong> </p>
",COOP MAKANI KHALIFA CITY SE-13,,954,6465.7,,Abu Dhabi,,,United Arab Emirates,24.419962,54.578616,(02) 556 7887,,customerservice@adcoops.com,"<table role=""presentation"" class=""wpsl-opening-hours""><tr><td>Monday</td><td><time>8:00 AM - 12:00 AM</time></td></tr><tr><td>Tuesday</td><td><time>8:00 AM - 12:00 AM</time></td></tr><tr><td>Wednesday</td><td><time>8:00 AM - 12:00 AM</time></td></tr><tr><td>Thursday</td><td><time>8:00 AM - 12:00 AM</time></td></tr><tr><td>Friday</td><td><time>8:00 AM - 12:00 AM</time></td></tr><tr><td>Saturday</td><td><time>8:00 AM - 12:00 AM</time></td></tr><tr><td>Sunday</td><td><time>8:00 AM - 12:00 AM</time></td></tr></table>",https://abudhabicoop.com/
Shamkha,"
<p><strong>Hypermarket</strong></p>
",SPAR SHAMKHA,,935,6478.7,,Abu Dhabi,,,United Arab Emirates,24.38692,54.72266,(02) 584-5845,,customerservice@adcoops.com,"<table role=""presentation"" class=""wpsl-opening-hours""><tr><td>Monday</td><td><time>8:00 AM - 12:00 AM</time></td></tr><tr><td>Tuesday</td><td><time>8:00 AM - 12:00 AM</time></td></tr><tr><td>Wednesday</td><td><time>8:00 AM - 12:00 AM</time></td></tr><tr><td>Thursday</td><td><time>8:00 AM - 12:00 AM</time></td></tr><tr><td>Friday</td><td><time>8:00 AM - 12:00 AM</time></td></tr><tr><td>Saturday</td><td><time>8:00 AM - 12:00 AM</time></td></tr><tr><td>Sunday</td><td><time>8:00 AM - 12:00 AM</time></td></tr></table>",https://abudhabicoop.com/
Al Falah A,"
<p> <strong>Convenience</strong></p>
",SPAR AL FALAH A,,1018,6479.3,,Abu Dhabi,,,United Arab Emirates,24.44188,54.71142,(02) 555-2828,,customerservice@adcoops.com,"<table role=""presentation"" class=""wpsl-opening-hours""><tr><td>Monday</td><td><time>8:00 AM - 12:00 AM</time></td></tr><tr><td>Tuesday</td><td><time>8:00 AM - 12:00 AM</time></td></tr><tr><td>Wednesday</td><td><time>8:00 AM - 12:00 AM</time></td></tr><tr><td>Thursday</td><td><time>8:00 AM - 12:00 AM</time></td></tr><tr><td>Friday</td><td><time>8:00 AM - 12:00 AM</time></td></tr><tr><td>Saturday</td><td><time>8:00 AM - 12:00 AM</time></td></tr><tr><td>Sunday</td><td><time>8:00 AM - 12:00 AM</time></td></tr></table>",https://abudhabicoop.com/
Al Falah E,"
<p><strong>Convenience</strong></p>
",SPAR AL FALAH E,,921,6481.2,,Abu Dhabi,,,United Arab Emirates,24.43496,54.73305,(02) 584-8156,,customerservice@adcoops.com,"<table role=""presentation"" class=""wpsl-opening-hours""><tr><td>Monday</td><td><time>8:00 AM - 12:00 AM</time></td></tr><tr><td>Tuesday</td><td><time>8:00 AM - 12:00 AM</time></td></tr><tr><td>Wednesday</td><td><time>8:00 AM - 12:00 AM</time></td></tr><tr><td>Thursday</td><td><time>8:00 AM - 12:00 AM</time></td></tr><tr><td>Friday</td><td><time>8:00 AM - 12:00 AM</time></td></tr><tr><td>Saturday</td><td><time>8:00 AM - 12:00 AM</time></td></tr><tr><td>Sunday</td><td><time>8:00 AM - 12:00 AM</time></td></tr></table>",https://abudhabicoop.com/
Al Falah B,"
<p>  <strong>Convenience</strong> </p>
",SPAR AL FALAH B,,1010,6481.8,,Abu Dhabi,,,United Arab Emirates,24.43184,54.74066,(02) 555-2828,,customerservice@adcoops.com,"<table role=""presentation"" class=""wpsl-opening-hours""><tr><td>Monday</td><td><time>8:00 AM - 12:00 AM</time></td></tr><tr><td>Tuesday</td><td><time>8:00 AM - 12:00 AM</time></td></tr><tr><td>Wednesday</td><td><time>8:00 AM - 12:00 AM</time></td></tr><tr><td>Thursday</td><td><time>8:00 AM - 12:00 AM</time></td></tr><tr><td>Friday</td><td><time>8:00 AM - 12:00 AM</time></td></tr><tr><td>Saturday</td><td><time>8:00 AM - 12:00 AM</time></td></tr><tr><td>Sunday</td><td><time>8:00 AM - 12:00 AM</time></td></tr></table>",https://abudhabicoop.com/
Al Falah D,"
<p>  <strong>Convenience</strong> </p>
",SPAR AL FALAH D,,1014,6481.9,,Abu Dhabi,,,United Arab Emirates,24.45781,54.73284,(02) 555-2828,,customerservice@adcoops.com,"<table role=""presentation"" class=""wpsl-opening-hours""><tr><td>Monday</td><td><time>8:00 AM - 12:00 AM</time></td></tr><tr><td>Tuesday</td><td><time>8:00 AM - 12:00 AM</time></td></tr><tr><td>Wednesday</td><td><time>8:00 AM - 12:00 AM</time></td></tr><tr><td>Thursday</td><td><time>8:00 AM - 12:00 AM</time></td></tr><tr><td>Friday</td><td><time>8:00 AM - 12:00 AM</time></td></tr><tr><td>Saturday</td><td><time>8:00 AM - 12:00 AM</time></td></tr><tr><td>Sunday</td><td><time>8:00 AM - 12:00 AM</time></td></tr></table>",https://abudhabicoop.com/
Al Falah F,"
<p>  <strong>Convenience</strong> </p>
",SPAR AL FALAH F,,1000,6482.1,,Abu Dhabi,,,United Arab Emirates,24.44352,54.73988,800 232 6677 (800 ADCOOPS),,customerservice@adcoops.com,"<table role=""presentation"" class=""wpsl-opening-hours""><tr><td>Monday</td><td><time>8:00 AM - 12:00 AM</time></td></tr><tr><td>Tuesday</td><td><time>8:00 AM - 12:00 AM</time></td></tr><tr><td>Wednesday</td><td><time>8:00 AM - 12:00 AM</time></td></tr><tr><td>Thursday</td><td><time>8:00 AM - 12:00 AM</time></td></tr><tr><td>Friday</td><td><time>8:00 AM - 12:00 AM</time></td></tr><tr><td>Saturday</td><td><time>8:00 AM - 12:00 AM</time></td></tr><tr><td>Sunday</td><td><time>8:00 AM - 12:00 AM</time></td></tr></table>",https://abudhabicoop.com/
Al Falah C,"
<p>  <strong>Convenience</strong> </p>
",SPAR AL FALAH C,,1012,6482.5,,Abu Dhabi,,,United Arab Emirates,24.45241,54.74068,(02) 555-2828,,customerservice@adcoops.com,"<table role=""presentation"" class=""wpsl-opening-hours""><tr><td>Monday</td><td><time>8:00 AM - 12:00 AM</time></td></tr><tr><td>Tuesday</td><td><time>8:00 AM - 12:00 AM</time></td></tr><tr><td>Wednesday</td><td><time>8:00 AM - 12:00 AM</time></td></tr><tr><td>Thursday</td><td><time>8:00 AM - 12:00 AM</time></td></tr><tr><td>Friday</td><td><time>8:00 AM - 12:00 AM</time></td></tr><tr><td>Saturday</td><td><time>8:00 AM - 12:00 AM</time></td></tr><tr><td>Sunday</td><td><time>8:00 AM - 12:00 AM</time></td></tr></table>",https://abudhabicoop.com/
Glitz,"
<p> <strong>Supermarket</strong> </p>
",SPAR GLITZ,,923,6550.1,,Abu Dhabi,,,United Arab Emirates,25.042001,55.248477,04 554 0564,,customerservice@adcoops.com,"<table role=""presentation"" class=""wpsl-opening-hours""><tr><td>Monday</td><td><time>8:00 AM - 12:00 AM</time></td></tr><tr><td>Tuesday</td><td><time>8:00 AM - 12:00 AM</time></td></tr><tr><td>Wednesday</td><td><time>8:00 AM - 12:00 AM</time></td></tr><tr><td>Thursday</td><td><time>8:00 AM - 12:00 AM</time></td></tr><tr><td>Friday</td><td><time>8:00 AM - 12:00 AM</time></td></tr><tr><td>Saturday</td><td><time>8:00 AM - 12:00 AM</time></td></tr><tr><td>Sunday</td><td><time>8:00 AM - 12:00 AM</time></td></tr></table>",https://abudhabicoop.com/
Zakher,"
<p><strong>Hypermarket</strong></p>
",SPAR ZAKHER,,931,6565.7,,Abu Dhabi,,,United Arab Emirates,24.11033,55.70159,03 737 4971,,customerservice@adcoops.com,"<table role=""presentation"" class=""wpsl-opening-hours""><tr><td>Monday</td><td><time>12:00 AM - 12:00 AM</time></td></tr><tr><td>Tuesday</td><td><time>12:00 AM - 12:00 AM</time></td></tr><tr><td>Wednesday</td><td><time>12:00 AM - 12:00 AM</time></td></tr><tr><td>Thursday</td><td><time>12:00 AM - 12:00 AM</time></td></tr><tr><td>Friday</td><td><time>12:00 AM - 12:00 AM</time></td></tr><tr><td>Saturday</td><td><time>12:00 AM - 12:00 AM</time></td></tr><tr><td>Sunday</td><td><time>12:00 AM - 12:00 AM</time></td></tr></table>",https://abudhabicoop.com/
Al Nahda,"
<p><strong>Supermarket</strong></p>
",MEGAMART AL NAHDA,,987,6569.6,,Dubai,,,United Arab Emirates,25.29171,55.3688,04 298 3100,,customerservice@adcoops.com,"<table role=""presentation"" class=""wpsl-opening-hours""><tr><td>Monday</td><td><time>12:00 AM - 12:00 AM</time></td></tr><tr><td>Tuesday</td><td><time>12:00 AM - 12:00 AM</time></td></tr><tr><td>Wednesday</td><td><time>12:00 AM - 12:00 AM</time></td></tr><tr><td>Thursday</td><td><time>12:00 AM - 12:00 AM</time></td></tr><tr><td>Friday</td><td><time>12:00 AM - 12:00 AM</time></td></tr><tr><td>Saturday</td><td><time>12:00 AM - 12:00 AM</time></td></tr><tr><td>Sunday</td><td><time>12:00 AM - 12:00 AM</time></td></tr></table>",https://abudhabicoop.com/
Police Al Ain,"
<p> <strong>Convenience</strong> </p>
",COOP POLICE AL AIN,,980,6570.3,,Al Ain,,,United Arab Emirates,24.195687,55.723031,800 232 6677 (800 ADCOOPS),,customerservice@adcoops.com,"<table role=""presentation"" class=""wpsl-opening-hours""><tr><td>Monday</td><td><time>8:00 AM - 12:00 AM</time></td></tr><tr><td>Tuesday</td><td><time>8:00 AM - 12:00 AM</time></td></tr><tr><td>Wednesday</td><td><time>8:00 AM - 12:00 AM</time></td></tr><tr><td>Thursday</td><td><time>8:00 AM - 12:00 AM</time></td></tr><tr><td>Friday</td><td><time>8:00 AM - 12:00 AM</time></td></tr><tr><td>Saturday</td><td><time>8:00 AM - 12:00 AM</time></td></tr><tr><td>Sunday</td><td><time>8:00 AM - 12:00 AM</time></td></tr></table>",https://abudhabicoop.com/
Jamal,"
<p><strong>Convenience</strong></p>
",MEGAMART JAMAL,,919,6571.6,,Sharjah,,,United Arab Emirates,25.31751,55.38147,06 553 2200,,customerservice@adcoops.com,"<table role=""presentation"" class=""wpsl-opening-hours""><tr><td>Monday</td><td><time>12:00 AM - 12:00 AM</time></td></tr><tr><td>Tuesday</td><td><time>12:00 AM - 12:00 AM</time></td></tr><tr><td>Wednesday</td><td><time>12:00 AM - 12:00 AM</time></td></tr><tr><td>Thursday</td><td><time>12:00 AM - 12:00 AM</time></td></tr><tr><td>Friday</td><td><time>12:00 AM - 12:00 AM</time></td></tr><tr><td>Saturday</td><td><time>12:00 AM - 12:00 AM</time></td></tr><tr><td>Sunday</td><td><time>12:00 AM - 12:00 AM</time></td></tr></table>",https://abudhabicoop.com/
Al Qasimiya,"
<p><strong>Supermarket</strong></p>
",MEGAMART QASSIMIYA,,917,6573.2,,Sharjah,,,United Arab Emirates,25.34228,55.39046,06 575 4455,,customerservice@adcoops.com,"<table role=""presentation"" class=""wpsl-opening-hours""><tr><td>Monday</td><td><time>12:00 AM - 12:00 AM</time></td></tr><tr><td>Tuesday</td><td><time>12:00 AM - 12:00 AM</time></td></tr><tr><td>Wednesday</td><td><time>12:00 AM - 12:00 AM</time></td></tr><tr><td>Thursday</td><td><time>12:00 AM - 12:00 AM</time></td></tr><tr><td>Friday</td><td><time>12:00 AM - 12:00 AM</time></td></tr><tr><td>Saturday</td><td><time>12:00 AM - 12:00 AM</time></td></tr><tr><td>Sunday</td><td><time>12:00 AM - 12:00 AM</time></td></tr></table>",https://abudhabicoop.com/
"Sharjah Megamall, Immigration Road","
<p><strong>Hypermarket</strong></p>
",MEGAMART MEGAMALL,,915,6574.1,,Sharjah,,,United Arab Emirates,25.34531,55.39872,06 574 4481,,customerservice@adcoops.com,"<table role=""presentation"" class=""wpsl-opening-hours""><tr><td>Monday</td><td><time>12:00 AM - 12:00 AM</time></td></tr><tr><td>Tuesday</td><td><time>12:00 AM - 12:00 AM</time></td></tr><tr><td>Wednesday</td><td><time>12:00 AM - 12:00 AM</time></td></tr><tr><td>Thursday</td><td><time>12:00 AM - 12:00 AM</time></td></tr><tr><td>Friday</td><td><time>12:00 AM - 12:00 AM</time></td></tr><tr><td>Saturday</td><td><time>12:00 AM - 12:00 AM</time></td></tr><tr><td>Sunday</td><td><time>12:00 AM - 12:00 AM</time></td></tr></table>",https://abudhabicoop.com/
Al Naeem,"
<p><strong>Hypermarket</strong></p>
",SPAR AL NAEEM,,933,6642.9,,Abu Dhabi,,,United Arab Emirates,25.79162,55.96716,07 226 4206,,customerservice@adcoops.com,"<table role=""presentation"" class=""wpsl-opening-hours""><tr><td>Monday</td><td><time>8:00 AM - 12:00 AM</time></td></tr><tr><td>Tuesday</td><td><time>8:00 AM - 12:00 AM</time></td></tr><tr><td>Wednesday</td><td><time>8:00 AM - 12:00 AM</time></td></tr><tr><td>Thursday</td><td><time>8:00 AM - 12:00 AM</time></td></tr><tr><td>Friday</td><td><time>8:00 AM - 12:00 AM</time></td></tr><tr><td>Saturday</td><td><time>8:00 AM - 12:00 AM</time></td></tr><tr><td>Sunday</td><td><time>8:00 AM - 12:00 AM</time></td></tr></table>",https://abudhabicoop.com/
