BranchType_EN,Channel/ar,Channel/en,Latitude,Longitude,OpeningHours,Services/0/ar,Services/0/en,Title_Name_EN,Address_EN,BranchLocationCity/ar,BranchLocationCity/en,Phone,Region/ar,Region/en,_id,Title_Name_AR,Address_AR,BranchType_AR,Services/1/ar,Services/1/en,Services/2/ar,Services/2/en,Services/3/ar,Services/3/en,Services/4/ar,Services/4/en
Regular,Branch Office,Branch Office,24.85949,46.728268,8:00 - 3:00,الخدمات المصرفية للسيدات,Ladies Banking Services,233.  Princess Nora University (1),"Airport Road , Al-RIYADH",الرياض,Al-RIYADH,011-477-4587<br/>011-478-8551,الوسطى,Central,15676,جامعة الأميرة نورة (1),"طريق المطار , الرياض",عادي,,,,,,,,
Regular,Branch Office,Branch Office,27.49733,41.69875,9:30 - 4:30,المصرفية الماسية,Diamond Banking,622. Al Bohairah Branch,"King Saud Rd , HAIL",حائل,HAIL,016-566-2470,الشمالية,Northern,1869,فرع البحيرة,"طريق الملك سعود , حائل",عادي,المصرفية الذهبية,Golden Banking,الخدمات المصرفية للسيدات,Ladies Banking Services,,,,
Islamic,Branch Office,Branch Office,26.0765,43.98079,9:30 - 4:30,,,616. AL Jabria,"Ar Rayan main Street - Zamil Abdullah Al Suleim St. , ONAIZA",عنيزة,ONAIZA,016-364-4324,القصيم,Qassim,1720,فرع الجابرية,"شارع الريان - شارع زامل العبد الله السليم , عنيزة",إسلامي,,,,,,,,
Islamic,Branch Office,Branch Office,27.473677,48.48903,9:30 - 4:30,,,357. AL Nuarriah,"King Abdulaziz Rd , AL-NOAIREYAH",النعيرية,AL-NOAIREYAH,013-373-3484,الشرقية,Eastern,1684,فرع النعيرية,"طريق الملك عبد العزيز , النعيرية",إسلامي,,,,,,,,
Regular,Branch Office,Branch Office,21.49633,39.18583,9:30 - 4:30,المصرفية الذهبية,Golden Banking,135. AL-BAGHDADIYAH,"Al Madinah Al Munawarah Rd , JEDDAH",جدة,JEDDAH,012-645-0488,الغربية,Western,1542,فرع البغدادية,"طريق المدينة المنورة , جدة",عادي,,,,,,,,
Islamic,Branch Office,Branch Office,18.212646,42.49931,9:30 - 4:30,المصرفية الذهبية,Golden Banking,500. Abha,"Immam Abdulrahman Bin Faisal Bin Turki Rd , ABHA",ابها,ABHA,017-226-0000,الجنوبية,Southern,1687,فرع أبها الرئيسي,"طريق الإمام عبدالرحمن بن فيصل بن تركي , ابها",إسلامي,الخدمات المصرفية للسيدات,Ladies Banking Services,,,,,,
Regular,Branch Office,Branch Office,25.9303381976021,49.6627386285661,9:30 - 4:30,المصرفية الذهبية,Golden Banking,309. Abqaiq,"Corner of 36th and Hofuf St. , BGAIG",بقيق,BGAIG,013-566-1303,الشرقية,Eastern,1643,بقيق,"تقاطع شارع 36 مع شارع الهفوف , بقيق",عادي,,,,,,,,
Islamic,Branch Office,Branch Office,16.975386,42.828153,9:30 - 4:30,,,520. Abu Arish,"King Abdulaziz St. , ABU ARISH",ابو عريش,ABU ARISH,017-325-1010,الجنوبية,Southern,1704,فرع أبوعريش,"شارع الملك عبد العزيز , ابو عريش",إسلامي,,,,,,,,
Islamic,Branch Office,Branch Office,16.71116,42.948797,9:30 - 4:30,,,501. Ahad Al-Masarha,"King Abdullah Rd , AHAD AL-MASARHA",احد المسارحة,AHAD AL-MASARHA,017-319-1036,الجنوبية,Southern,1688,فرع أحد المسارحة,"طريق الملك عبدالله , احد المسارحة",إسلامي,,,,,,,,
Islamic,Branch Office,Branch Office,24.75593236,46.78954552,9:30 - 4:30,المصرفية الذهبية,Golden Banking,240. Al Andlos,"Prince Bandar Bin Abdulaziz Rd , Al-RIYADH",الرياض,Al-RIYADH,011-226-8868,الوسطى,Central,1608,فرع الاندلس ,"طريق الأمير بندر بن عبد العزيز , الرياض",إسلامي,,,,,,,,
Islamic,Branch Office,Branch Office,24.79224,46.63094,9:30 - 4:30,,,246. Al Aqiik,"King Fahd Rd , Al-RIYADH",الرياض,Al-RIYADH,011-485-4306,الوسطى,Central,1613,العقيق,"طريق الملك فهد , الرياض",إسلامي,,,,,,,,
Regular,Branch Office,Branch Office,17.56064,44.31211,9:30 - 4:30,,,526. Al Aresah,"Al Aresah Dist. King Abdulaziz Road , NAJRAN",نجران,NAJRAN,017-542-3848 <br/>017-542-3817,الجنوبية,Southern,8760,فرع العريسة,"حي العريسة - طريق الملك عبدالعزيز , نجران",عادي,,,,,,,,
Islamic,Branch Office,Branch Office,24.42175,39.52699,9:30 - 4:30,المصرفية الذهبية,Golden Banking,168. Al Aziziah Branch - Al Madinah,"Salim Ibn Amr - Al-Aziziah St , AL-MADINAH AL-MUNAWWARAH",المدينة المنورة,AL-MADINAH AL-MUNAWWARAH,014-840-0284,الغربية,Western,1560,فرع العزيزية,"شارع سليم بن عمرو - شارع العزيزية , المدينة المنورة",إسلامي,,,,,,,,
Regular,Branch Office,Branch Office,21.405937,39.871452,9:30 - 4:30,,,163. Al Azziziah,"Al Masjid Al Haram Rd - Al Azziziah St. , MAKKAH AL-MUKARRAMAH",مكة المكرمة,MAKKAH AL-MUKARRAMAH,012-559-4931,الغربية,Western,15831,فرع العزيزية,"طريق المسجد الحرام - شارع العزيزية , مكة المكرمة",عادي,,,,,,,,
Regular,Branch Office,Branch Office,24.5886409,46.77775446,9:30 - 4:30,المصرفية الذهبية,Golden Banking,226. Al Azziziah,"Al Aziziah Rd , Al-RIYADH",الرياض,Al-RIYADH,011-495-2595,الوسطى,Central,1598,فرع العزيزية,"طريق العزيزيه العام , الرياض",عادي,,,,,,,,
Islamic,Branch Office,Branch Office,21.55758,39.20362,9:30 - 4:30,المصرفية الذهبية,Golden Banking,176. Al Azziziah - Jeddah,"Prince Majid Rd , JEDDAH",جدة,JEDDAH,012-617-1144,الغربية,Western,1563,فرع حي العزيزية,"شارع الأمير ماجد , جدة",إسلامي,الخدمات المصرفية للسيدات,Ladies Banking Services,,,,,,
Islamic,Branch Office,Branch Office,24.61987,46.67924,9:30 - 4:30,المصرفية الماسية,Diamond Banking,268. Al Badeea'a,"Ash Shaikh Abdulaziz Ibn Baz St. , Al-RIYADH",الرياض,Al-RIYADH,011-435-2456,الوسطى,Central,1626,فرع البديعة,"شارع الشيخ عبد العزيز بن باز , الرياض",إسلامي,,,,,,,,
Regular,Branch Office,Branch Office,21.64412,39.11198,9:30 - 4:30,المصرفية الماسية,Diamond Banking,190. Al Basateen,"King Abdul Aziz Rd , JEDDAH",جدة,JEDDAH,012-238-5014,الغربية,Western,1577,فرع البساتين,"طريق الملك عبد العزيز , جدة",عادي,المصرفية الذهبية,Golden Banking,خدمات الاستثمار,Investment Services,,,,
Regular,Branch Office,Branch Office,26.314574,50.216402,9:30 - 4:30,,,332. AL Boustan,"King Faisal St. , AL-KHOBAR",الخبر,AL-KHOBAR,013-849-3789,الشرقية,Eastern,1665,فرع الخبر البستان,"طريق الملك فيصل , الخبر",عادي,,,,,,,,
Islamic,Branch Office,Branch Office,26.152715,43.653038,9:30 - 4:30,,,620. Al Bukayriyah,"King Abdulaziz Rd , Al-BUKAYRIYAH",البكيرية,Al-BUKAYRIYAH,016-335-0008,القصيم,Qassim,1724,فرع البكيرية,"طريق الملك عبد العزيز , البكيرية",إسلامي,,,,,,,,
Islamic,Branch Office,Branch Office,23.99542293,47.13930948,9:30 - 4:30,المصرفية الذهبية,Golden Banking,291. Al Delam,"King Fahd Rd - Public St. , AL-DELAM",الدلم,AL-DELAM,011-541-0001,الوسطى,Central,1631,فرع الدلم,"طريق الملك فهد - الشارع العام , الدلم",إسلامي,,,,,,,,
Regular,Branch Office,Branch Office,25.42618,49.573505,9:30 - 4:30,المصرفية الماسية,Diamond Banking,340. AL Dhahran St.,"Al-Dhahran Rd - Al-Mobaraz , AL-AHSSA",الاحساء,AL-AHSSA,013-536-3904,الشرقية,Eastern,1670,فرع شارع الظهران,"شارع الظهران , الاحساء",عادي,الخدمات المصرفية للسيدات,Ladies Banking Services,الخدمات المصرفية للشركات,Corporate Banking Services,مراكز الأعمال الناشئة,Emerging Enterprises Centers,,
Islamic,Branch Office,Branch Office,26.32298,50.16244,9:30 - 4:30,المصرفية الذهبية,Golden Banking,337. Al Doha,"Abdullah Ibn Al Abbas St. , AL-DHRAN",الظهران,AL-DHRAN,013-588-6450,الشرقية,Eastern,1669,فرع الدوحة ,"شارع عبدالله ابن العباس , الظهران",إسلامي,الخدمات المصرفية للسيدات,Ladies Banking Services,,,,,,
Regular,Branch Office,Branch Office,26.407382,50.060494,9:30 - 4:30,المصرفية الماسية,Diamond Banking,347. Al Faisaliah,"King Fahd Rd , DAMMAM",الدمام,DAMMAM,013-815-5596,الشرقية,Eastern,1676,فرع الفيصلية,"طريق الملك فهد , الدمام",عادي,المصرفية الذهبية,Golden Banking,الخدمات المصرفية للسيدات,Ladies Banking Services,خدمات الاستثمار,Investment Services,,
Islamic,Branch Office,Branch Office,21.44082,39.2816,9:30 - 4:30,المصرفية الماسية,Diamond Banking,188. Al Falah,"Makkah - Jeddah Hwy , JEDDAH",جدة,JEDDAH,012-683-2949,الغربية,Western,1575,فرع الفلاح,"طريق مكة جدة السريع , جدة",إسلامي,المصرفية الذهبية,Golden Banking,,,,,,
Regular,Branch Office,Branch Office,27.146821,49.567073,9:30 - 4:30,,,354. Al Fanateer,"Dharan Rd - Al Fanateer District , AL-JUBAIL",الجبيل,AL-JUBAIL,013-363-0989,الشرقية,Eastern,8813,فرع الفناتير,"شارع الظهران - الفناتير , الجبيل",عادي,,,,,,,,
Regular,Branch Office,Branch Office,21.49152,39.22083,9:30 - 4:30,,,117. Al Fayha,"Abdullah Alsulaiman St. , JEDDAH",جدة,JEDDAH,012-630-3531,الغربية,Western,1530,فرع الفيحاء,"شارع عبدالله السليمان , جدة",عادي,,,,,,,,
Islamic,Branch Office,Branch Office,26.02745,44.948463,9:30 - 4:30,,,601. Al Ghat,"King Abdulaziz Rd , AL-GHAT",الغاط,AL-GHAT,016-442-1916,الوسطى,Central,1708,فرع الغاط,"طريق الملك عبد العزيز , الغاط",إسلامي,,,,,,,,
Regular,Branch Office,Branch Office,24.787097,46.75722,9:30 - 4:30,,,214. AL Hamara,"Imam Abdullah Ibn Saud Ibn Abdulaziz Rd , Al-RIYADH",الرياض,Al-RIYADH,011-473-4231,الوسطى,Central,5261,فرع الحمراء,"حي الحمراء – طريق الإمام عبدالله بن سعود بن عبد العزيز , الرياض",عادي,,,,,,,,
Regular,Branch Office,Branch Office,24.685493,46.733409,9:30 - 4:30,المصرفية الذهبية,Golden Banking,297. Al Hassa St.,"Al Ihsa St. , Al-RIYADH",الرياض,Al-RIYADH,011-477-1286,الوسطى,Central,1633,فرع شارع الاحساء,"شارع الاحساء , الرياض",عادي,الخدمات المصرفية للشركات,Corporate Banking Services,,,,,,
Islamic,Branch Office,Branch Office,21.43963,40.50025,9:30 - 4:30,,,138. Al Hawiyah,"Airport Rd , AL-TAIF",الطائف,AL-TAIF,012-725-2493,الغربية,Western,1545,فرع الحوية,"طريق المطار , الطائف",إسلامي,,,,,,,,
Regular,Branch Office,Branch Office,24.597169,46.711541,9:30 - 4:30,المصرفية الذهبية,Golden Banking,290. Al Hejaz Road,"Prince Abdullah Ibn Abdulrahman Rd , Al-RIYADH",الرياض,Al-RIYADH,011-459-2204,الوسطى,Central,1630,طريق الحجاز,"طريق الأمير عبد الله بن عبد الرحمن , الرياض",عادي,,,,,,,,
Regular,Branch Office,Branch Office,25.381358,49.590013,9:30 - 4:30,المصرفية الماسية,Diamond Banking,304. Al Hofuf,"Ali Ibn Abi Talib St. , AL-AHSSA",الاحساء,AL-AHSSA,013-586-1960,الشرقية,Eastern,1638,فرع الهفوف الرئيسي,"شارع علي بن أبي طالب , الاحساء",عادي,المصرفية الذهبية,Golden Banking,الخدمات المصرفية للسيدات,Ladies Banking Services,خدمات الاستثمار,Investment Services,الخدمات المصرفية للشركات,Corporate Banking Services
Regular,Branch Office,Branch Office,25.37428,49.72018,9:30 - 4:30,المصرفية الذهبية,Golden Banking,317. Al Jaffr,"Al Jaffr main St. , AL-AHSSA",الاحساء,AL-AHSSA,013-539-1811,الشرقية,Eastern,1651,فرع الجفر,"طريق الجفر - الشارع الرئيسي , الاحساء",عادي,,,,,,,,
Regular,Branch Office,Branch Office,26.441974,50.079568,9:30 - 4:30,المصرفية الذهبية,Golden Banking,322. Al Jalawiayah,"King Saud St. , DAMMAM",الدمام,DAMMAM,013-830-2811,الشرقية,Eastern,1656,فرع الجلوية,"شارع الملك  سعود , الدمام",عادي,الخدمات المصرفية للسيدات,Ladies Banking Services,,,,,,
Islamic,Branch Office,Branch Office,26.32642,43.974148,9:30 - 4:30,المصرفية الذهبية,Golden Banking,602. Al Jerdah,"King Faisal Rd , BURAIDAH",بريدة,BURAIDAH,016-324-0871,القصيم,Qassim,1709,فرع الجردة,"طريق الملك فيصل , بريدة",إسلامي,,,,,,,,
Regular,Branch Office,Branch Office,26.20574,50.208396,9:30 - 4:30,,,365. Al Jesser,"Al-Jesser Street , AL-KHOBAR",الخبر,AL-KHOBAR,013-830-5687,الشرقية,Eastern,10205,فرع الجسر,"شارع الجسر , الخبر",عادي,,,,,,,,
Islamic,Branch Office,Branch Office,26.990776,49.645235,9:30 - 4:30,المصرفية الماسية,Diamond Banking,308. Al Jubail,"King Faisal Western St. , AL-JUBAIL",الجبيل,AL-JUBAIL,013-362-0845,الشرقية,Eastern,1642,فرع الجبيل,"شارع الملك فيصل الغربي تقاطع شارع الملك عبد الله , الجبيل",إسلامي,المصرفية الذهبية,Golden Banking,الخدمات المصرفية للسيدات,Ladies Banking Services,,,,
Regular,Branch Office,Branch Office,26.99063,49.64489,9:30 - 4:30,المصرفية الذهبية,Golden Banking,323. Al Jubail industry,"King Abdullah Road , AL-JUBAIL",الجبيل,AL-JUBAIL,013-341-7247,الشرقية,Eastern,1657,فرع الجبيل الصناعية,"طريق الملك عبدالله , الجبيل",عادي,الخدمات المصرفية للشركات,Corporate Banking Services,,,,,,
Regular,Branch Office,Branch Office,28.41344,48.5184,9:30 - 4:30,المصرفية الذهبية,Golden Banking,310. Al Khafjy,"King Abdullah St. , Al-KHAFJY",الخفجي,Al-KHAFJY,013-766-2506,الشرقية,Eastern,1644,فرع الخفجي ,"شارع الملك عبد الله , الخفجي",عادي,الخدمات المصرفية للسيدات,Ladies Banking Services,,,,,,
Regular,Branch Office,Branch Office,26.281134,50.211735,9:30 - 4:30,المصرفية الذهبية,Golden Banking,301. Al Khobar,"King Fahad St. , AL-KHOBAR",الخبر,AL-KHOBAR,013-864-1434,الشرقية,Eastern,1635,فرع الخبر الرئيسي,"شارع الملك فهد , الخبر",عادي,,,,,,,,
Islamic,Branch Office,Branch Office,26.2929173,50.1857763,9:30 - 4:30,المصرفية الذهبية,Golden Banking,316. Al Khobar (Female),"Prince Hmoud St. , AL-KHOBAR",الخبر,AL-KHOBAR,013-897-5205<br/>013-897-8125,الشرقية,Eastern,1650,الخبر - سيدات,"شارع الأمير حمود , الخبر",إسلامي,الخدمات المصرفية للسيدات,Ladies Banking Services,,,,,,
Regular,Branch Office,Branch Office,26.1883482,50.1875068,9:30 - 4:30,الخدمات المصرفية للسيدات,Ladies Banking Services,356. Al Khozama,"Al Khuzama Dist. King Khalid Road , AL-KHOBAR",الخبر,AL-KHOBAR,013-898-0335 <br/>013-898-0446,الشرقية,Eastern,8761,فرع الخزامى,"حي الخزامى - طريق الملك خالد , الخبر",عادي,,,,,,,,
Islamic,Branch Office,Branch Office,21.44077,39.84108,9:30 - 4:30,المصرفية الذهبية,Golden Banking,121. Al Maabdah,"Al-Mo’abada St. , MAKKAH AL-MUKARRAMAH",مكة المكرمة,MAKKAH AL-MUKARRAMAH,012-574-9717,الغربية,Western,1534,فرع المعابدة,"شارع المعابدة العام , مكة المكرمة",إسلامي,,,,,,,,
Islamic,Branch Office,Branch Office,21.455053,39.198174,9:30 - 4:30,,,120. Al Mahjar,"At Tilfizyun St. , JEDDAH",جدة,JEDDAH,012-637-0325,الغربية,Western,1533,فرع المحجر,"شارع التلفزيون , جدة",إسلامي,,,,,,,,
Islamic,Branch Office,Branch Office,25.370495,49.585837,9:30 - 4:30,المصرفية الذهبية,Golden Banking,334. Al Majed St.,"Al Majed Street - King Khalid St. - Al Hofuf , AL-AHSSA",الاحساء,AL-AHSSA,013-586-7766,الشرقية,Eastern,1667,فرع شارع الماجد,"شارع الماجد- طريق الملك خالد - الهفوف , الاحساء",إسلامي,,,,,,,,
Islamic,Branch Office,Branch Office,25.9069,45.35013,9:30 - 4:30,المصرفية الذهبية,Golden Banking,606. AL Majmaa,"King Fahd Rd , AL-MAJMAAH",المجمعه,AL-MAJMAAH,016-432-0015,القصيم,Qassim,1713,فرع المجمعة,"طريق الملك فهد , المجمعه",إسلامي,,,,,,,,
Regular,Branch Office,Branch Office,25.384029,49.667556,9:30 - 4:30,المصرفية الذهبية,Golden Banking,352. Al Manizlah,"Al-Manizlah Main St. - Prince Mohammed Bin Abdulaziz Rd , AL-AHSSA",الاحساء,AL-AHSSA,013-531-6423,الشرقية,Eastern,1681,فرع المنيزلة,"الشارع العام - طريق الأمير محمد بن عبد العزيز , الاحساء",عادي,الخدمات المصرفية للسيدات,Ladies Banking Services,,,,,,
Regular,Branch Office,Branch Office,21.62386,39.20605,9:30 - 4:30,المصرفية الماسية,Diamond Banking,169. Al Marwa,"Hira St. , JEDDAH",جدة,JEDDAH,012-654-9985,الغربية,Western,1561,فرع المروة,"شارع حراء , جدة",عادي,المصرفية الذهبية,Golden Banking,مراكز الأعمال الناشئة,Emerging Enterprises Centers,,,,
Regular,Branch Office,Branch Office,21.468974,39.185188,9:30 - 4:30,المصرفية الذهبية,Golden Banking,147. Al Meena Road,"King Khalid Rd , JEDDAH",جدة,JEDDAH,012-648-4868,الغربية,Western,1549,فرع طريق الميناء,"طريق الملك خالد , جدة",عادي,,,,,,,,
Islamic,Branch Office,Branch Office,25.8544,44.22568,9:30 - 4:30,المصرفية الذهبية,Golden Banking,603. Al Methnab,"King Abdulaziz Rd , AL-MIDHNAB",المذنب,AL-MIDHNAB,016-342-1554,القصيم,Qassim,1710,فرع المذنب ,"طريق الملك عبد العزيز , المذنب",إسلامي,,,,,,,,
Regular,Branch Office,Branch Office,21.69548,39.11831,9:30 - 4:30,المصرفية الماسية,Diamond Banking,183. Jouhra Al Mohammadiah,"Al-Madina down Rd , JEDDAH",جدة,JEDDAH,012-238-4980,الغربية,Western,1570,فرع حي المحمدية,"طريق المدنية النازل , جدة",عادي,المصرفية الذهبية,Golden Banking,الخدمات المصرفية للسيدات,Ladies Banking Services,,,,
Regular,Branch Office,Branch Office,24.7363,46.65934,9:30 - 4:30,المصرفية الذهبية,Golden Banking,242. Al Mohammediah,"King Fahd Road , Al-RIYADH",الرياض,Al-RIYADH,011-470-6080,الوسطى,Central,1610,فرع المحمدية,"طريق الملك فهد , الرياض",عادي,,,,,,,,
Regular,Branch Office,Branch Office,24.76561,46.65936,9:30 - 4:30,المصرفية الذهبية,Golden Banking,245. Al Mooroj,"Northern Ring Rd , Al-RIYADH",الرياض,Al-RIYADH,011-229-1720,الوسطى,Central,1612,فرع المروج,"طريق الدائري الشمالي , الرياض",عادي,الخدمات المصرفية للسيدات,Ladies Banking Services,,,,,,
Regular,Branch Office,Branch Office,24.47243,46.27973,9:30 - 4:30,المصرفية الذهبية,Golden Banking,221. Al Mozahemiah,"King Abdulaziz Rd , Al-MUZAHMEYAH",المزاحمية,Al-MUZAHMEYAH,011-523-0508,الوسطى,Central,1594,فرع المزاحمية,"طريق الملك عبد العزيز , المزاحمية",عادي,,,,,,,,
Islamic,Branch Office,Branch Office,24.54828045,46.68619603,9:30 - 4:30,المصرفية الذهبية,Golden Banking,257. Al Mrwah,"Al Khalil Ibn Ahmad St. , Al-RIYADH",الرياض,Al-RIYADH,011-2715842,الوسطى,Central,1617,فرع المروة,"شارع الخليل بن احمد , الرياض",إسلامي,,,,,,,,
Regular,Branch Office,Branch Office,25.402853,49.581683,9:30 - 4:30,المصرفية الذهبية,Golden Banking,305. Al Mubarraz,"Prince Abdullah Ibn Jalawi St. , AL-AHSSA",الاحساء,AL-AHSSA,013-582-4170,الشرقية,Eastern,1639,فرع المبرز,"شارع الأمير عبدالله بن جلوي , الاحساء",عادي,,,,,,,,
Islamic,Branch Office,Branch Office,21.450094,39.288437,9:30 - 4:30,المصرفية الذهبية,Golden Banking,152. Al Muntazahat,"Old Makkah Rd , JEDDAH",جدة,JEDDAH,012-620-9414,الغربية,Western,1554,فرع المنتزهات,"طريق مكة القديم , جدة",إسلامي,,,,,,,,
Islamic,Branch Office,Branch Office,24.78064,46.82862,9:30 - 4:30,خدمات الاستثمار,Investment Services,270. Al Nahda,"Prince Bandar Bin Abdulaziz Rd , Al-RIYADH",الرياض,Al-RIYADH,011-238-7252,الوسطى,Central,1628,فرع النهضة,"طريق الأمير بندر بن عبد العزيز , الرياض",إسلامي,,,,,,,,
Regular,Branch Office,Branch Office,25.39507,49.5987,9:30 - 4:30,المصرفية الذهبية,Golden Banking,336. Al Najaah St.,"Al Najah Street - Al-Faisaliyah , AL-HAFOUF",الهفوف,AL-HAFOUF,013-583-0537,الشرقية,Eastern,1668,فرع النجاح,"شارع النجاح - الفيصلية , الهفوف",عادي,,,,,,,,
Islamic,Branch Office,Branch Office,19.12406,42.13007,9:30 - 4:30,,,523. Al Namas,"King Faisal Rd , AL-NAMAS",النماص,AL-NAMAS,017-283-1039,الجنوبية,Southern,1706,النماص,"طريق الملك فيصل , النماص",إسلامي,,,,,,,,
Islamic,Branch Office,Branch Office,24.724892,46.821203,9:30 - 4:30,المصرفية الذهبية,Golden Banking,299. Western Naseem,"Saad Ibn Adi Waqas St. , Al-RIYADH",الرياض,Al-RIYADH,011-231-2050,الوسطى,Central,1634,فرع النسيم الغربي,"شارع سعد بن ابي وقاص , الرياض",إسلامي,الخدمات المصرفية للسيدات,Ladies Banking Services,,,,,,
Islamic,Branch Office,Branch Office,24.74209071,46.82716663,9:30 - 4:30,المصرفية الذهبية,Golden Banking,238. Eastern Naseem,"Hassan Ibn Thabet St. , Al-RIYADH",الرياض,Al-RIYADH,011-209-4717,الوسطى,Central,1606,فرع النسيم الشرقي,"شارع حسان بن ثابت , الرياض",إسلامي,,,,,,,,
Regular,Branch Office,Branch Office,18.23764,42.78444,9:30 - 4:30,,,507. Al Numan,"Military City Rd , KHAMIS MUSHAYT",خميس مشيط,KHAMIS MUSHAYT,017-250-0228,الغربية,Western,15833,فرع النعمان,"طريق المدينة العسكرية , خميس مشيط",عادي,,,,,,,,
Regular,Branch Office,Branch Office,26.29346,50.18619,9:30 - 4:30,المصرفية الذهبية,Golden Banking,359. Al Olaya,"Makkah Al Mukarramah St. , AL-KHOBAR",الخبر,AL-KHOBAR,013-897-8173<br/>013-889-1766,الشرقية,Eastern,1685,فرع العليا - الخبر,"شارع مكة المكرمة , الخبر",عادي,مراكز الأعمال الناشئة,Emerging Enterprises Centers,,,,,,
Islamic,Branch Office,Branch Office,25.599077,49.561432,9:30 - 4:30,المصرفية الذهبية,Golden Banking,324. AL Oyon,"Main St. - Al Oyun , AL-AHSSA",الاحساء,AL-AHSSA,013-533-2312,الشرقية,Eastern,1658,فرع العيون,"الشارع العام التجاري , الاحساء",إسلامي,,,,,,,,
Regular,Branch Office,Branch Office,26.4099662,50.1080824,9:30 - 4:30,المصرفية الذهبية,Golden Banking,345. Al Qodos St.,"Al Qodos St. , AL-QATEEF",القطيف,AL-QATEEF,013-852-6150,الشرقية,Eastern,1674,فرع شارع القدس,"شارع القدس , القطيف",عادي,الخدمات المصرفية للسيدات,Ladies Banking Services,,,,,,
Islamic,Branch Office,Branch Office,24.06326,45.28119,9:30 - 4:30,المصرفية الذهبية,Golden Banking,217. Al Quwayiyah,"King Abdulaziz Rd , Al-QUAIEYYAH",القويعية,Al-QUAIEYYAH,011-652-1518,الوسطى,Central,1591,فرع القويعية,"طريق الملك عبد العزيز , القويعية",إسلامي,,,,,,,,
Regular,Branch Office,Branch Office,24.71427657,46.63430255,9:30 - 4:30,المصرفية الذهبية,Golden Banking,241. Al Raaid,"Kiing Abdullah Rd , Al-RIYADH",الرياض,Al-RIYADH,011-481-6681,الوسطى,Central,1609,فرع الرائد,"طريق الملك عبد الله , الرياض",عادي,,,,,,,,
Regular,Branch Office,Branch Office,24.79021917,46.6575185,9:30 - 4:30,المصرفية الماسية,Diamond Banking,260. Al Rabie,"King Abdulaziz Rd , Al-RIYADH",الرياض,Al-RIYADH,011-470-9242,الوسطى,Central,1620,فرع الربيع,"طريق الملك عبد العزيز , الرياض",عادي,المصرفية الذهبية,Golden Banking,الخدمات المصرفية للسيدات,Ladies Banking Services,,,,
Regular,Branch Office,Branch Office,24.6905039,46.7634368,9:30 - 4:30,المصرفية الماسية,Diamond Banking,265. Al Rabwa,"Omar Ibn Abdulaziz Rd , Al-RIYADH",الرياض,Al-RIYADH,011-493-2792,الوسطى,Central,1624,فرع الربوة,"طريق عمر بن عبد العزيز , الرياض",عادي,المصرفية الذهبية,Golden Banking,,,,,,
Regular,Branch Office,Branch Office,26.3626,50.197096,9:30 - 4:30,المصرفية الماسية,Diamond Banking,349. Al Rakah,"Khaled Ibn Al Walid St. , AL-KHOBAR",الخبر,AL-KHOBAR,013-810-0226,الشرقية,Eastern,1678,فرع الراكة,"شارع خالد ابن الوليد , الخبر",عادي,الخدمات المصرفية للسيدات,Ladies Banking Services,,,,,,
Islamic,Branch Office,Branch Office,25.87806,43.520696,9:30 - 4:30,المصرفية الذهبية,Golden Banking,607. Al Rass,"King Abdulaziz Rd , AL-RASS",الرس,AL-RASS,016-351-1565<br/>016-351-1338,القصيم,Qassim,1714,فرع الرس,"طريق الملك عبد العزيز , الرس",إسلامي,,,,,,,,
Regular,Branch Office,Branch Office,26.412869,50.096231,9:30 - 4:30,المصرفية الماسية,Diamond Banking,350. Al Rayann,"Othman Ibn Affan St. , DAMMAM",الدمام,DAMMAM,013-812-5682,الشرقية,Eastern,1679,فرع الريان,"شارع عثمان بن عفان تقاطع شارع 18 , الدمام",عادي,المصرفية الذهبية,Golden Banking,,,,,,
Regular,Branch Office,Branch Office,24.685181,46.842437,9:30 - 4:30,,,213. Al Saada,"Abu Ubaydah Amir Ibn Al Jarrah , Al-RIYADH",الرياض,Al-RIYADH,011-492-3185,الوسطى,Central,5260,فرع السعادة,"طريق ابو عبيدة عامر بن الجراح , الرياض",عادي,,,,,,,,
Islamic,Branch Office,Branch Office,26.3686,43.92809,9:30 - 4:30,المصرفية الذهبية,Golden Banking,608. Al Safra,"King Abdulaziz Rd , BURAIDAH",بريدة,BURAIDAH,016-381-1670,القصيم,Qassim,1715,فرع الصفراء,"طريق الملك عبد العزيز , بريدة",إسلامي,,,,,,,,
Regular,Branch Office,Branch Office,21.586789,39.158332,9:30 - 4:30,المصرفية الذهبية,Golden Banking,149. Al Salamah neighborhood,"Abdul Rahman Ibn Ahmed As sidayri St. , JEDDAH",جدة,JEDDAH,012-683-2949,الغربية,Western,1551,فرع السلامة,"شارع عبد الرحمن احمد السديري , جدة",عادي,,,,,,,,
Regular,Branch Office,Branch Office,25.352047,49.610818,9:30 - 4:30,المصرفية الماسية,Diamond Banking,333. AL Shahabiyah,"King Abdullah Rd , AL-AHSSA",الاحساء,AL-AHSSA,013-589-3171,الشرقية,Eastern,1666,فرع الشهابية,"طريق الملك عبد الله - شارع الستين , الاحساء",عادي,المصرفية الذهبية,Golden Banking,الخدمات المصرفية للسيدات,Ladies Banking Services,,,,
Regular,Branch Office,Branch Office,21.5134667,39.1827,9:30 - 4:30,المصرفية الذهبية,Golden Banking,102. Al Sharafiyah,"Al-Madinah Al Tal’e Road , JEDDAH",جدة,JEDDAH,012-653-4008,الغربية,Western,1521,فرع الشرفية,"طريق المدينة الطالع , جدة",عادي,,,,,,,,
Islamic,Branch Office,Branch Office,21.2548,40.43534,9:30 - 4:30,,,150. Al Shuhada,"Hassan Ibn Thabit St. , AL-TAIF",الطائف,AL-TAIF,012-746-2112,الغربية,Western,1552,فرع حي الشهداء,"شارع حسان بن ثابت , الطائف",إسلامي,,,,,,,,
Islamic,Branch Office,Branch Office,20.473706,45.575449,9:30 - 4:30,,,517. Al Solayel Br.,"King Abdulaziz Rd , AL-SULAYYIL",السليل,AL-SULAYYIL,011-782-1374,الوسطى,Central,1702,فرع السليل,"طريق الملك عبد العزيز , السليل",إسلامي,,,,,,,,
Islamic,Branch Office,Branch Office,24.598083,46.687113,9:30 - 4:30,المصرفية الذهبية,Golden Banking,216. Al Swaidi,"Al Swaidi Al Am St. , Al-RIYADH",الرياض,Al-RIYADH,011-425-2082,الوسطى,Central,1590,فرع السويدي,"شارع السويدي العام , الرياض",إسلامي,الخدمات المصرفية للسيدات,Ladies Banking Services,,,,,,
Islamic,Branch Office,Branch Office,26.269221,50.196491,9:30 - 4:30,المصرفية الذهبية,Golden Banking,311. Al Thoqbah,"Makkah Al Mukarramah St. , AL-THUQBAH",الثقبة,AL-THUQBAH,013-894-4000,الشرقية,Eastern,1645,فرع الثقبة,"شارع مكة المكرمة , الثقبة",إسلامي,,,,,,,,
Islamic,Branch Office,Branch Office,26.38613,50.09582,9:30 - 4:30,الخدمات المصرفية للسيدات,Ladies Banking Services,348. Al Waha,"Prince Nayef Bin Abdulaziz Rd , DAMMAM",الدمام,DAMMAM,013-815-5467,الشرقية,Eastern,1677,فرع الواحة,"طريق الأمير نايف بن عبدالعزيز , الدمام",إسلامي,,,,,,,,
Regular,Branch Office,Branch Office,24.74552778,46.72416667,9:30 - 4:30,,,259. Al Waha,"Othman Ibn Affan Rd , Al-RIYADH",الرياض,Al-RIYADH,011-470-9242,الوسطى,Central,8460,فرع الواحة,"طريق عثمان بن عفان , الرياض",عادي,,,,,,,,
Islamic,Branch Office,Branch Office,26.3062055,44.8258888,9:30 - 4:30,المصرفية الذهبية,Golden Banking,619. ALZulfi,"King Fahd Rd , AL-ZILFI",الزلفي,AL-ZILFI,016-422-1024,القصيم,Qassim,1723,فرع الزلفي,"طريق الملك فهد , الزلفي",إسلامي,,,,,,,,
Regular,Branch Office,Branch Office,24.740818,46.75835,9:30 - 4:30,المصرفية الماسية,Diamond Banking,223. Al- Rawdah,"Al Hasan Ibn Ali St. , Al-RIYADH",الرياض,Al-RIYADH,011-254-4118,الوسطى,Central,1596,فرع الروضة,"شارع الحسن بن علي , الرياض",عادي,المصرفية الذهبية,Golden Banking,الخدمات المصرفية للسيدات,Ladies Banking Services,خدمات الاستثمار,Investment Services,,
Islamic,Branch Office,Branch Office,22.30155809,46.73116343,9:30 - 4:30,,,215. Al-Aflaj,"King Abdulaziz Rd , AL-AFLAJ",الأفلاج,AL-AFLAJ,011-682-1800,الوسطى,Central,1589,فرع الأفلاج ,"طريق الملك عبد العزيز , الأفلاج",إسلامي,,,,,,,,
Islamic,Branch Office,Branch Office,26.51135,45.34919,9:30 - 4:30,,,609. Al-Artawiah,"Public St. , AL-ARTAWIYAH",الارطاوية,AL-ARTAWIYAH,016-436-1087,القصيم,Qassim,1716,فرع الارطاوية,"الشارع العام , الارطاوية",إسلامي,,,,,,,,
Islamic,Branch Office,Branch Office,21.350122,39.904446,9:30 - 4:30,المصرفية الماسية,Diamond Banking,178. Al-Awali neighborhood,"Ibrahim Al Juffali St. , MAKKAH AL-MUKARRAMAH",مكة المكرمة,MAKKAH AL-MUKARRAMAH,012-523-5883,الغربية,Western,1565,فرع حي العوالي,"شارع إبراهيم الجفالي , مكة المكرمة",إسلامي,المصرفية الذهبية,Golden Banking,الخدمات المصرفية للسيدات,Ladies Banking Services,,,,
Islamic,Branch Office,Branch Office,20.013301,41.467349,9:30 - 4:30,المصرفية الذهبية,Golden Banking,514. Al-Baha,"King Fahd Rd , AL-BAHA",الباحة,AL-BAHA,017-725-5555,الجنوبية,Southern,1699,فرع الباحة,"طريق الملك فهد , الباحة",إسلامي,,,,,,,,
Regular,Branch Office,Branch Office,24.6408891,46.7202534,9:30 - 4:30,,,203. Al-Batha,"Omar Al-Mukhtar St. , Al-RIYADH",الرياض,Al-RIYADH,011-403-2341,الوسطى,Central,1581,فرع البطحاء,"شارع عمر المختار , الرياض",عادي,,,,,,,,
Islamic,Branch Office,Branch Office,24.49989199,44.38102786,9:30 - 4:30,المصرفية الذهبية,Golden Banking,605. Al-Dawadmi,"King Abdulaziz Rd , AL-DAWADMI",الدوادمي,AL-DAWADMI,011-642-1413,الوسطى,Central,1712,فرع الدوادمي ,"طريق الملك عبد العزيز , الدوادمي",إسلامي,,,,,,,,
Regular,Branch Office,Branch Office,24.75205419,46.5754088,9:30 - 4:30,,,271. Al-Deriyah,"King Abdulaziz Rd , Al-RIYADH",الرياض,Al-RIYADH,011-486-3835,الوسطى,Central,10042,فرع الدرعية,"طريق الملك عبد العزيز , الرياض",عادي,,,,,,,,
Islamic,Branch Office,Branch Office,17.524746,44.200474,9:30 - 4:30,المصرفية الذهبية,Golden Banking,511. Faisaliyah Najran,"King Abdulaziz Rd , NAJRAN",نجران,NAJRAN,017-522-2019,الجنوبية,Southern,1697,فرع الفيصلية,"طريق الملك عبد العزيز , نجران",إسلامي,الخدمات المصرفية للشركات,Corporate Banking Services,,,,,,
Regular,Branch Office,Branch Office,21.745026,39.190296,9:30 - 4:30,,,110. Al-Hamdaniyah,"Al-Hamdaniyah St. , JEDDAH",جدة,JEDDAH,011-661-1065,الغربية,Western,9013,فرع الحمدانية,"شارع الحمدانية الرئيسي , جدة",عادي,,,,,,,,
Islamic,Branch Office,Branch Office,21.54773,39.23706,9:30 - 4:30,المصرفية الذهبية,Golden Banking,184. Al-Haramain Road,"Al-Haramaian Rd , JEDDAH",جدة,JEDDAH,012-617-7346,الغربية,Western,1571,فرع طريق الحرمين,"الطريق الدائري السريع (طريق الحرمين) , جدة",إسلامي,الخدمات المصرفية للسيدات,Ladies Banking Services,,,,,,
Islamic,Branch Office,Branch Office,28.4159173,45.96994231,9:30 - 4:30,المصرفية الذهبية,Golden Banking,621. Al-Khaldiah,"King Abdulaziz Rd , HAFIR AL-BATEN",حفر الباطن,HAFIR AL-BATEN,013-724-6218<br/>013-722-4765,الشرقية,Eastern,1725,فرع الخالدية,"طريق الملك عبد العزيز , حفر الباطن",إسلامي,الخدمات المصرفية للسيدات,Ladies Banking Services,مراكز الأعمال الناشئة,Emerging Enterprises Centers,,,,
Islamic,Branch Office,Branch Office,24.153751,47.302176,9:30 - 4:30,المصرفية الذهبية,Golden Banking,205. Al-Kharj,"King Faisal Rd , ",الخرج,,011-544-8847,الوسطى,Central,1583,فرع الخرج,"طريق الملك فيصل , الخرج",إسلامي,الخدمات المصرفية للسيدات,Ladies Banking Services,,,,,,
Regular,Branch Office,Branch Office,24.63725,46.6912,9:30 - 4:30,المصرفية الذهبية,Golden Banking,229. Al-Khazzan,"Al Imam Faisal Ibn Turki Ibn Abdullah St. , Al-RIYADH",الرياض,Al-RIYADH,011-286-1216,الوسطى,Central,1600,فرع شارع الخزان,"شارع الإمام فيصل بن تركي بن عبدالله , الرياض",عادي,,,,,,,,
Islamic,Branch Office,Branch Office,28.40457,36.56569,9:30 - 4:30,المصرفية الذهبية,Golden Banking,410. Al-Mahrajan Branch,"Jeddah St. , TABUK",تبوك,TABUK,014-422-2666,الشمالية,Northern,1860,فرع المهرجان,"شارع جدة , تبوك",إسلامي,الخدمات المصرفية للسيدات,Ladies Banking Services,,,,,,
Islamic,Branch Office,Branch Office,24.67123,46.732462,9:30 - 4:30,المصرفية الذهبية,Golden Banking,202. Al-Malaz Branch (Jareer),"Jarir St. - Al-Malaz , Al-RIYADH",الرياض,Al-RIYADH,011-474-7100,الوسطى,Central,1580,فرع الملز شارع جرير,"شارع جرير , الرياض",إسلامي,,,,,,,,
Regular,Branch Office,Branch Office,24.600548,46.749626,9:30 - 4:30,المصرفية الذهبية,Golden Banking,264. Al-Mansorah District,"Southern Ring Rd , Al-RIYADH",الرياض,Al-RIYADH,011-213-8887,الوسطى,Central,1623,فرع المنصورة,"طريق الدائري الجنوبي , الرياض",عادي,,,,,,,,
Regular,Branch Office,Branch Office,26.437292,50.128921,9:30 - 4:30,الخدمات المصرفية للسيدات,Ladies Banking Services,351. Al-Mazzroaih,"King Saud St. , DAMMAM",الدمام,DAMMAM,013-834-7240,الشرقية,Eastern,1680,فرع المزروعية,"شارع الملك  سعود , الدمام",عادي,الخدمات المصرفية للشركات,Corporate Banking Services,,,,,,
Regular,Branch Office,Branch Office,24.64913,46.71537,9:30 - 4:30,المصرفية الذهبية,Golden Banking,218. Al-Morabba,"King Abdul Aziz Rd , Al-RIYADH",الرياض,Al-RIYADH,011-403-0111,الوسطى,Central,1592,فرع المربع,"شارع الملك عبد العزيز , الرياض",عادي,الخدمات المصرفية للشركات,Corporate Banking Services,,,,,,
Regular,Branch Office,Branch Office,28.424299,36.575441,9:30 - 4:30,المصرفية الذهبية,Golden Banking,421. Al-Morooj branch,"Abi Bakr As Siddiq St. , TABUK",تبوك,TABUK,014-424-3102,الشمالية,Northern,1865,فرع المروج,"شارع أبو بكر الصديق , تبوك",عادي,الخدمات المصرفية للسيدات,Ladies Banking Services,,,,,,
Regular,Branch Office,Branch Office,21.53931,39.16841,9:30 - 4:30,المصرفية الذهبية,Golden Banking,137. Al-Mosadiah,"Arfat St. , JEDDAH",جدة,JEDDAH,012-661-2440,الغربية,Western,1544,فرع المساعدية,"شارع عرفات , جدة",عادي,الخدمات المصرفية للشركات,Corporate Banking Services,,,,,,
Regular,Branch Office,Branch Office,24.81332,46.755581,9:30 - 4:30,,,237. Al-Munsiyah,"Shaikh Hassan Ibn Hussain Ibn Ali Road - Al-Munsiyah district , Al-RIYADH",الرياض,Al-RIYADH,,الوسطى,Central,24993,فرع المونسية,"طريق الشيخ حسن بن حسين بن علي - حي المونسية , الرياض",عادي,,,,,,,,
Regular,Branch Office,Branch Office,24.76696,46.7095,9:30 - 4:30,المصرفية الماسية,Diamond Banking,235. Al-Nozha,"Al Imam Saud Bin Abdulaziz Bin Mohammed Rd , Al-RIYADH",الرياض,Al-RIYADH,011-453-7387,الوسطى,Central,1603,فرع النزهة,"طريق الإمام سعود بن عبدالعزيز بن محمد , الرياض",عادي,المصرفية الذهبية,Golden Banking,الخدمات المصرفية للسيدات,Ladies Banking Services,,,,
Regular,Branch Office,Branch Office,24.684135,46.689671,9:30 - 4:30,المصرفية الذهبية,Golden Banking,209. Al-Olaya Branch,"Olaya St. , Al-RIYADH",الرياض,Al-RIYADH,011-465-5332,الوسطى,Central,1586,فرع العليا,"شارع العليا العام , الرياض",عادي,الخدمات المصرفية للسيدات,Ladies Banking Services,,,,,,
Regular,Branch Office,Branch Office,24.76581989,46.75503354,9:30 - 4:30,المصرفية الذهبية,Golden Banking,239. Al-Quds,"King Abdullah Rd , Al-RIYADH",الرياض,Al-RIYADH,011-249-1152,الوسطى,Central,1607,فرع القدس,"طريق الملك عبد الله , الرياض",عادي,الخدمات المصرفية للسيدات,Ladies Banking Services,,,,,,
Islamic,Branch Office,Branch Office,21.40559,39.78801,9:30 - 4:30,المصرفية الذهبية,Golden Banking,187. Al-Rasifa,"Al Rasaifah St. , MAKKAH AL-MUKARRAMAH",مكة المكرمة,MAKKAH AL-MUKARRAMAH,012-530-3105,الغربية,Western,1574,فرع حي الرصيفة,"شارع عبدالله عريف , مكة المكرمة",إسلامي,خدمات الاستثمار,Investment Services,الخدمات المصرفية للشركات,Corporate Banking Services,,,,
Islamic,Branch Office,Branch Office,24.68294536,46.78936801,9:30 - 4:30,المصرفية الذهبية,Golden Banking,230. Al-Rawabi,"Prince Saad Ibn Abdulrahman Al Awal Rd , Al-RIYADH",الرياض,Al-RIYADH,011-244-7580,الوسطى,Central,1601,فرع الروابي,"طريق الأمير سعد بن عبدالرحمن الأول , الرياض",إسلامي,الخدمات المصرفية للسيدات,Ladies Banking Services,مراكز الأعمال الناشئة,Emerging Enterprises Centers,,,,
Islamic,Branch Office,Branch Office,24.7083269,46.77344717,9:30 - 4:30,المصرفية الذهبية,Golden Banking,236. Al-Rayann,"Unayzah Street , Al-RIYADH",الرياض,Al-RIYADH,011-493-0766,الوسطى,Central,1604,فرع الريان,"شارع عنيزة , الرياض",إسلامي,الخدمات المصرفية للسيدات,Ladies Banking Services,الخدمات المصرفية للشركات,Corporate Banking Services,,,,
Islamic,Branch Office,Branch Office,21.47098,39.94235,9:30 - 4:30,المصرفية الذهبية,Golden Banking,189. Al-Sharae,"Al Muhandes Umar Qadi St. , MAKKAH AL-MUKARRAMAH",مكة المكرمة,MAKKAH AL-MUKARRAMAH,012-5248762,الغربية,Western,1576,فرع الشرائع,"شارع المهندس عمر قاضي , مكة المكرمة",إسلامي,,,,,,,,
Islamic,Branch Office,Branch Office,24.56328,46.68332,9:30 - 4:30,المصرفية الماسية,Diamond Banking,228. Al-Shefa,"Dirab Rd , Al-RIYADH",الرياض,Al-RIYADH,011-422-3124,الوسطى,Central,1599,فرع حي الشفا,"طريق ديراب , الرياض",إسلامي,المصرفية الذهبية,Golden Banking,الخدمات المصرفية للسيدات,Ladies Banking Services,,,,
Islamic,Branch Office,Branch Office,18.306361,42.730997,9:30 - 4:30,,,518. Al-Souq Al-Tejary,"King Khalid Rd cross King Fahd Rd , KHAMIS MUSHAYT",خميس مشيط,KHAMIS MUSHAYT,017-223-6209,الجنوبية,Southern,1703,فرع السوق التجاري,"تقاطع طريق الملك خالد مع طريق الملك فهد , خميس مشيط",إسلامي,,,,,,,,
Regular,Branch Office,Branch Office,24.710553,46.692746,9:30 - 4:30,المصرفية الذهبية,Golden Banking,207. Al-Sulemaniyah,"Prince Mamduh Bin Abdulaziz St. , Al-RIYADH",الرياض,Al-RIYADH,011-465-2424,الوسطى,Central,1585,فرع السليمانية,"شارع الأمير ممدوح بن عبد العزيز , الرياض",عادي,مراكز الأعمال الناشئة,Emerging Enterprises Centers,,,,,,
Regular,Branch Office,Branch Office,24.698133,46.668444,9:30 - 4:30,المصرفية الذهبية,Golden Banking,212. Al-Takhassosi,"Al Takhassosi Road , Al-RIYADH",الرياض,Al-RIYADH,011-488-0484,الوسطى,Central,1588,فرع التخصصي,"شارع التخصصي , الرياض",عادي,الخدمات المصرفية للسيدات,Ladies Banking Services,,,,,,
Islamic,Branch Office,Branch Office,26.605509,37.925577,9:30 - 4:30,,,414. Al-Ula,"King Fahd Rd , AL-ULA",العلا,AL-ULA,014-884-1316,الشمالية,Northern,1863,فرع العلا,"طريق الملك فهد , العلا",إسلامي,,,,,,,,
Regular,Branch Office,Branch Office,24.733652,46.67883,9:30 - 4:30,المصرفية الذهبية,Golden Banking,234. Al-Worod,"King Abdullah Rd , Al-RIYADH",الرياض,Al-RIYADH,011-456-2779,الوسطى,Central,1602,فرع حي الورود,"طريق الملك عبد الله , الرياض",عادي,الخدمات المصرفية للسيدات,Ladies Banking Services,خدمات الاستثمار,Investment Services,,,,
Regular,Branch Office,Branch Office,24.80433333,46.69394444,9:30 - 4:30,,,250. AlNada,"AlNada dist. Othman bin Affan Road , Al-RIYADH",الرياض,Al-RIYADH,011-292-2864<br/>011-292-2887,الوسطى,Central,8854,فرع الندى,"حي الندى - طريق عثمان بن عفان , الرياض",عادي,,,,,,,,
Islamic,Branch Office,Branch Office,29.080041,46.636176,9:30 - 4:30,,,604. AlRoqaiy,"Kuwait Rd , AL-RUQI",الرقعي,AL-RUQI,013-729-0280,الشرقية,Eastern,1711,فرع الرقعي ,"طريق الكويت الدولي , الرقعي",إسلامي,,,,,,,,
Regular,Branch Office,Branch Office,24.43775,39.66080556,9:30 - 4:30,المصرفية الذهبية,Golden Banking,114 - Alawali,"King Abdullah St. , AL-MADINAH AL-MUNAWWARAH",المدينة المنورة,AL-MADINAH AL-MUNAWWARAH,014-831-4898,الغربية,Western,8552,فرع العوالي,"طريق الملك عبدالله , المدينة المنورة",عادي,,,,,,,,
Islamic,Branch Office,Branch Office,21.48615,39.20374,9:30 - 4:30,المصرفية الذهبية,Golden Banking,103. Alkndrh,"Old Makkah Road , JEDDAH",جدة,JEDDAH,012-631-5088,الغربية,Western,1522,فرع الكندرة,"طريق مكة القديم , جدة",إسلامي,,,,,,,,
Regular,Branch Office,Branch Office,24.76954,46.68995,9:30 - 4:30,الخدمات المصرفية للشركات,Corporate Banking Services,258. Almasif,"Abi Bakr As Siddiq Rd , Al-RIYADH",الرياض,Al-RIYADH,011-494-2454,الوسطى,Central,1618,فرع المصيف,"طريق أبي بكر الصديق , الرياض",عادي,مراكز الأعمال الناشئة,Emerging Enterprises Centers,,,,,,
Regular,Branch Office,Branch Office,26.344516,50.138103,9:30 - 4:30,,,335. Alrabwah,"Ibn Batutah St. , AL-KHOBAR",الخبر,AL-KHOBAR,013-868-8174,الشرقية,Eastern,9008,فرع الربوة,"شارع ابن بطوطة , الخبر",عادي,,,,,,,,
Regular,Branch Office,Branch Office,25.93995,49.66754,9:30 - 4:30,المصرفية الذهبية,Golden Banking,319. Aramco,"Aramco , BGAIG",بقيق,BGAIG,013-566-1013,الشرقية,Eastern,1653,فرع مجمع ارامكو,"مجمع ارامكو , بقيق",عادي,,,,,,,,
Islamic,Branch Office,Branch Office,30.967667,41.014969,9:30 - 4:30,المصرفية الماسية,Diamond Banking,402. Arar Branch,"King Abdulaziz Rd , ARAR",عرعر,ARAR,014-664-3912,الشمالية,Northern,1852,فرع عرعر,"طريق الملك عبد العزيز , عرعر",إسلامي,المصرفية الذهبية,Golden Banking,الخدمات المصرفية للسيدات,Ladies Banking Services,,,,
Islamic,Branch Office,Branch Office,24.479013,39.623484,9:30 - 4:30,المصرفية الذهبية,Golden Banking,107. Auhud Area,"Airport Road , AL-MADINAH AL-MUNAWWARAH",المدينة المنورة,AL-MADINAH AL-MUNAWWARAH,014-838-8612<br/>012-616-8895,الغربية,Western,1526,فرع احد,"طريق المطار , المدينة المنورة",إسلامي,مراكز الأعمال الناشئة,Emerging Enterprises Centers,,,,,,
Islamic,Branch Office,Branch Office,23.78182,38.79193,9:30 - 4:30,,,145. Bader,"King Faisal Rd , BADER",بدر,BADER,013-332-0848,الغربية,Western,1548,فرع بدر,"طريق الملك فيصل , بدر",إسلامي,,,,,,,,
Islamic,Branch Office,Branch Office,19.86301,41.56289,9:30 - 4:30,المصرفية الذهبية,Golden Banking,515. Baljorashy,"King Saud Rd , BALJURASHI",بلجرشي,BALJURASHI,017-722-1010,الجنوبية,Southern,1700,فرع بلجرشي ,"طريق الملك سعود , بلجرشي",إسلامي,,,,,,,,
Islamic,Branch Office,Branch Office,21.27571,40.40814,9:30 - 4:30,المصرفية الذهبية,Golden Banking,106. Barhat Al Gazzaz,"Al-Aziziyah St. - Central Dist. , AL-TAIF",الطائف,AL-TAIF,012-733-1619,الغربية,Western,1525,فرع برحة قزاز,"شارع العزيزية - المنطة المركزية , الطائف",إسلامي,الخدمات المصرفية للسيدات,Ladies Banking Services,,,,,,
Islamic,Branch Office,Branch Office,27.527154,41.704638,9:30 - 4:30,المصرفية الذهبية,Golden Banking,610. Barzain Hail Branch,"Ghattat St. - Barzain Market , HAIL",حائل,HAIL,016-532-6252,الشمالية,Northern,1866,فرع برزان حائل,"شارع غطاط , حائل",إسلامي,,,,,,,,
Islamic,Branch Office,Branch Office,20.00032,42.60576,9:30 - 4:30,,,503. Bishah,"Assir St. , BISHAH",بيشة,BISHAH,017-622-4421,الجنوبية,Southern,1689,فرع بيشة ,"شارع عسير , بيشة",إسلامي,,,,,,,,
Regular,Branch Office,Branch Office,26.33571,43.967579,9:30 - 4:30,المصرفية الذهبية,Golden Banking,611. Buraidah,"King Abdulaziz Rd , BURAIDAH",بريدة,BURAIDAH,016-325-0400,القصيم,Qassim,1717,فرع بريدة الرئسيي,"طريق الملك عبد العزيز , بريدة",عادي,الخدمات المصرفية للسيدات,Ladies Banking Services,الخدمات المصرفية للشركات,Corporate Banking Services,,,,
Regular,Branch Office,Branch Office,21.50715,39.1733,9:30 - 4:30,,,109. Chamber of Commercial - Jeddah,"Al Amanah Rd , JEDDAH",جدة,JEDDAH,012-651-2456,الغربية,Western,1527,فرع الغرفة التجارية الصناعية,"شارع الأمانة , جدة",عادي,,,,,,,,
Regular,Branch Office,Branch Office,26.45567,50.11737,9:30 - 4:30,المصرفية الذهبية,Golden Banking,344. Dammam Corniche,"Khaleej Rd , DAMMAM",الدمام,DAMMAM,013-809-6161,الشرقية,Eastern,1673,فرع كورنيش الدمام,"طريق الخليج , الدمام",عادي,الخدمات المصرفية للسيدات,Ladies Banking Services,,,,,,
Regular,Branch Office,Branch Office,26.44282,50.10473,9:30 - 4:30,الخدمات المصرفية للشركات,Corporate Banking Services,302. Dammam,"King Saud St. , DAMMAM",الدمام,DAMMAM,013-833-5733/3100,الشرقية,Eastern,1636, فرع الدمام الرئيسي,"تقاطع شارع الملك سعود مع شارع الظهران , الدمام",عادي,,,,,,,,
Islamic,Branch Office,Branch Office,27.359867,35.690436,9:30 - 4:30,,,404. Dheba Branch,"Tabuk Road , DHUBA",ضباء,DHUBA,014-432-1384,الشمالية,Northern,1854,فرع ضباء,"طريق تبوك , ضباء",إسلامي,,,,,,,,
Islamic,Branch Office,Branch Office,24.60245,46.12678,9:30 - 4:30,,,219. Dhurma,"Public St. , DHURMA",ضرما,DHURMA,011-522-1679,الوسطى,Central,1593,فرع ضرماء ,"الشارع العام , ضرما",إسلامي,,,,,,,,
Islamic,Branch Office,Branch Office,29.79921,39.86045,9:30 - 4:30,المصرفية الذهبية,Golden Banking,403. Dowmat Al-Jaundal,"King Abdulaziz Rd , DAWMAT AL JANDAL",دومة الجندل,DAWMAT AL JANDAL,014-622-3959,الشمالية,Northern,1853,فرع دومة الجندل,"طريق الملك عبد العزيز , دومة الجندل",إسلامي,,,,,,,,
Islamic,Branch Office,Branch Office,24.5969008,46.63707665,9:30 - 4:30,المصرفية الذهبية,Golden Banking,224. Duhrat Al Badeah,"Al Madinah Al Munawwarah Rd , Al-RIYADH",الرياض,Al-RIYADH,011-418-1837,الوسطى,Central,1597,فرع ظهرة البديعة,"طريق المدينة المنورة , الرياض",إسلامي,الخدمات المصرفية للسيدات,Ladies Banking Services,,,,,,
Regular,Branch Office,Branch Office,24.690331,46.595732,9:30 - 4:30,,,232. Ergah,"Prince Mashal Ibn Abdulaziz St. , Al-RIYADH",الرياض,Al-RIYADH,011-249-7163,الوسطى,Central,5262,فرع عرقة,"شارع الامير مشعل بن عبد العزيز , الرياض",عادي,,,,,,,,
Regular,Branch Office,Branch Office,24.645162,46.738306,9:30 - 4:30,,,204. First Industrial,"Omar Almukhtar St. - 1st Industrial City , Al-RIYADH",الرياض,Al-RIYADH,011-265-2116,الوسطى,Central,1582,فرع الصناعية الأولى,"شارع عمر المختار - الصناعية الأولى , الرياض",عادي,,,,,,,,
Regular,Branch Office,Branch Office,26.4296535,50.1181464,9:30 - 4:30,,,353. First St,"Prince Mohammed Bin Fahd Rd , DAMMAM",الدمام,DAMMAM,013-828-3371,الشرقية,Eastern,15832,فرع الشارع الأول,"طريق الأمير محمد بن فهد , الدمام",عادي,,,,,,,,
Islamic,Branch Office,Branch Office,26.427534,50.072643,9:30 - 4:30,المصرفية الذهبية,Golden Banking,342. Ghaurnaata,"King Khalid St. , DAMMAM",الدمام,DAMMAM,013-815-8941,الشرقية,Eastern,1671,فرع غرناطة,"شارع الملك خالد , الدمام",إسلامي,الخدمات المصرفية للسيدات,Ladies Banking Services,,,,,,
Islamic,Branch Office,Branch Office,28.436907,45.973064,9:30 - 4:30,خدمات الاستثمار,Investment Services,612. Hafir Al Batten,"King Abdulaziz Rd , HAFIR AL-BATEN",حفر الباطن,HAFIR AL-BATEN,013-722-4765,الشرقية,Eastern,1718,فرع حفر الباطن,"طريق الملك عبد العزيز , حفر الباطن",إسلامي,,,,,,,,
Regular,Branch Office,Branch Office,25.40652,49.4656,9:30 - 4:30,المصرفية الذهبية,Golden Banking,329. Hafouf Industrial,"Hasa Industrial City - Main St. , AL-AHSSA",الاحساء,AL-AHSSA,013-586-1960,الشرقية,Eastern,1662,فرع المدينة الصناعية,"المدينة الصناعية بالأحساء - الشارع الرئيسي , الاحساء",عادي,,,,,,,,
Regular,Branch Office,Branch Office,27.51367,41.69617,9:30 - 4:30,المصرفية الذهبية,Golden Banking,613. Hail Main Branch,"Ibn Khaldun St. , HAIL",حائل,HAIL,016-532-8430,الشمالية,Northern,1867,فرع حائل,"شارع ابن خلدون , حائل",عادي,,,,,,,,
Regular,Branch Office,Branch Office,27.479094,41.729006,9:30 - 4:30,المصرفية الذهبية,Golden Banking,614. Hail industrial branch,"Industrial area – King Abdulaziz Rd , HAIL",حائل,HAIL,016-533-0929<br/>016-531-2190,الشمالية,Northern,1868,فرع حائل الصناعية,"طريق الملك عبد العزيز , حائل",عادي,,,,,,,,
Islamic,Branch Office,Branch Office,29.2972,34.9472,9:30 - 4:30,,,406. Haql Branch,"King Abdulaziz Rd , HAQL",حقل,HAQL,014-453-0828,الشمالية,Northern,1856,فرع حقل,"طريق الملك عبد العزيز , حقل",إسلامي,,,,,,,,
Islamic,Branch Office,Branch Office,25.594706475852,45.6194823169734,9:30 - 4:30,المصرفية الذهبية,Golden Banking,293. Hawtat Sudair,"King Abdulaziz Rd , Al-RIYADH",الرياض,Al-RIYADH,016-443-1732,الوسطى,Central,1632,حوطة سدير,"طريق الملك عبد العزيز , الرياض",إسلامي,,,,,,,,
Islamic,Branch Office,Branch Office,21.60687,39.12428,9:30 - 4:30,المصرفية الذهبية,Golden Banking,186. Heraa Street,"Hira St. , JEDDAH",جدة,JEDDAH,012-616-8896<br/>012-616-8895,الغربية,Western,1573,فرع شارع حراء,"شارع حراء , جدة",إسلامي,مراكز الأعمال الناشئة,Emerging Enterprises Centers,,,,,,
Regular,Branch Office,Branch Office,26.42631,50.1003,9:30 - 4:30,المصرفية الذهبية,Golden Banking,327. IBN Khaldoon,"King Fahad Rd , DAMMAM",الدمام,DAMMAM,013-841-2065,الشرقية,Eastern,1660,فرع شارع بن خلدون,"طريق الملك فهد , الدمام",عادي,الخدمات المصرفية للسيدات,Ladies Banking Services,,,,,,
Regular,Branch Office,Branch Office,21.4163,39.22649,9:30 - 4:30,,,151. Industrial City,"Industrial City - Al-Masanea St. , JEDDAH",جدة,JEDDAH,012-636-6546,الغربية,Western,1553,المدينة الصناعية,"المدينة الصناعية / شارع المصانع , جدة",عادي,,,,,,,,
Islamic,Branch Office,Branch Office,16.902511,42.550462,9:30 - 4:30,المصرفية الذهبية,Golden Banking,504. Jizan,"Prince Mohammad Bin Nasser Rd , JIZAN",جازان,JIZAN,017-322-6282,الجنوبية,Southern,1690,فرع جازان,"طريق الأمير محمد بن ناصر , جازان",إسلامي,الخدمات المصرفية للسيدات,Ladies Banking Services,,,,,,
Regular,Branch Office,Branch Office,18.305652,42.721572,9:30 - 4:30,الخدمات المصرفية للشركات,Corporate Banking Services,505. Khamis Mushayt,"King Fahd Rd - Public St. , KHAMIS MUSHAYT",خميس مشيط,KHAMIS MUSHAYT,017-223-0001,الجنوبية,Southern,1691,فرع خميس مشيط,"طريق الملك فهد , خميس مشيط",عادي,,,,,,,,
Islamic,Branch Office,Branch Office,25.70491,39.28935,9:30 - 4:30,,,415. Khaybar,"King Abdullah Rd , KHAYBAR",خيبر,KHAYBAR,014-882-1430,الغربية,Western,1686,فرع خيبر ,"طريق الملك عبد الله , خيبر",إسلامي,,,,,,,,
Islamic,Branch Office,Branch Office,24.72478903,46.77925475,9:30 - 4:30,,,247. Kuress road,"Khurais Rd - Al Rayyan , Al-RIYADH",الرياض,Al-RIYADH,011-497-3284,الوسطى,Central,1614,فرع طريق خريص,"طريق خريص - الريان , الرياض",إسلامي,,,,,,,,
Islamic,Branch Office,Branch Office,28.34406,36.58247,9:30 - 4:30,,,416. King AbdulAziz Military City Branch,"King Abdulaziz Military City , TABUK",تبوك,TABUK,014-441-0150,الشمالية,Northern,1864,فرع مدينة الملك عبد العزيز العسكرية,"مدينة الملك عبد العزيز العسكرية , تبوك",إسلامي,,,,,,,,
Regular,Branch Office,Branch Office,26.296928,50.2083,9:30 - 4:30,المصرفية الذهبية,Golden Banking,321. King Abdulaziz,"King Abdulaziz Rd , AL-KHOBAR",الخبر,AL-KHOBAR,013-864-8072,الشرقية,Eastern,1655,فرع الملك عبد العزيز ,"طريق الملك عبد العزيز , الخبر",عادي,,,,,,,,
Islamic,Branch Office,Branch Office,26.96782,49.6743,9:30 - 4:30,,,320. Jubail Naval Base,"8 St. West , AL-JUBAIL",الجبيل,AL-JUBAIL,013-364-1288,الشرقية,Eastern,1654,فرع قاعدة الملك عبد العزيز البحرية ,"شارع 8 غرب , الجبيل",إسلامي,,,,,,,,
Regular,Branch Office,Branch Office,18.30288,42.69052,9:30 - 4:30,المصرفية الماسية,Diamond Banking,521. King Fahad Road,"King Fahad Road , KHAMIS MUSHAYT",خميس مشيط,KHAMIS MUSHAYT,017-235-8604<br/>017-235-8609,الجنوبية,Southern,1705,طريق الملك فهد,"طريق الملك فهد , خميس مشيط",عادي,المصرفية الذهبية,Golden Banking,الخدمات المصرفية للسيدات,Ladies Banking Services,,,,
Islamic,Branch Office,Branch Office,26.30767296,50.15496178,9:30 - 4:30,المصرفية الذهبية,Golden Banking,312. King Fahad Universirty,"Prince Faisal Bin Fahd Rd , AL-KHOBAR",الخبر,AL-KHOBAR,013-330-0075,الشرقية,Eastern,1646,فرع جامعة الملك فهد,"شارع الأمير فيصل ابن فهد , الخبر",إسلامي,,,,,,,,
Regular,Branch Office,Branch Office,24.68936942,46.70306539,9:30 - 4:30,,,248. King Fahd Medical City,"Makkah Al Mukarramah Rd , Al-RIYADH",الرياض,Al-RIYADH,011-279-1682,الوسطى,Central,1615,فرع مدينة الملك فهد الطبية,"طريق مكة المكرمة , الرياض",عادي,,,,,,,,
Islamic,Branch Office,Branch Office,18.21504,42.80854,9:30 - 4:30,,,506. King Faisal Military City,"King Khalid Rd , KHAMIS MUSHAYT",خميس مشيط,KHAMIS MUSHAYT,017-235-8609,الجنوبية,Southern,1692,فرع مدينة الملك فيصل العسكرية,"طريق الملك خالد , خميس مشيط",إسلامي,,,,,,,,
Islamic,Branch Office,Branch Office,21.39684,39.18914,9:30 - 4:30,المصرفية الذهبية,Golden Banking,142. King Faisal Naval Base - Jeddah,"King Faisal St. , JEDDAH",جدة,JEDDAH,012-609-0331,الغربية,Western,1547,فرع القاعدة البحرية,"شارع الملك فيصل , جدة",إسلامي,,,,,,,,
Regular,Branch Office,Branch Office,25.3514722,49.5919722,9:30 - 4:30,المصرفية الذهبية,Golden Banking,318. King Faisal University,"Prince Faisal Bin Fahd St. , AL-AHSSA",الاحساء,AL-AHSSA,013-580-0048,الشرقية,Eastern,1652,فرع جامعة الملك فيصل,"شارع الأمير فيصل بن فهد , الاحساء",عادي,الخدمات المصرفية للسيدات,Ladies Banking Services,,,,,,
Islamic,Branch Office,Branch Office,27.99146187,45.5560009,9:30 - 4:30,المصرفية الذهبية,Golden Banking,615. King Khaled Military City -  Hafir Al Batten,"King Khalid Rd , HAFIR AL-BATEN",حفر الباطن,HAFIR AL-BATEN,013-787-0776,الشرقية,Eastern,1719,فرع مدينة الملك خالد العسكرية,"طريق الملك خالد , حفر الباطن",إسلامي,,,,,,,,
Regular,Branch Office,Branch Office,24.630056,46.562194,9:30 - 4:30,,,210. Laban,"AL Shefa Rd , Al-RIYADH",الرياض,Al-RIYADH,011-424-1998,الوسطى,Central,5258,فرع لبن,"ظهرة لبن – طريق الشفاء , الرياض",عادي,,,,,,,,
Regular,Branch Office,Branch Office,24.6993607,46.6918868,9:30 - 4:30,الخدمات المصرفية للسيدات,Ladies Banking Services,285. Localizer,"Prince Muhammad Bin Abdulaziz Rd , Al-RIYADH",الرياض,Al-RIYADH,,الوسطى,Central,18060,فرع لوكولايزر,"طريق الأمير محمد بن عبدالعزيز , الرياض",عادي,,,,,,,,
Regular,Branch Office,Branch Office,21.472432,39.233402,9:30 - 4:30,المصرفية الذهبية,Golden Banking,125. Madaan Al-Fahad,"Old Makkah Rd. , JEDDAH",جدة,JEDDAH,012-681-0008,الغربية,Western,1538,فرع مدائن الفهد,"طريق مكة القديم , جدة",عادي,,,,,,,,
Islamic,Branch Office,Branch Office,18.54543,42.04635,9:30 - 4:30,,,525. Mahaiel Asir,"King Abdulaziz Rd , MAHAIEL ASIR",محايل عسير,MAHAIEL ASIR,017-285-0222,الجنوبية,Southern,1707,محايل عسير,"طريق الملك عبد العزيز , محايل عسير",إسلامي,,,,,,,,
Regular,Branch Office,Branch Office,24.496325,39.606174,9:30 - 4:30,المصرفية الماسية,Diamond Banking,105. Main Al-Medina,"King Abdullah Rd. , AL-MADINAH AL-MUNAWWARAH",المدينة المنورة,AL-MADINAH AL-MUNAWWARAH,014-838-8882<br/>014-834-1399,الغربية,Western,1524,فرع المدينة المنورة الرئيسي,"طريق الملك عبدالله , المدينة المنورة",عادي,المصرفية الذهبية,Golden Banking,الخدمات المصرفية للسيدات,Ladies Banking Services,الخدمات المصرفية للشركات,Corporate Banking Services,,
Regular,Branch Office,Branch Office,21.48439,39.18336,9:30 - 4:30,المصرفية الذهبية,Golden Banking,101. Main Jeddah,"King AbdulAziz Rd , JEDDAH",جدة,JEDDAH,012-647-4777,الغربية,Western,1520,فرع جدة الرئيسي,"طريق الملك عبد العزيز , جدة",عادي,الخدمات المصرفية للشركات,Corporate Banking Services,,,,,,
Regular,Branch Office,Branch Office,24.63134023,46.71676091,9:30 - 4:30,المصرفية الذهبية,Golden Banking,201. Main Riyadh,"King Faisal St. - Al Batha , Al-RIYADH",الرياض,Al-RIYADH,011-411-3320,الوسطى,Central,1579,فرع الرياض الرئيسي,"شارع الملك فيصل - البطحاء , الرياض",عادي,الخدمات المصرفية للشركات,Corporate Banking Services,,,,,,
Regular,Branch Office,Branch Office,21.5482,39.194812,9:30 - 4:30,المصرفية الذهبية,Golden Banking,139. Makaronah St.,"Al Makaronah St. , JEDDAH",جدة,JEDDAH,012-671-7442,الغربية,Western,1546,فرع شارع المكرونة,"شارع المكرونة , جدة",عادي,,,,,,,,
Regular,Branch Office,Branch Office,21.41783,39.8595,9:30 - 4:30,المصرفية الذهبية,Golden Banking,104. Makkah Al-Mukarramah,"Al Masjied Al Haram Rd. - Aziziah St. , MAKKAH AL-MUKARRAMAH",مكة المكرمة,MAKKAH AL-MUKARRAMAH,012-550-6220,الغربية,Western,1523,فرع مكة المكرمة الرئيسي,"طريق المسجد الحرام - شارع العزيزية العام , مكة المكرمة",عادي,الخدمات المصرفية للسيدات,Ladies Banking Services,,,,,,
Islamic,Branch Office,Branch Office,21.49162,39.793228,9:30 - 4:30,المصرفية الذهبية,Golden Banking,179. Makkah Indestrial,"Al Madinah Al Munawarah Rd , MAKKAH AL-MUKARRAMAH",مكة المكرمة,MAKKAH AL-MUKARRAMAH,012-520-3281,الغربية,Western,1566,فرع الصناعية,"طريق المدينة المنورة , مكة المكرمة",إسلامي,,,,,,,,
Islamic,Branch Office,Branch Office,24.143374,47.305514,9:30 - 4:30,المصرفية الذهبية,Golden Banking,211. Military Factories Branch,"King Fahad Rd , ",الخرج,,011-544-3984,الوسطى,Central,1587,فرع المصانع الحربية,"طريق الملك فهد , الخرج",إسلامي,,,,,,,,
Regular,Branch Office,Branch Office,26.41262,50.108828,9:30 - 4:30,مراكز الأعمال الناشئة,Emerging Enterprises Centers,346. Muriakabat St.,"Prince Mohammed Bin Fahd Rd , DAMMAM",الدمام,DAMMAM,013-815-2273,الشرقية,Eastern,1675,فرع المريكبات,"طريق الأمير محمد بن فهد , الدمام",عادي,,,,,,,,
Regular,Branch Office,Branch Office,17.489317,44.133369,9:30 - 4:30,,,508. Najran,"King Abdulaziz Rd , NAJRAN",نجران,NAJRAN,017-542-2916,الجنوبية,Southern,1694,فرع نجران,"طريق الملك عبد العزيز , نجران",عادي,,,,,,,,
Regular,Branch Office,Branch Office,24.553507,46.560681,9:30 - 4:30,,,251. Namar,"Namar Dist. Najam Al-Din Al-Ayoubi , Al-RIYADH",الرياض,Al-RIYADH,,الوسطى,Central,8759,نمار,"حي نمار طريق نجم الدين الايوبي , الرياض",عادي,,,,,,,,
Regular,Branch Office,Branch Office,28.48663,48.4939,9:30 - 4:30,,,314. Neutral Zone,"Aramco , Al-KHAFJY",الخفجي,Al-KHAFJY,013-766-2506,الشرقية,Eastern,1648,المنطقة المحايدة,"داخل ارامكو , الخفجي",عادي,,,,,,,,
Regular,Branch Office,Branch Office,26.086304,43.989502,9:30 - 4:30,المصرفية الذهبية,Golden Banking,617. Oniyzah,"King Abdulaziz Rd , UNAYZAH",عنيزة,UNAYZAH,016-364-1146,القصيم,Qassim,1721,فرع عنيزة,"طريق الملك عبد العزيز , عنيزة",عادي,الخدمات المصرفية للسيدات,Ladies Banking Services,خدمات الاستثمار,Investment Services,,,,
Islamic,Branch Office,Branch Office,21.43862,39.25319,9:30 - 4:30,المصرفية الذهبية,Golden Banking,180. Ostad Al-Riyadi,"Al-Lith Rd , JEDDAH",جدة,JEDDAH,012-280-4317,الغربية,Western,1567,فرع الاستاد الرياضي,"طريق الليث , جدة",إسلامي,,,,,,,,
Islamic,Branch Office,Branch Office,21.43906,39.81877,9:30 - 4:30,,,130. Otaibia,"Al Hujoon St. , MAKKAH AL-MUKARRAMAH",مكة المكرمة,MAKKAH AL-MUKARRAMAH,012-544-5360,الغربية,Western,1540,فرع العتيبية,"شارع الحجون , مكة المكرمة",إسلامي,,,,,,,,
Regular,Branch Office,Branch Office,21.52351,39.16519,9:30 - 4:30,المصرفية الذهبية,Golden Banking,136. Palestine St.,"Palesten St. , JEDDAH",جدة,JEDDAH,012-660-7040,الغربية,Western,1543,فرع شارع فلسطين,"شارع فلسطين , جدة",عادي,الخدمات المصرفية للسيدات,Ladies Banking Services,,,,,,
Regular,Branch Office,Branch Office,21.524268,39.191844,9:30 - 4:30,,,148. Prince Fahd St.,"King Fahd Rd , JEDDAH",جدة,JEDDAH,012-651-8488,الغربية,Western,1550,فرع طريق الامير فهد,"طريق الملك فهد , جدة",عادي,,,,,,,,
Islamic,Branch Office,Branch Office,26.4402673933607,50.1076777813535,9:30 - 4:30,المصرفية الذهبية,Golden Banking,303. Prince Mohammed St.,"Prince Mohammed St. , DAMMAM",الدمام,DAMMAM,013-834-0707,الشرقية,Eastern,1637,فرع شارع الأمير محمد,"شارع الأمير محمد , الدمام",إسلامي,,,,,,,,
Regular,Branch Office,Branch Office,21.61728,39.13849,9:30 - 4:30,المصرفية الذهبية,Golden Banking,185. Prince Sultan St.,"Prince Sultan Rd , JEDDAH",جدة,JEDDAH,012-699-4987,الغربية,Western,1572,شارع الأمير سلطان,"طريق الأمير سلطان , جدة",عادي,الخدمات المصرفية للسيدات,Ladies Banking Services,,,,,,
Regular,Branch Office,Branch Office,24.85949,46.728268,8:00 - 3:00,الخدمات المصرفية للسيدات,Ladies Banking Services,256. Princess Nora University (2),"Airport Road , Al-RIYADH",الرياض,Al-RIYADH,011-292-2864 <br/>011-292-2887 ,الوسطى,Central,15677,جامعة الأميرة نورة (2),"طريق المطار , الرياض",عادي,,,,,,,,
Regular,Branch Office,Branch Office,26.30297,50.206624,9:30 - 4:30,المصرفية الخاصة,Private Banking,355. Private Banking,"Prince Faisal Bin Fahd Rd , AL-KHOBAR",الخبر,AL-KHOBAR,013-898-6567,الشرقية,Eastern,8097,فرع المصرفية الخاصة,"طريق الأمير فيصل بن فهد , الخبر",عادي,الخدمات المصرفية للسيدات,Ladies Banking Services,خدمات الاستثمار,Investment Services,,,,
Regular,Branch Office,Branch Office,21.6135,39.11908,9:30 - 4:30,المصرفية الخاصة,Private Banking,155. Private Banking,"king Abdul Aziz Branch Rd , JEDDAH",جدة,JEDDAH,012-236-5415,الغربية,Western,1556,فرع المصرفية الخاصة,"طريق الملك عبدالعزيز الفرعي , جدة",عادي,الخدمات المصرفية للسيدات,Ladies Banking Services,,,,,,
Regular,Branch Office,Branch Office,24.696893,46.682393,9:30 - 4:30,خدمات الاستثمار,Investment Services,255. Private Banking Center - Olaya Tower,"Olaya Towers/ General Organization for Social Insurance - Al-Olaya St. cross Al-Thaliah Rd - Olaya district , Al-RIYADH",الرياض,Al-RIYADH,011-298-6902,الوسطى,Central,6252,مركز المصرفية الخاصة - ابراج العليا,"ابراج العليا/ المؤسسة العامة للتأمينات الإجتماعية - شارع العليا تقاطع التحلية - حي العليا , الرياض",عادي,,,,,,,,
Regular,Branch Office,Branch Office,24.725686,46.755139,9:30 - 4:30,المصرفية الخاصة,Private Banking,266. Privte Banking center,"Eastern Ring Road - Exit 12 - King Abdullah district , Al-RIYADH",الرياض,Al-RIYADH,011-279-9000,الوسطى,Central,1616,مركز المصرفية الخاصة,"طريق الدائري الشرقي - مخرج 12 - حي الملك عبدالله , الرياض",عادي,الخدمات المصرفية للسيدات,Ladies Banking Services,,,,,,
Islamic,Branch Office,Branch Office,27.564904,47.702929,9:30 - 4:30,,,328. Qarayat Al Alaya,"Prince Mohammed Bin Fahd St. , QARYAT AL-OLAYA",قرية العليا,QARYAT AL-OLAYA,013-386-1932,الشرقية,Eastern,1661,فرع قرية العليا,"شارع الأمير محمد ابن فهد , قرية العليا",إسلامي,,,,,,,,
Regular,Branch Office,Branch Office,26.56236,50.00393,9:30 - 4:30,المصرفية الذهبية,Golden Banking,306. Qatif,"Imam Jaafr Al-Sadeq St. , QATIF",القطيف,QATIF,013-855-5904,الشرقية,Eastern,1640,فرع القطيف,"شارع الأمام جعفر الصادق , القطيف",عادي,,,,,,,,
Islamic,Branch Office,Branch Office,24.450867,39.611801,9:30 - 4:30,المصرفية الذهبية,Golden Banking,115. Qiba Branch,"Quba Al Nazil Rd. , AL-MADINAH AL-MUNAWWARAH",المدينة المنورة,AL-MADINAH AL-MUNAWWARAH,014-822-3593,الغربية,Western,1529,فرع قباء,"طريق قباء النازل , المدينة المنورة",إسلامي,,,,,,,,
Regular,Branch Office,Branch Office,31.325955,37.337796,9:30 - 4:30,المصرفية الذهبية,Golden Banking,407. Qurrayat,"Omar Ibn Al Khattab Rd , AL-QURAYAT",القريات,AL-QURAYAT,014-641-3094,الشمالية,Northern,1857,فرع القريات,"شارع عمر بن الخطاب , القريات",عادي,,,,,,,,
Regular,Branch Office,Branch Office,24.79975709,46.73670166,9:30 - 4:30,المصرفية الماسية,Diamond Banking,267. Qurtoba,"Dammam Rd , Al-RIYADH",الرياض,Al-RIYADH,011-249-6217,الوسطى,Central,1625,فرع قرطبة,"طريق الدمام , الرياض",عادي,,,,,,,,
Islamic,Branch Office,Branch Office,22.793982,39.033272,9:30 - 4:30,المصرفية الذهبية,Golden Banking,128. Rabigh,"Main Street , RABIGH",رابغ,RABIGH,012-422-1208,الغربية,Western,1539,فرع رابغ,"الشارع العام , رابغ",إسلامي,,,,,,,,
Regular,Branch Office,Branch Office,25.402853,49.581683,9:30 - 4:30,المصرفية الذهبية,Golden Banking,307. Ras Tanourah,"King Faisal St. , RAS TANNORA",راس تنورة,RAS TANNORA,013-667-1832,الشرقية,Eastern,1641,فرع راس تنورة ,"شارع الملك فيصل , راس تنورة",عادي,الخدمات المصرفية للسيدات,Ladies Banking Services,الخدمات المصرفية للشركات,Corporate Banking Services,,,,
Regular,Branch Office,Branch Office,26.37623,43.91068,9:30 - 4:30,المصرفية الماسية,Diamond Banking,624. Rayan,"Al- Nahdah St. , BURAIDAH",بريدة,BURAIDAH,,القصيم,Qassim,1726,فرع الريان,"طريق النهضة , بريدة",عادي,المصرفية الذهبية,Golden Banking,الخدمات المصرفية للسيدات,Ladies Banking Services,,,,
Islamic,Branch Office,Branch Office,26.046785,43.559965,9:30 - 4:30,,,618. Riyad Al Khabra,"King Abdulaziz Rd , RIYADH AL-KHABRA",رياض الخبراء,RIYADH AL-KHABRA,016-334-0215,القصيم,Qassim,1722,رياض الخبراء,"طريق الملك عبد العزيز , رياض الخبراء",إسلامي,,,,,,,,
Islamic,Branch Office,Branch Office,19.55982,41.9576,9:30 - 4:30,,,509. Sabt Al Alaya,"King Khalid Rd , SABT AL-ALAYA",سبت العلايا,SABT AL-ALAYA,017-630-0750,الجنوبية,Southern,1695,فرع سبت العليا,"طريق الملك خالد , سبت العلايا",إسلامي,,,,,,,,
Islamic,Branch Office,Branch Office,17.17072,42.6467,9:30 - 4:30,,,513. Sabya,"King Abdulaziz Rd , SABYA",صبيا,SABYA,017-326-4800,الجنوبية,Southern,1698,فرع صبيا ,"طريق الملك عبدالعزيز , صبيا",إسلامي,,,,,,,,
Regular,Branch Office,Branch Office,26.650779,49.956329,9:30 - 4:30,المصرفية الذهبية,Golden Banking,315. Safwa,"Al Imam Ali Ibn Abi Talib Rd , SAFWA",صفوى,SAFWA,013-664-7014,الشرقية,Eastern,1649,فرع صفوى,"طريق الإمام علي بن أبي طالب , صفوى",عادي,الخدمات المصرفية للسيدات,Ladies Banking Services,,,,,,
Regular,Branch Office,Branch Office,26.488061,50.038246,9:30 - 4:30,المصرفية الذهبية,Golden Banking,313. Saihat,"Omar Ibn Abdulaziz St. , SAIHAT",سيهات,SAIHAT,013-850-2640,الشرقية,Eastern,1647,فرع سيهات,"شارع عمر بن عبد العزيز , سيهات",عادي,الخدمات المصرفية للسيدات,Ladies Banking Services,,,,,,
Regular,Branch Office,Branch Office,21.57611,39.14695,9:30 - 4:30,المصرفية الذهبية,Golden Banking,170. Al-Sary,"Sari St. , JEDDAH",جدة,JEDDAH,012-682-8716,الغربية,Western,1562,فرع صاري,"شارع صاري , جدة",عادي,الخدمات المصرفية للسيدات,Ladies Banking Services,,,,,,
Regular,Branch Office,Branch Office,24.55126826,46.89063183,9:30 - 4:30,الخدمات المصرفية للشركات,Corporate Banking Services,222. Second Industrial,"Al Kharj Rd , Al-RIYADH",الرياض,Al-RIYADH,011-265-2116,الوسطى,Central,1595,فرع الصناعية الثانية,"طريق الخرج , الرياض",عادي,,,,,,,,
Islamic,Branch Office,Branch Office,25.23651823,45.25297803,9:30 - 4:30,,,206. Shaqra Branch,"King Saud St. - Public St. , SHAQRA",شقراء,SHAQRA,011-622-1747,الوسطى,Central,1584,فرع شقراء,"طريق الملك سعود - الشارع العام , شقراء",إسلامي,,,,,,,,
Islamic,Branch Office,Branch Office,17.489423,47.114403,9:30 - 4:30,المصرفية الذهبية,Golden Banking,510. Sharourah,"30 St , SHAROURAH",شرورة,SHAROURAH,017-532-1988,الجنوبية,Southern,1696,فرع شرورة ,"شارع الثلاثين , شرورة",إسلامي,,,,,,,,
Regular,Branch Office,Branch Office,21.27771,40.411862,9:30 - 4:30,المصرفية الذهبية,Golden Banking,124. Shobrah,"Shubra St. , AL-TAIF",الطائف,AL-TAIF,012-738-0819,الغربية,Western,1537,فرع شبرا,"شارع شبرا العام , الطائف",عادي,,,,,,,,
Regular,Branch Office,Branch Office,24.68511,46.725354,9:30 - 4:30,المصرفية الذهبية,Golden Banking,286. Sitteen Street,"Al Sitteen St. - Salah Ad Din Al Ayyubi Rd , Al-RIYADH",الرياض,Al-RIYADH,011-477-2450,الوسطى,Central,1629,فرع شارع الستين,"شارع الستين  - شارع صلاح الدين الأيوبي , الرياض",عادي,الخدمات المصرفية للسيدات,Ladies Banking Services,,,,,,
Islamic,Branch Office,Branch Office,21.59511,39.17272,9:30 - 4:30,الخدمات المصرفية للسيدات,Ladies Banking Services,119. Sitteen Street,"Sitteen Street , JEDDAH",جدة,JEDDAH,012-256-3013,الغربية,Western,1532,فرع شارع الستين,"شارع الستين , جدة",إسلامي,,,,,,,,
Islamic,Branch Office,Branch Office,21.426169,39.78924,9:30 - 4:30,المصرفية الذهبية,Golden Banking,122. Sitteen Street,"Om Al-Qura St. , MAKKAH AL-MUKARRAMAH",مكة المكرمة,MAKKAH AL-MUKARRAMAH,012-542-0911,الغربية,Western,1535,فرع الستين,"شارع أم القرى , مكة المكرمة",إسلامي,الخدمات المصرفية للسيدات,Ladies Banking Services,,,,,,
Regular,Branch Office,Branch Office,29.9691,40.20272,9:30 - 4:30,المصرفية الذهبية,Golden Banking,408. Skaka Branch,"King Abdulaziz Rd , SAKAKA AL-JAWF",سكاكا,SAKAKA AL-JAWF,014-624-2980,الشمالية,Northern,1858,فرع سكاكا,"طريق الملك عبد العزيز , سكاكا",عادي,الخدمات المصرفية للسيدات,Ladies Banking Services,,,,,,
Regular,Branch Office,Branch Office,24.566904,46.653304,9:30 - 4:30,المصرفية الذهبية,Golden Banking,262. South Circular,"Southern Ring Rd , Al-RIYADH",الرياض,Al-RIYADH,011-449-7105,الوسطى,Central,1622,فرع الدائري الجنوبي,"طريق الدائري الغربي , الرياض",عادي,خدمات الاستثمار,Investment Services,,,,,,
Islamic,Branch Office,Branch Office,24.488317,39.579528,9:30 - 4:30,الخدمات المصرفية للسيدات,Ladies Banking Services,167. Sultanh,"Abo Bakr Al Siddiq St. , AL-MADINAH AL-MUNAWWARAH",المدينة المنورة,AL-MADINAH AL-MUNAWWARAH,014-845-6903,الغربية,Western,1559,فرع سلطانة,"شارع أبو بكر الصديق , المدينة المنورة",إسلامي,,,,,,,,
Regular,Branch Office,Branch Office,28.38481,36.5624,9:30 - 4:30,المصرفية الذهبية,Golden Banking,409. Tabuk Branch,"Al Amir Fahd Ibn Sultan Rd , TABUK",تبوك,TABUK,014-424-4444,الشمالية,Northern,1859,فرع تبوك,"طريق الأمير فهد بن سلطان , تبوك",عادي,الخدمات المصرفية للسيدات,Ladies Banking Services,,,,,,
Regular,Branch Office,Branch Office,21.55571,39.171872,9:30 - 4:30,المصرفية الماسية,Diamond Banking,157. Tahlia,"Prince Mohammed Bin Abdulaziz St. , JEDDAH",جدة,JEDDAH,012-261-1332,الغربية,Western,1557,فرع التحلية,"شارع الامير محمد بن عبدالعزيز , جدة",عادي,المصرفية الذهبية,Golden Banking,الخدمات المصرفية للسيدات,Ladies Banking Services,الخدمات المصرفية للشركات,Corporate Banking Services,,
Islamic,Branch Office,Branch Office,21.579013,39.21871,9:30 - 4:30,المصرفية الذهبية,Golden Banking,153. Taiba  - Jeddah,"Umm Al Qura St. , JEDDAH",جدة,JEDDAH,012-272-0755,الغربية,Western,1555,فرع طيبة,"شارع أم القرى , جدة",إسلامي,خدمات الاستثمار,Investment Services,,,,,,
Regular,Branch Office,Branch Office,26.569453,50.071551,9:30 - 4:30,المصرفية الذهبية,Golden Banking,326. Tarout,"Hejer Bin Oday St. - Main Street , TAROUT",تاروت,TAROUT,013-823-4412,الشرقية,Eastern,1659,فرع تاروت,"شارع حجر بن عدي - الشارع العام , تاروت",عادي,الخدمات المصرفية للسيدات,Ladies Banking Services,,,,,,
Islamic,Branch Office,Branch Office,21.212251,41.637267,9:30 - 4:30,,,133. Torbah,"King Abdulaziz St. , TORBAH",تربة,TORBAH,012-822-1681,الغربية,Western,1541,فرع تربة,"شارع الملك عبد العزيز , تربة",إسلامي,,,,,,,,
Islamic,Branch Office,Branch Office,31.67662,38.66417,9:30 - 4:30,المصرفية الذهبية,Golden Banking,411. Turaif Branch,"Prince Abdullah Bin Musaad , TURAIF",طريف,TURAIF,014-652-1357,الشمالية,Northern,1861,فرع طريف,"طريق الأمير عبدالله ابن مساعد , طريف",إسلامي,,,,,,,,
Regular,Branch Office,Branch Office,26.5167797,49.9994616,9:30 - 4:30,المصرفية الذهبية,Golden Banking,330. Um Al Hamam,"Main St. - Um Al Hammam , UMMUL HAMAM",ام الحمام,UMMUL HAMAM,013-863-6384,الشرقية,Eastern,1663,فرع ام الحمام,"الشارع العام , ام الحمام",عادي,,,,,,,,
Islamic,Branch Office,Branch Office,25.02544,37.26577,9:30 - 4:30,,,413. Ummlaj,"King Abdulaziz St. , UMMLAJ",املج,UMMLAJ,014-382-1386,الشمالية,Northern,1862,فرع أملج,"شارع الملك عبد العزيز , املج",إسلامي,,,,,,,,
Islamic,Branch Office,Branch Office,24.57718188,46.58092385,9:30 - 4:30,,,244. Uraigah,"Bilal Ibn Rabah St. , Al-RIYADH",الرياض,Al-RIYADH,011-436-7532,الوسطى,Central,1611,فرع العريجاء,"شارع بلال بن رباح , الرياض",إسلامي,,,,,,,,
Islamic,Branch Office,Branch Office,20.460682,44.805503,9:30 - 4:30,,,516. Wadi AL Dawaser Branch,"Main Street - Al-Ldam District , WADI AL-DAWASER",وادي الدواسر,WADI AL-DAWASER,011-785-0026,الوسطى,Central,1701,فرع وادي الدواسر ,"الشارع العام - حي اللدام , وادي الدواسر",إسلامي,,,,,,,,
Islamic,Branch Office,Branch Office,26.409982,50.033763,9:30 - 4:30,المصرفية الذهبية,Golden Banking,343. West Dammam,"Abu Bakr Alsiddiq St. , DAMMAM",الدمام,DAMMAM,013-822-8949,الشرقية,Eastern,1672,فرع غرب الدمام ,"شارع أبو بكر الصديق , الدمام",إسلامي,,,,,,,,
Regular,Branch Office,Branch Office,24.57655132,46.60644679,9:30 - 4:30,المصرفية الذهبية,Golden Banking,261. West Ring Road,"Western Ring Rd , Al-RIYADH",الرياض,Al-RIYADH,011-436-9185,الوسطى,Central,1621,فرع الدائري الغربي,"طريق الدائري الغربي , الرياض",عادي,الخدمات المصرفية للسيدات,Ladies Banking Services,,,,,,
Islamic,Branch Office,Branch Office,24.085398,38.061292,9:30 - 4:30,المصرفية الذهبية,Golden Banking,111. Yanbu,"King AbdulAziz Road , YANBU",ينبع,YANBU,014-322-1181,الغربية,Western,1528,فرع ينبع الرئيسي,"طريق الملك عبد العزيز , ينبع",إسلامي,,,,,,,,
Regular,Branch Office,Branch Office,24.00218,38.1977,9:30 - 4:30,المصرفية الماسية,Diamond Banking,123. Yanbu Industrial,"King Fahad St. , YANBU",ينبع,YANBU,014-393-2485,الغربية,Western,1536,فرع ينبع الصناعية,"طريق الملك فهد , ينبع",عادي,المصرفية الذهبية,Golden Banking,الخدمات المصرفية للسيدات,Ladies Banking Services,الخدمات المصرفية للشركات,Corporate Banking Services,,
