Title,Type,StreetAddress,City,Latitude,Longitude,ImageUrl,Information,BranchId,WorkingHours
Bur Dubai Branch,"46dcfbfe-458f-66de-b8c5-ff0000b6b24a,4adcfbfe-458f-66de-b8c5-ff0000b6b24a,4bdcfbfe-458f-66de-b8c5-ff0000b6b24a,4ddcfbfe-458f-66de-b8c5-ff0000b6b24a,343b0fff-458f-66de-b8c5-ff1000b6b24a,67a214ff-458f-66de-b8c5-ff1000b6b24a,9ea214ff-458f-66de-b8c5-ff1000b6b24a,9ba214ff-458f-66de-b8c5-ff1000b6b24a",,Dubai,25.256897,55.297213,/img/locator/icon-logo-34x34.png,"Al Mankhool St. <br>Opp. Al Khaleej Center<br><p><span style=""font-size: 12px;""><strong>ATM Services:</strong></span></p><ul><li><span style=""font-size: 12px;"">Cash Withdrawal</span></li><li><span style=""font-size: 12px;"">Smart Cash Deposit Machine</span></li><li><span style=""font-size: 12px;"">Cheque Deposit Machine</span></li><li><span style=""font-size: 12px;"">Drive In</span></li><li><span style=""font-size: 12px;"">Bill Payment</span></li><li><span style=""font-size: 12px;"">Fund Transfer (By account)</span></li></ul>",3,"08:00 AM to 03:30 PM (Monday - Thursday), 07:30 AM to 12:30 PM (Friday)"
Burj Al Arab,"4cdcfbfe-458f-66de-b8c5-ff0000b6b24a,9ba214ff-458f-66de-b8c5-ff1000b6b24a,4edcfbfe-458f-66de-b8c5-ff0000b6b24a,67a214ff-458f-66de-b8c5-ff1000b6b24a,4bdcfbfe-458f-66de-b8c5-ff0000b6b24a",,Dubai,25.140965,55.185526,/img/locator/icon-logo-34x34.png,"Burj Al Arab Hotel,<br>Jumeirah Rd.<br><p><span style=""font-size: 12px;""><strong>ATM Services:</strong></span></p><ul><li><span style=""font-size: 12px;"">Withdrawal only</span></li><li><span style=""font-size: 12px;"">Cash Deposit&nbsp;not available&nbsp;</span></li><li><span style=""font-size: 12px;"">Bill Payment (By account)</span></li><li><span style=""font-size: 12px;"">Fund Transfer (By account)</span></li></ul>",0,8am to 3pm (Sat-Thu)
Jebal Ali Branch,"9ba214ff-458f-66de-b8c5-ff1000b6b24a,9ea214ff-458f-66de-b8c5-ff1000b6b24a,67a214ff-458f-66de-b8c5-ff1000b6b24a,4cdcfbfe-458f-66de-b8c5-ff0000b6b24a,343b0fff-458f-66de-b8c5-ff1000b6b24a,4edcfbfe-458f-66de-b8c5-ff0000b6b24a,4adcfbfe-458f-66de-b8c5-ff0000b6b24a,cb4102ff-458f-66de-b8c5-ff0b00b6b24a,46dcfbfe-458f-66de-b8c5-ff0000b6b24a,47dcfbfe-458f-66de-b8c5-ff0000b6b24a,4bdcfbfe-458f-66de-b8c5-ff0000b6b24a",,Dubai,25.012003,55.0903089999999,/img/locator/icon-logo-34x34.png,Jebal Ali Free Zone<br>,5,"8am to 3:30pm (Mon-Thurs, Sat), 7:30am to 12:30pm (Fri)"
Ras Al Khaimah Branch,"49dcfbfe-458f-66de-b8c5-ff0000b6b24a,4cdcfbfe-458f-66de-b8c5-ff0000b6b24a,9ba214ff-458f-66de-b8c5-ff1000b6b24a,343b0fff-458f-66de-b8c5-ff1000b6b24a,4edcfbfe-458f-66de-b8c5-ff0000b6b24a,4adcfbfe-458f-66de-b8c5-ff0000b6b24a,cb4102ff-458f-66de-b8c5-ff0b00b6b24a,9ea214ff-458f-66de-b8c5-ff1000b6b24a,67a214ff-458f-66de-b8c5-ff1000b6b24a,4bdcfbfe-458f-66de-b8c5-ff0000b6b24a",,Ras Al Khaimah,25.776967,55.937317,/img/locator/icon-logo-34x34.png,"Al Quawasim Corniche Road<br>KAY Invest Building<br><p><span style=""font-size: 12.5px;""><strong>ATM Services:</strong>&nbsp;</span></p><ul><li><span style=""font-size: 12px;"">Cash Withdrawal&nbsp;</span></li><li><span style=""font-size: 12px;"">Smart Cash Deposit</span></li><li><span style=""font-size: 12px;"">Cheque Deposit Machine</span></li><li><span style=""font-size: 12px;"">Bill Payment</span></li><li><span style=""font-size: 12px;"">Fund Transfer (By account)</span></li></ul><br><br>",7,"08:00 AM to 03:30 PM (Monday - Thursday), 07:30 AM to 12:30 PM (Friday)"
Baniyas Branch,"4cdcfbfe-458f-66de-b8c5-ff0000b6b24a,9ba214ff-458f-66de-b8c5-ff1000b6b24a,343b0fff-458f-66de-b8c5-ff1000b6b24a,4edcfbfe-458f-66de-b8c5-ff0000b6b24a,4adcfbfe-458f-66de-b8c5-ff0000b6b24a,cb4102ff-458f-66de-b8c5-ff0b00b6b24a,9ea214ff-458f-66de-b8c5-ff1000b6b24a,67a214ff-458f-66de-b8c5-ff1000b6b24a,46dcfbfe-458f-66de-b8c5-ff0000b6b24a,47dcfbfe-458f-66de-b8c5-ff0000b6b24a,4bdcfbfe-458f-66de-b8c5-ff0000b6b24a",,Dubai,25.269663,55.3086539999999,/img/locator/icon-logo-34x34.png,"Baniyas Rd. Al Maktoum Hospital Rd.<br>near Baniyas Metro station<br><p><span style=""font-size: 12px;""><strong><span style=""color: rgb(255, 0, 0);"">[permanently closed]</span></strong></span></p>",9,8am to 3pm
Sheikh Zayed Branch,"49dcfbfe-458f-66de-b8c5-ff0000b6b24a,4cdcfbfe-458f-66de-b8c5-ff0000b6b24a,9ba214ff-458f-66de-b8c5-ff1000b6b24a,343b0fff-458f-66de-b8c5-ff1000b6b24a,4edcfbfe-458f-66de-b8c5-ff0000b6b24a,4adcfbfe-458f-66de-b8c5-ff0000b6b24a,cb4102ff-458f-66de-b8c5-ff0b00b6b24a,9ea214ff-458f-66de-b8c5-ff1000b6b24a,67a214ff-458f-66de-b8c5-ff1000b6b24a,46dcfbfe-458f-66de-b8c5-ff0000b6b24a,47dcfbfe-458f-66de-b8c5-ff0000b6b24a,4bdcfbfe-458f-66de-b8c5-ff0000b6b24a",,Dubai,25.209193,55.274663,/img/locator/icon-logo-34x34.png,Sheikh Zayed Rd. 88<br><p><strong>ATM Services:</strong></p><ul><li>Cash Withdrawal</li><li>Cash Deposit Machine</li><li>Bill Payment</li><li>Fund Transfer (By account)</li></ul><br>,11,"08:00 AM to 03:30 PM (Monday - Thursday), 07:30 AM to 12:30 PM (Friday)"
Al Qusais Branch,"343b0fff-458f-66de-b8c5-ff1000b6b24a,4adcfbfe-458f-66de-b8c5-ff0000b6b24a,9ba214ff-458f-66de-b8c5-ff1000b6b24a,4cdcfbfe-458f-66de-b8c5-ff0000b6b24a,67a214ff-458f-66de-b8c5-ff1000b6b24a,46dcfbfe-458f-66de-b8c5-ff0000b6b24a,47dcfbfe-458f-66de-b8c5-ff0000b6b24a",,Dubai,25.272721,55.371762,/img/locator/icon-logo-34x34.png,"Al Qusais 1, Opp. Union Co-operative Society<br><p><strong>ATM Services:</strong></p><ul><li>Cash Withdrawal</li><li>Smart Cash Deposit</li><li>Cheque Deposit Machine</li><li>Bill Payment</li><li>Fund Transfer (By account)</li></ul><br>",12,"08:00 AM to 03:30 PM (Monday - Thursday), 07:30 AM to 12:30 PM (Friday)"
Ajman Branch,"4ddcfbfe-458f-66de-b8c5-ff0000b6b24a,49dcfbfe-458f-66de-b8c5-ff0000b6b24a,4cdcfbfe-458f-66de-b8c5-ff0000b6b24a,9ba214ff-458f-66de-b8c5-ff1000b6b24a,4edcfbfe-458f-66de-b8c5-ff0000b6b24a,cb4102ff-458f-66de-b8c5-ff0b00b6b24a,45dcfbfe-458f-66de-b8c5-ff0000b6b24a,67a214ff-458f-66de-b8c5-ff1000b6b24a,46dcfbfe-458f-66de-b8c5-ff0000b6b24a,47dcfbfe-458f-66de-b8c5-ff0000b6b24a,4bdcfbfe-458f-66de-b8c5-ff0000b6b24a",,Ajman,25.412646,55.444198,/img/locator/icon-logo-34x34.png,"Sheikh Rashid Bin Humeed Street,<br>Near&nbsp; Ajman Museum, <br>Opposite Ajman Gold Souq<br><p><span style=""font-size: 12.5px;""><strong>ATM Services:</strong>&nbsp;</span></p><ul><li><span style=""font-size: 12px;"">Cash Withdrawal&nbsp;</span></li><li><span style=""font-size: 12px;"">Smart Cash Deposit</span></li><li><span style=""font-size: 12px;"">Cash Deposit Machine</span></li><li><span style=""font-size: 12px;"">Drive thru ATM</span></li><li><span style=""font-size: 12px;"">Bill Payment (By account)</span></li><li><span style=""font-size: 12px;"">Fund Transfer (By account)</span></li></ul><br><br>",13,"08:00 AM to 03:30 PM (Monday - Thursday), 07:30 AM to 12:30 PM (Friday)"
 Al Ain Mall Branch,"9936fcfe-458f-66de-b8c5-ff0000b6b24a,49dcfbfe-458f-66de-b8c5-ff0000b6b24a,4cdcfbfe-458f-66de-b8c5-ff0000b6b24a,9ba214ff-458f-66de-b8c5-ff1000b6b24a,343b0fff-458f-66de-b8c5-ff1000b6b24a,4edcfbfe-458f-66de-b8c5-ff0000b6b24a,4adcfbfe-458f-66de-b8c5-ff0000b6b24a,cb4102ff-458f-66de-b8c5-ff0b00b6b24a,9ea214ff-458f-66de-b8c5-ff1000b6b24a,67a214ff-458f-66de-b8c5-ff1000b6b24a,46dcfbfe-458f-66de-b8c5-ff0000b6b24a,47dcfbfe-458f-66de-b8c5-ff0000b6b24a,4bdcfbfe-458f-66de-b8c5-ff0000b6b24a",,Al Ain,24.221546,55.7822,/img/locator/icon-logo-34x34.png,"Othman Bin Affan street<br><span style=""color: rgb(255, 0, 0);"">CLOSE</span><br><p><span style=""font-size: 12.5px;""><strong>ATM Services:</strong>&nbsp;</span></p><ul><li><span style=""font-size: 12px;"">Cash Withdrawal&nbsp;</span></li><li><span style=""font-size: 12px;"">Smart Cash Deposit</span></li><li><span style=""font-size: 12px;"">Cheque Deposit Machine</span></li><li><span style=""font-size: 12px;"">Bill Payment (by Account)</span></li><li><span style=""font-size: 12px;"">Fund Transfer (by Account)</span></li></ul><br><br>",14,"10:00 AM to 05:30 PM (Mon-Thurs, Sat), 10:00 AM - 12:00 PM / 02:00 PM - 05:00 PM (Fri)"
Main Branch,"49dcfbfe-458f-66de-b8c5-ff0000b6b24a,47dcfbfe-458f-66de-b8c5-ff0000b6b24a,4cdcfbfe-458f-66de-b8c5-ff0000b6b24a,9ba214ff-458f-66de-b8c5-ff1000b6b24a,343b0fff-458f-66de-b8c5-ff1000b6b24a,4edcfbfe-458f-66de-b8c5-ff0000b6b24a,4adcfbfe-458f-66de-b8c5-ff0000b6b24a,cb4102ff-458f-66de-b8c5-ff0b00b6b24a,45dcfbfe-458f-66de-b8c5-ff0000b6b24a,9ea214ff-458f-66de-b8c5-ff1000b6b24a,67a214ff-458f-66de-b8c5-ff1000b6b24a,46dcfbfe-458f-66de-b8c5-ff0000b6b24a,4bdcfbfe-458f-66de-b8c5-ff0000b6b24a",,Dubai,25.25506,55.331322,/img/locator/icon-logo-34x34.png,"Al Ittihad St. Port Saeed<br>Opp. Deira City Center<br><p><span style=""font-size: 12px;""><strong>ATM Services:</strong></span></p><ul><li><span style=""font-size: 12px;"">Cash Withdrawal</span></li><li><span style=""font-size: 12px;"">Smart Cash Deposit</span></li><li><span style=""font-size: 12px;"">Cheque Deposit Machine</span></li><li><span style=""font-size: 12px;"">Bill Payment</span></li><li><span style=""font-size: 12px;"">Fund Transfer (By account)</span></li><li><span style=""font-size: 12px;"">E-Wallet Top Up&nbsp;</span></li></ul>",17,"08:00 AM to 03:30 PM (Monday - Thursday), 07:30 AM to 12:30 PM (Friday)"
Fujairah Branch,"4bdcfbfe-458f-66de-b8c5-ff0000b6b24a,4edcfbfe-458f-66de-b8c5-ff0000b6b24a,4adcfbfe-458f-66de-b8c5-ff0000b6b24a,343b0fff-458f-66de-b8c5-ff1000b6b24a,9ba214ff-458f-66de-b8c5-ff1000b6b24a,9ea214ff-458f-66de-b8c5-ff1000b6b24a,67a214ff-458f-66de-b8c5-ff1000b6b24a,4cdcfbfe-458f-66de-b8c5-ff0000b6b24a,cb4102ff-458f-66de-b8c5-ff0b00b6b24a,46dcfbfe-458f-66de-b8c5-ff0000b6b24a",,Fujairah,25.1222308,56.35567,/img/locator/icon-logo-34x34.png,"Al Fujairah Corniche, <br>Al Gurfa Road,<br>Near Al Mibkhar Roundabout<br><p><strong>ATM Services:</strong>&nbsp;</p><ul><li><span style=""font-size: 12px;"">Cash Withdrawal&nbsp;</span></li><li><span style=""font-size: 12px;"">Smart Cash Deposit Machine</span></li><li><span style=""font-size: 12px;"">Cheque Deposit Machine</span></li><li><span style=""font-size: 12px;"">Bill Payment (by Account)</span></li><li><span style=""font-size: 12px;"">Fund Transfer (by Account)</span></li></ul><br>",21,"08:00 AM to 03:30 PM (Monday - Thursday), 07:30 AM to 12:30 PM (Friday)"
Al Quoz Branch,"45dcfbfe-458f-66de-b8c5-ff0000b6b24a,46dcfbfe-458f-66de-b8c5-ff0000b6b24a,4cdcfbfe-458f-66de-b8c5-ff0000b6b24a,4adcfbfe-458f-66de-b8c5-ff0000b6b24a,4edcfbfe-458f-66de-b8c5-ff0000b6b24a,343b0fff-458f-66de-b8c5-ff1000b6b24a,67a214ff-458f-66de-b8c5-ff1000b6b24a,9ea214ff-458f-66de-b8c5-ff1000b6b24a,9ba214ff-458f-66de-b8c5-ff1000b6b24a",,Dubai,25.1303028,55.213074,/img/locator/icon-logo-34x34.png,"Near First Gulf Bank<br>Metro station 733<br><p><span style=""font-size: 12px;""><strong>ATM Services:</strong></span></p><ul><li><span style=""font-size: 12px;"">Cash Withdrawal</span></li><li><span style=""font-size: 12px;"">Smart Cash Deposit</span></li><li><span style=""font-size: 12px;"">Cheque Deposit Machine</span></li><li><span style=""font-size: 12px;"">Bill Payment</span></li><li><span style=""font-size: 12px;"">Fund Transfer (By account)</span></li></ul>",26,"9am to 14:00pm (Mon-Thurs, Sat), 9am to 12:30pm (Fri)"
Dubai Immigration Branch,"45dcfbfe-458f-66de-b8c5-ff0000b6b24a,46dcfbfe-458f-66de-b8c5-ff0000b6b24a,4cdcfbfe-458f-66de-b8c5-ff0000b6b24a,4edcfbfe-458f-66de-b8c5-ff0000b6b24a,343b0fff-458f-66de-b8c5-ff1000b6b24a,67a214ff-458f-66de-b8c5-ff1000b6b24a,9ea214ff-458f-66de-b8c5-ff1000b6b24a,9ba214ff-458f-66de-b8c5-ff1000b6b24a",,Dubai,25.234339,55.291561,/img/locator/icon-logo-34x34.png,"Sheikh Khalifa Bin Zayed Rd.<br>Inside Dubai Immigration Compoud<br>near to Al Jafiliya Metro station<br><p><span style=""font-size: 12px;""><strong>ATM Services:</strong></span></p><ul><li><span style=""font-size: 12px;"">Cash Withdrawal</span></li><li><span style=""font-size: 12px;"">Cash Deposit Machine</span></li><li><span style=""font-size: 12px;"">Bill Payment (By Account)</span></li><li><span style=""font-size: 12px;"">Fund Transfer (By Account)</span></li></ul>",72,"7:30am to 3:30pm (Mon-Thurs) , 7:30am - 12:00pm (Fri) , Closed ( Sat, Sun)"
Jumeirah Branch,"45dcfbfe-458f-66de-b8c5-ff0000b6b24a,46dcfbfe-458f-66de-b8c5-ff0000b6b24a,4cdcfbfe-458f-66de-b8c5-ff0000b6b24a,4adcfbfe-458f-66de-b8c5-ff0000b6b24a,4bdcfbfe-458f-66de-b8c5-ff0000b6b24a,4ddcfbfe-458f-66de-b8c5-ff0000b6b24a,4edcfbfe-458f-66de-b8c5-ff0000b6b24a,343b0fff-458f-66de-b8c5-ff1000b6b24a,67a214ff-458f-66de-b8c5-ff1000b6b24a,9ea214ff-458f-66de-b8c5-ff1000b6b24a,9ba214ff-458f-66de-b8c5-ff1000b6b24a",,Dubai,25.228775,55.26159,/img/locator/icon-logo-34x34.png,"Jumeirah Rd.<br><p><span style=""font-size: 12px;""><strong>ATM Services:</strong></span></p><ul><li><span style=""font-size: 12px;"">Cash Withdrawal</span></li><li>Cash Deposit not available&nbsp;<br></li><li><span style=""font-size: 12px;"">Drive In&nbsp;</span><br></li><li><span style=""font-size: 12px;"">Cheque Deposit Machine</span></li><li><span style=""font-size: 12px;"">Bill Payment</span></li><li><span style=""font-size: 12px;"">Fund Transfer (By account)</span></li></ul>",4,"08:00 AM to 03:30 PM (Monday - Thursday), 07:30 AM to 12:30 PM (Friday)"
Abraj Shopping Center,"4cdcfbfe-458f-66de-b8c5-ff0000b6b24a,9ba214ff-458f-66de-b8c5-ff1000b6b24a,4edcfbfe-458f-66de-b8c5-ff0000b6b24a,67a214ff-458f-66de-b8c5-ff1000b6b24a,46dcfbfe-458f-66de-b8c5-ff0000b6b24a,4bdcfbfe-458f-66de-b8c5-ff0000b6b24a",,Dubai,25.269565,55.30332,/img/locator/icon-logo-34x34.png,"Al Sabkha St. <br><p><span style=""font-size: 12px;""><strong>ATM Services:</strong></span></p><ul><li><span style=""font-size: 12px;"">Cash Withdrawal</span><br></li><li><span style=""font-size: 12px;"">Bill Payment (By account)</span></li><li><span style=""font-size: 12px;"">Fund Transfer (By account)</span></li><li><span style=""font-size: 12px;"">Cash Deposit (Not available)</span><br></li></ul>",0,8am to 3pm (Sat-Thu)
Dubai Chamber,"4adcfbfe-458f-66de-b8c5-ff0000b6b24a,343b0fff-458f-66de-b8c5-ff1000b6b24a,4cdcfbfe-458f-66de-b8c5-ff0000b6b24a,9ba214ff-458f-66de-b8c5-ff1000b6b24a,4edcfbfe-458f-66de-b8c5-ff0000b6b24a,9ea214ff-458f-66de-b8c5-ff1000b6b24a,67a214ff-458f-66de-b8c5-ff1000b6b24a,46dcfbfe-458f-66de-b8c5-ff0000b6b24a",,Dubai,25.260162,55.3153649999999,/img/locator/icon-logo-34x34.png,JAFZA<br>,0,8am to 3pm (Sat-Thu)
Emarat Petrol Station Al Garhoud,"4cdcfbfe-458f-66de-b8c5-ff0000b6b24a,9ba214ff-458f-66de-b8c5-ff1000b6b24a,4edcfbfe-458f-66de-b8c5-ff0000b6b24a,67a214ff-458f-66de-b8c5-ff1000b6b24a,46dcfbfe-458f-66de-b8c5-ff0000b6b24a,4bdcfbfe-458f-66de-b8c5-ff0000b6b24a",,Dubai,25.225293,55.322857,/img/locator/icon-logo-34x34.png,"Al Garhoud Rd.<br><p><span style=""font-size: 12px;""><strong>ATM Services:</strong></span></p><ul><li><span style=""font-size: 12px;"">Cash Withdrawal</span><br></li><li><span style=""font-size: 12px;"">Bill Payment (By account)</span></li><li><span style=""font-size: 12px;"">Fund Transfer (By account)</span></li><li><span style=""font-size: 12px;"">Cash Deposit not available&nbsp;</span></li></ul>",0,8am to 3pm (Sat-Thu)
Emarat Petrol Station Safa Park,"4cdcfbfe-458f-66de-b8c5-ff0000b6b24a,9ba214ff-458f-66de-b8c5-ff1000b6b24a,4edcfbfe-458f-66de-b8c5-ff0000b6b24a,67a214ff-458f-66de-b8c5-ff1000b6b24a,46dcfbfe-458f-66de-b8c5-ff0000b6b24a,4bdcfbfe-458f-66de-b8c5-ff0000b6b24a",,Dubai,25.204063,55.252025,/img/locator/icon-logo-34x34.png,"Safa Park Area, Jumeirah<br><p><span style=""font-size: 12px;""><strong>ATM Services:</strong></span></p><ul><li><span style=""font-size: 12px;"">Cash Withdrawal</span><br></li><li><span style=""font-size: 12px;"">Bill Payment (By account)</span></li><li><span style=""font-size: 12px;"">Fund Transfer (By account)</span></li><li><span style=""font-size: 12px;"">Cash Deposit not available&nbsp;</span></li></ul>",0,8am to 3pm (Sat-Thu)
Jebel Ali Branch,"4cdcfbfe-458f-66de-b8c5-ff0000b6b24a,9ba214ff-458f-66de-b8c5-ff1000b6b24a,4edcfbfe-458f-66de-b8c5-ff0000b6b24a,67a214ff-458f-66de-b8c5-ff1000b6b24a,46dcfbfe-458f-66de-b8c5-ff0000b6b24a,4bdcfbfe-458f-66de-b8c5-ff0000b6b24a",,Dubai,25.00851,55.0854919999999,/img/locator/icon-logo-34x34.png,Jebel Ali<br><br><p><strong>ATM Services:</strong></p><ul><li>Cash Withdrawal</li><li>Smart Cash Deposit</li><li>Cheque Deposit Machine</li><li>Bill Payment</li><li>Fund Transfer (By account)</li><li>E-Wallet Top Up&nbsp;</li></ul>,0,"08:00 AM to 03:30 PM (Monday - Thursday), 07:30 AM to 12:30 PM (Friday)"
Union Cooperative Jumeriah,"67a214ff-458f-66de-b8c5-ff1000b6b24a,9ba214ff-458f-66de-b8c5-ff1000b6b24a,4edcfbfe-458f-66de-b8c5-ff0000b6b24a,46dcfbfe-458f-66de-b8c5-ff0000b6b24a",,Dubai,25.18745,55.239225,/img/locator/icon-logo-34x34.png,"Jumeriah, Dubai<br><p><span style=""font-size: 12px;""><strong>ATM Services:</strong></span></p><ul><li><span style=""font-size: 12px;"">Cash Withdrawal</span><br></li><li><span style=""font-size: 12px;"">Bill Payment (By account)</span></li><li><span style=""font-size: 12px;"">Fund Transfer (By account)</span></li><li><span style=""font-size: 12px;"">Cash Deposit not available&nbsp;</span></li></ul>",0,8am to 3pm (Sat-Thu)
International Modern Hospital,"4cdcfbfe-458f-66de-b8c5-ff0000b6b24a,9ba214ff-458f-66de-b8c5-ff1000b6b24a,4edcfbfe-458f-66de-b8c5-ff0000b6b24a,67a214ff-458f-66de-b8c5-ff1000b6b24a,46dcfbfe-458f-66de-b8c5-ff0000b6b24a,4bdcfbfe-458f-66de-b8c5-ff0000b6b24a",,Dubai,25.248626,55.283241,/img/locator/icon-logo-34x34.png,"Port Rashid Rd. <br>Al Mankhool Area<br><p><span style=""font-size: 12px;""><strong>ATM Services:</strong></span></p><ul><li><span style=""font-size: 12px;"">Cash Withdrawal</span><br></li><li><span style=""font-size: 12px;"">Bill Payment (By account)</span></li><li><span style=""font-size: 12px;"">Fund Transfer (By account)</span></li><li><span style=""font-size: 12px;"">Cash Deposit not available&nbsp;</span></li></ul>",0,8am to 3pm (Sat-Thu)
Al Mowakeb School Garhoud,"67a214ff-458f-66de-b8c5-ff1000b6b24a,9ba214ff-458f-66de-b8c5-ff1000b6b24a,4edcfbfe-458f-66de-b8c5-ff0000b6b24a,46dcfbfe-458f-66de-b8c5-ff0000b6b24a,4bdcfbfe-458f-66de-b8c5-ff0000b6b24a",,Dubai,25.235841,55.358018,/img/locator/icon-logo-34x34.png,"Garhoud<br><p><span style=""font-size: 12px;""><strong>ATM Services:</strong></span></p><ul><li><span style=""font-size: 12px;"">Cash Withdrawal</span><br></li><li><span style=""font-size: 12px;"">Bill Payment (By account)</span></li><li><span style=""font-size: 12px;"">Fund Transfer (By account)</span></li><li><span style=""font-size: 12px;"">Cash Deposit not available&nbsp;</span></li></ul>",0,8am to 3pm (Sat-Thu)
Al Mowakeb School Al Barsha,"9ba214ff-458f-66de-b8c5-ff1000b6b24a,67a214ff-458f-66de-b8c5-ff1000b6b24a,4edcfbfe-458f-66de-b8c5-ff0000b6b24a,46dcfbfe-458f-66de-b8c5-ff0000b6b24a,4bdcfbfe-458f-66de-b8c5-ff0000b6b24a",,Dubai,25.104166,55.201836,/img/locator/icon-logo-34x34.png,"Al Barsha<br><p><span style=""font-size: 12px;""><strong>ATM Services:</strong></span></p><ul><li><span style=""font-size: 12px;"">Cash Withdrawal</span><br></li><li><span style=""font-size: 12px;"">Bill Payment (By account)</span></li><li><span style=""font-size: 12px;"">Fund Transfer (By account)</span></li><li><span style=""font-size: 12px;"">Cash Deposit not available&nbsp;</span></li></ul>",0,8am to 3pm (Sat-Thu)
Dragon Mart,"4cdcfbfe-458f-66de-b8c5-ff0000b6b24a,9ba214ff-458f-66de-b8c5-ff1000b6b24a,4edcfbfe-458f-66de-b8c5-ff0000b6b24a,67a214ff-458f-66de-b8c5-ff1000b6b24a,46dcfbfe-458f-66de-b8c5-ff0000b6b24a",,Dubai,25.17399,55.417151,/img/locator/icon-logo-34x34.png,"International City<br><p><span style=""font-size: 12px;""><strong>ATM Services:</strong></span></p><ul><li><span style=""font-size: 12px;"">Cash Withdrawal</span><br></li><li><span style=""font-size: 12px;"">Bill Payment (By account)</span></li><li><span style=""font-size: 12px;"">Fund Transfer (By account)</span></li><li><span style=""font-size: 12px;"">Cash Deposit not available&nbsp;</span></li></ul>",0,8am to 3pm (Sat-Thu)
American Hospital,"4cdcfbfe-458f-66de-b8c5-ff0000b6b24a,9ba214ff-458f-66de-b8c5-ff1000b6b24a,4edcfbfe-458f-66de-b8c5-ff0000b6b24a,67a214ff-458f-66de-b8c5-ff1000b6b24a,46dcfbfe-458f-66de-b8c5-ff0000b6b24a,4bdcfbfe-458f-66de-b8c5-ff0000b6b24a",,Dubai,25.234836,55.313083,/img/locator/icon-logo-34x34.png,"Oud Metha Rd.<br><p><span style=""font-size: 12px;""><strong>ATM Services:</strong></span></p><ul><li><span style=""font-size: 12px;"">Cash Withdrawal</span><br></li><li><span style=""font-size: 12px;"">Bill Payment (By account)</span></li><li><span style=""font-size: 12px;"">Fund Transfer (By account)</span></li><li><span style=""font-size: 12px;"">Cash Deposit not available&nbsp;</span></li></ul>",0,8am to 3pm (Sat-Thu)
Wafi City,"4edcfbfe-458f-66de-b8c5-ff0000b6b24a,46dcfbfe-458f-66de-b8c5-ff0000b6b24a",,Dubai,25.228785,55.319343,/img/locator/icon-logo-34x34.png,<br>,0,8am to 3pm (Sat-Thu)
"Al Rostomani Exchange, Sheikh Zayed Road","4adcfbfe-458f-66de-b8c5-ff0000b6b24a,4edcfbfe-458f-66de-b8c5-ff0000b6b24a,4bdcfbfe-458f-66de-b8c5-ff0000b6b24a,46dcfbfe-458f-66de-b8c5-ff0000b6b24a",,Dubai,25.214733,55.27679,/img/locator/icon-logo-34x34.png,<br>,11,8am to 3pm (Sat-Thu)
American University Dubai,"4cdcfbfe-458f-66de-b8c5-ff0000b6b24a,9ba214ff-458f-66de-b8c5-ff1000b6b24a,4edcfbfe-458f-66de-b8c5-ff0000b6b24a,67a214ff-458f-66de-b8c5-ff1000b6b24a,46dcfbfe-458f-66de-b8c5-ff0000b6b24a,4bdcfbfe-458f-66de-b8c5-ff0000b6b24a",,Dubai,25.090564,55.156994,/img/locator/icon-logo-34x34.png,"Sheikh Zayed Rd.<br><p><span style=""font-size: 12px;""><strong>ATM Services:</strong></span></p><ul><li><span style=""font-size: 12px;"">Cash Withdrawal</span><br></li><li><span style=""font-size: 12px;"">Bill Payment (By account)</span></li><li><span style=""font-size: 12px;"">Fund Transfer (By account)</span></li><li><span style=""font-size: 12px;"">Cash Deposit not available&nbsp;</span></li></ul>",0,8am to 3pm (Sat-Thu)
Al Fattan Centre,"4cdcfbfe-458f-66de-b8c5-ff0000b6b24a,9ba214ff-458f-66de-b8c5-ff1000b6b24a,4edcfbfe-458f-66de-b8c5-ff0000b6b24a,67a214ff-458f-66de-b8c5-ff1000b6b24a,46dcfbfe-458f-66de-b8c5-ff0000b6b24a,4bdcfbfe-458f-66de-b8c5-ff0000b6b24a",,Dubai,25.251227,55.344679,/img/locator/icon-logo-34x34.png,"Dubai Airport Rd.<br><p><span style=""font-size: 12px;""><strong>ATM Services:</strong></span></p><ul><li><span style=""font-size: 12px;"">Cash Withdrawal</span><br></li><li><span style=""font-size: 12px;"">Bill Payment (By account)</span></li><li><span style=""font-size: 12px;"">Fund Transfer (By account)</span></li><li><span style=""font-size: 12px;"">Cash Deposit not available&nbsp;</span></li></ul>",0,8am to 3pm (Sat-Thu)
RTA Head Office,"4cdcfbfe-458f-66de-b8c5-ff0000b6b24a,9ba214ff-458f-66de-b8c5-ff1000b6b24a,4edcfbfe-458f-66de-b8c5-ff0000b6b24a,67a214ff-458f-66de-b8c5-ff1000b6b24a,46dcfbfe-458f-66de-b8c5-ff0000b6b24a",,Dubai,25.233584,55.3562138,/img/locator/icon-logo-34x34.png,"60 5 St, Dubai<br>",0,8am to 3pm (Sat-Thu)
Emarat Petrol Station Arabian,"4cdcfbfe-458f-66de-b8c5-ff0000b6b24a,9ba214ff-458f-66de-b8c5-ff1000b6b24a,4edcfbfe-458f-66de-b8c5-ff0000b6b24a,67a214ff-458f-66de-b8c5-ff1000b6b24a,46dcfbfe-458f-66de-b8c5-ff0000b6b24a,4bdcfbfe-458f-66de-b8c5-ff0000b6b24a",,Dubai,25.07543,55.307944,/img/locator/icon-logo-34x34.png,"Arabian Ranches<br><p><span style=""font-size: 12px;""><strong>ATM Services:</strong></span></p><ul><li><span style=""font-size: 12px;"">Cash Withdrawal</span><br></li><li><span style=""font-size: 12px;"">Bill Payment (By account)</span></li><li><span style=""font-size: 12px;"">Fund Transfer (By account)</span></li><li><span style=""font-size: 12px;"">Cash Deposit not available&nbsp;</span></li></ul>",0,8am to 3pm (Sat-Thu)
Emarat petrol station - Al Quoz,"4cdcfbfe-458f-66de-b8c5-ff0000b6b24a,9ba214ff-458f-66de-b8c5-ff1000b6b24a,4edcfbfe-458f-66de-b8c5-ff0000b6b24a,67a214ff-458f-66de-b8c5-ff1000b6b24a,46dcfbfe-458f-66de-b8c5-ff0000b6b24a,4bdcfbfe-458f-66de-b8c5-ff0000b6b24a",,Dubai,25.175976,55.2545190000001,/img/locator/icon-logo-34x34.png,"<p><span style=""font-size: 12px;""><strong>ATM Services:</strong></span></p><ul><li><span style=""font-size: 12px;"">Cash Withdrawal</span><br></li><li><span style=""font-size: 12px;"">Bill Payment (By account)</span></li><li><span style=""font-size: 12px;"">Fund Transfer (By account)</span></li><li><span style=""font-size: 12px;"">Cash Deposit not available&nbsp;</span></li></ul>",0,8am to 3pm (Sat-Thu)
Canadian Hospital,"4edcfbfe-458f-66de-b8c5-ff0000b6b24a,4bdcfbfe-458f-66de-b8c5-ff0000b6b24a",,Dubai,25.27745,55.34829,/img/locator/icon-logo-34x34.png,Deira,0,8am to 3pm (Sat-Thu)
Amal Business Center,"4cdcfbfe-458f-66de-b8c5-ff0000b6b24a,9ba214ff-458f-66de-b8c5-ff1000b6b24a,4edcfbfe-458f-66de-b8c5-ff0000b6b24a,67a214ff-458f-66de-b8c5-ff1000b6b24a,46dcfbfe-458f-66de-b8c5-ff0000b6b24a",,Dubai,25.278088,55.304658,/img/locator/icon-logo-34x34.png,Hayat Regency<br>,0,8am to 3pm (Sat-Thu)
Souq Al Wasl Branch,"4edcfbfe-458f-66de-b8c5-ff0000b6b24a,46dcfbfe-458f-66de-b8c5-ff0000b6b24a,4bdcfbfe-458f-66de-b8c5-ff0000b6b24a",,Dubai,25.214716,55.258586,/img/locator/icon-logo-34x34.png,"Al Ameen, <br>Al Wasl Street",15,8am to 3pm (Sat-Thu)
Karama Centre,"4cdcfbfe-458f-66de-b8c5-ff0000b6b24a,9ba214ff-458f-66de-b8c5-ff1000b6b24a,4edcfbfe-458f-66de-b8c5-ff0000b6b24a,67a214ff-458f-66de-b8c5-ff1000b6b24a,46dcfbfe-458f-66de-b8c5-ff0000b6b24a",,Dubai,25.245351,55.303084,/img/locator/icon-logo-34x34.png,"Al Karama<br><p><span style=""font-size: 12px;""><strong>ATM Services:</strong></span></p><ul><li><span style=""font-size: 12px;"">Cash Withdrawal</span><br></li><li><span style=""font-size: 12px;"">Bill Payment (By account)</span></li><li><span style=""font-size: 12px;"">Fund Transfer (By account)</span></li><li><span style=""font-size: 12px;"">Cash Deposit not available&nbsp;</span></li></ul>",0,8am to 3pm (Sat-Thu)
Al Ansari Exchange,"4cdcfbfe-458f-66de-b8c5-ff0000b6b24a,9ba214ff-458f-66de-b8c5-ff1000b6b24a,4edcfbfe-458f-66de-b8c5-ff0000b6b24a,67a214ff-458f-66de-b8c5-ff1000b6b24a,46dcfbfe-458f-66de-b8c5-ff0000b6b24a,4bdcfbfe-458f-66de-b8c5-ff0000b6b24a",,Dubai,25.261614,55.424448,/img/locator/icon-logo-34x34.png,"Sonapur<br><p><span style=""font-size: 12px;""><strong>ATM Services:</strong></span></p><ul><li><span style=""font-size: 12px;"">Cash Withdrawal</span><br></li><li><span style=""font-size: 12px;"">Bill Payment (By account)</span></li><li><span style=""font-size: 12px;"">Fund Transfer (By account)</span></li><li><span style=""font-size: 12px;"">Cash Deposit not available&nbsp;</span></li></ul>",0,8am to 3pm (Sat-Thu)
Union Cooperative Al Aweer,"67a214ff-458f-66de-b8c5-ff1000b6b24a,9ba214ff-458f-66de-b8c5-ff1000b6b24a,4cdcfbfe-458f-66de-b8c5-ff0000b6b24a,4edcfbfe-458f-66de-b8c5-ff0000b6b24a,46dcfbfe-458f-66de-b8c5-ff0000b6b24a",,Dubai,25.175459,55.386808,/img/locator/icon-logo-34x34.png,"Al Aweer<br><p><span style=""font-size: 12px;""><strong>ATM Services:</strong></span></p><ul><li><span style=""font-size: 12px;"">Cash Withdrawal</span><br></li><li><span style=""font-size: 12px;"">Bill Payment (By account)</span></li><li><span style=""font-size: 12px;"">Fund Transfer (By account)</span></li><li><span style=""font-size: 12px;"">Cash Deposit not available&nbsp;</span></li></ul>",0,8am to 3pm (Sat-Thu)
Hatta Border,"4cdcfbfe-458f-66de-b8c5-ff0000b6b24a,9ba214ff-458f-66de-b8c5-ff1000b6b24a,4edcfbfe-458f-66de-b8c5-ff0000b6b24a,67a214ff-458f-66de-b8c5-ff1000b6b24a,46dcfbfe-458f-66de-b8c5-ff0000b6b24a,4bdcfbfe-458f-66de-b8c5-ff0000b6b24a",,Dubai,24.817939,56.1662719999999,/img/locator/icon-logo-34x34.png,"Near DNRD<br><p><span style=""font-size: 12px;""><strong>ATM Services:</strong></span></p><ul><li><span style=""font-size: 12px;"">Cash Withdrawal</span><br></li><li><span style=""font-size: 12px;"">Bill Payment (By account)</span></li><li><span style=""font-size: 12px;"">Fund Transfer (By account)</span></li><li><span style=""font-size: 12px;"">Cash Deposit not available&nbsp;</span></li></ul>",0,8am to 3pm (Sat-Thu)
Al Ramla Hypermarket,4edcfbfe-458f-66de-b8c5-ff0000b6b24a,,Dubai,24.971037,55.1718100000001,/img/locator/icon-logo-34x34.png,<br>,0,8am to 3pm (Sat-Thu)
UAE Exchange Center,"9ba214ff-458f-66de-b8c5-ff1000b6b24a,4edcfbfe-458f-66de-b8c5-ff0000b6b24a,67a214ff-458f-66de-b8c5-ff1000b6b24a,46dcfbfe-458f-66de-b8c5-ff0000b6b24a,4bdcfbfe-458f-66de-b8c5-ff0000b6b24a",,Abu Dhabi,24.487402,54.360368,/img/locator/icon-logo-34x34.png,"Sheikh Hamdan Street, <br>Abu Dhabi <br><p><span style=""font-size: 12.5px;""><strong>ATM Services:</strong>&nbsp;</span></p><ul><li><span style=""font-size: 12px;"">Cash withdrawal</span></li><li><span style=""font-size: 12px;"">Bill payment (By account)</span></li><li><span style=""font-size: 12px;"">Fund transfer (By account)</span><br></li></ul>",0,8am to 3pm (Sat-Thu)
UAE Exchange Center,"9ba214ff-458f-66de-b8c5-ff1000b6b24a,4edcfbfe-458f-66de-b8c5-ff0000b6b24a,67a214ff-458f-66de-b8c5-ff1000b6b24a,46dcfbfe-458f-66de-b8c5-ff0000b6b24a,4bdcfbfe-458f-66de-b8c5-ff0000b6b24a",,Abu Dhabi,24.324144,54.5310039999999,/img/locator/icon-logo-34x34.png,"Shabia Khalifa,<br>Mussafah, Abu Dhabi <br><p><span style=""font-size: 12.5px;""><strong>ATM Services:</strong>&nbsp;</span></p><ul><li><span style=""font-size: 12px;"">Cash withdrawal</span></li><li><span style=""font-size: 12px;"">Bill payment (By account)</span></li><li><span style=""font-size: 12px;"">Fund transfer (By account)</span><br></li></ul>",0,8am to 3pm (Sat-Thu)
Al Rostamani Exchange,"67a214ff-458f-66de-b8c5-ff1000b6b24a,9ba214ff-458f-66de-b8c5-ff1000b6b24a,4edcfbfe-458f-66de-b8c5-ff0000b6b24a,46dcfbfe-458f-66de-b8c5-ff0000b6b24a,4bdcfbfe-458f-66de-b8c5-ff0000b6b24a",,Abu Dhabi,24.492235,54.3718309999999,/img/locator/icon-logo-34x34.png,"Electa Street, Abu Dhabi <br><p><span style=""font-size: 12.5px;""><strong>ATM Services:</strong>&nbsp;</span></p><ul><li><span style=""font-size: 12px;"">Cash withdrawal</span></li><li><span style=""font-size: 12px;"">Bill payment (By account)</span></li><li><span style=""font-size: 12px;"">Fund transfer (By account)</span></li><li><span style=""font-size: 12px;"">Cash Deposit not available&nbsp;</span><br></li></ul>",0,8am to 3pm (Sat-Thu)
Top Foam Centre,"9ba214ff-458f-66de-b8c5-ff1000b6b24a,67a214ff-458f-66de-b8c5-ff1000b6b24a,4ddcfbfe-458f-66de-b8c5-ff0000b6b24a,4edcfbfe-458f-66de-b8c5-ff0000b6b24a,46dcfbfe-458f-66de-b8c5-ff0000b6b24a,4bdcfbfe-458f-66de-b8c5-ff0000b6b24a",,Al Ain,24.184298,55.628645,/img/locator/icon-logo-34x34.png,"Al Ain-Abu Dhabi Street<br>Al Maqam - Drive Thru<br><p><span style=""font-size: 12.5px;""><strong>ATM Services:</strong>&nbsp;</span></p><ul><li><span style=""font-size: 12px;"">Cash withdrawal</span></li><li><span style=""font-size: 12px;"">Bill payment (By account)</span></li><li><span style=""font-size: 12px;"">Fund transfer (By account)</span></li><li><span style=""font-size: 12px;"">Cash Deposit not available&nbsp;</span><br></li></ul>",0,8am to 3pm (Sat-Thu)
Al Noor Bakery,"9ba214ff-458f-66de-b8c5-ff1000b6b24a,67a214ff-458f-66de-b8c5-ff1000b6b24a,4edcfbfe-458f-66de-b8c5-ff0000b6b24a,46dcfbfe-458f-66de-b8c5-ff0000b6b24a,4bdcfbfe-458f-66de-b8c5-ff0000b6b24a",,Al Ain,24.163905,55.804566,/img/locator/icon-logo-34x34.png,"Al Bawardy, Al Ain <br>Al Ain <br><p><span style=""font-size: 12.5px;""><strong>ATM Services:</strong>&nbsp;</span></p><ul><li><span style=""font-size: 12px;"">Cash withdrawal</span></li><li><span style=""font-size: 12px;"">Bill payment (By account)</span></li><li><span style=""font-size: 12px;"">Fund transfer (By account)</span></li><li><span style=""font-size: 12px;"">Cash Deposit not available&nbsp;</span><br></li></ul>",0,8am to 3pm (Sat-Thu)
Hafeet Service station,"67a214ff-458f-66de-b8c5-ff1000b6b24a,9ba214ff-458f-66de-b8c5-ff1000b6b24a,4edcfbfe-458f-66de-b8c5-ff0000b6b24a,46dcfbfe-458f-66de-b8c5-ff0000b6b24a,4bdcfbfe-458f-66de-b8c5-ff0000b6b24a",,Al Ain,24.183515,55.753609,/img/locator/icon-logo-34x34.png,"Sanaya area, Al Ain<br><p><span style=""font-size: 12.5px;""><strong>ATM Services:</strong>&nbsp;</span></p><ul><li><span style=""font-size: 12px;"">Cash withdrawal</span></li><li><span style=""font-size: 12px;"">Bill payment (By account)</span></li><li><span style=""font-size: 12px;"">Fund transfer (By account)</span></li><li><span style=""font-size: 12px;"">Cash Deposit not available&nbsp;</span><br></li></ul>",0,8am to 3pm (Sat-Thu)
DNRD Office Al Ain,"67a214ff-458f-66de-b8c5-ff1000b6b24a,9ba214ff-458f-66de-b8c5-ff1000b6b24a,4cdcfbfe-458f-66de-b8c5-ff0000b6b24a,4edcfbfe-458f-66de-b8c5-ff0000b6b24a,46dcfbfe-458f-66de-b8c5-ff0000b6b24a,4bdcfbfe-458f-66de-b8c5-ff0000b6b24a",,Al Ain,24.211293,55.9534120000001,/img/locator/icon-logo-34x34.png,"Al Ain - Oman Border<br><p><span style=""font-size: 12.5px;""><strong>ATM Services:</strong>&nbsp;</span></p><ul><li><span style=""font-size: 12px;"">Cash withdrawal</span></li><li><span style=""font-size: 12px;"">Bill payment (By account)</span></li><li><span style=""font-size: 12px;"">Fund transfer (By account)</span></li><li><span style=""font-size: 12px;"">Cash Deposit not available&nbsp;</span><br></li></ul>",0,8am to 3pm (Sat-Thu)
Dubai Mall,"67a214ff-458f-66de-b8c5-ff1000b6b24a,9ba214ff-458f-66de-b8c5-ff1000b6b24a,4cdcfbfe-458f-66de-b8c5-ff0000b6b24a,4edcfbfe-458f-66de-b8c5-ff0000b6b24a,46dcfbfe-458f-66de-b8c5-ff0000b6b24a",,Dubai,25.198068,55.279319,/img/locator/icon-logo-34x34.png,Inside Lobby<br>,0,8am to 3pm (Sat-Thu)
"Madina Mall, Dubai","9ba214ff-458f-66de-b8c5-ff1000b6b24a,67a214ff-458f-66de-b8c5-ff1000b6b24a,4cdcfbfe-458f-66de-b8c5-ff0000b6b24a,4edcfbfe-458f-66de-b8c5-ff0000b6b24a,46dcfbfe-458f-66de-b8c5-ff0000b6b24a",,Dubai,25.281605,55.3978509999999,/img/locator/icon-logo-34x34.png,"Inside lobby<br><p><strong>ATM Services:</strong>&nbsp;</p><ul><li><span style=""font-size: 12px;"">Cash Withdrawal&nbsp;</span><br></li><li><span style=""font-size: 12px;"">Bill Payment (by Account)</span></li><li><span style=""font-size: 12px;"">Fund Transfer (by Account)</span></li><li><span style=""font-size: 12px;"">Cash Deposit not available&nbsp;</span></li></ul><br>",0,8am to 3pm (Sat-Thu)
Ajman Immigration Office,"4edcfbfe-458f-66de-b8c5-ff0000b6b24a,46dcfbfe-458f-66de-b8c5-ff0000b6b24a",,Ajman,25.407173,55.507114,/img/locator/icon-logo-34x34.png,"Ajman <br><span style=""font-size: 12.5px;""><strong>ATM Services:</strong>&nbsp;</span><p>&nbsp;</p><ul><li><span style=""font-size: 12px;"">Cash withdrawal</span></li><li><span style=""font-size: 12px;"">Bill payment (By account)</span></li><li><span style=""font-size: 12px;"">Fund transfer (By account)</span><br></li></ul>",0,8am to 3pm (Sat-Thu)
Ajman City Centre,"9ba214ff-458f-66de-b8c5-ff1000b6b24a,67a214ff-458f-66de-b8c5-ff1000b6b24a,4cdcfbfe-458f-66de-b8c5-ff0000b6b24a,4edcfbfe-458f-66de-b8c5-ff0000b6b24a,46dcfbfe-458f-66de-b8c5-ff0000b6b24a",,Ajman,25.40137,55.479423,/img/locator/icon-logo-34x34.png,"Al Ettehad St,Al Jurf <br><p><span style=""font-size: 12.5px;""><strong>ATM Services:</strong>&nbsp;</span></p><ul><li><span style=""font-size: 12px;"">Cash withdrawal</span></li><li><span style=""font-size: 12px;"">Bill payment (By account)</span></li><li><span style=""font-size: 12px;"">Fund transfer (By account)</span></li><li><span style=""font-size: 12px;"">Cash Deposit not available&nbsp;</span><br></li></ul>",0,8am to 3pm (Sat-Thu)
FEWA Head Office,"9ba214ff-458f-66de-b8c5-ff1000b6b24a,4edcfbfe-458f-66de-b8c5-ff0000b6b24a,67a214ff-458f-66de-b8c5-ff1000b6b24a,46dcfbfe-458f-66de-b8c5-ff0000b6b24a,4bdcfbfe-458f-66de-b8c5-ff0000b6b24a",,Dubai,25.2876051,55.4009628,/img/locator/icon-logo-34x34.png,"Muhaisnah, Al Mezan Building<br><p><span style=""font-size: 12px;""><strong>ATM Services:</strong></span></p><ul><li><span style=""font-size: 12px;"">Cash Withdrawal</span></li><li><span style=""font-size: 12px;"">Cash Deposit</span></li><li><span style=""font-size: 12px;"">Bill Payment (By account and Cash)</span></li><li><span style=""font-size: 12px;"">Fund Transfer (By account)</span></li></ul>",0,8am to 3pm (Sat-Thu)
Emarat Petrol Station - Al Dorra,"4edcfbfe-458f-66de-b8c5-ff0000b6b24a,46dcfbfe-458f-66de-b8c5-ff0000b6b24a,4bdcfbfe-458f-66de-b8c5-ff0000b6b24a",,Sharjah,25.303461,55.370509,/img/locator/icon-logo-34x34.png,Al Dorra,0,8am to 3pm (Sat-Thu)
Adnoc Petrol Station ,"67a214ff-458f-66de-b8c5-ff1000b6b24a,9ba214ff-458f-66de-b8c5-ff1000b6b24a,4cdcfbfe-458f-66de-b8c5-ff0000b6b24a,4edcfbfe-458f-66de-b8c5-ff0000b6b24a,46dcfbfe-458f-66de-b8c5-ff0000b6b24a,4bdcfbfe-458f-66de-b8c5-ff0000b6b24a",,Sharjah,25.303461,55.370509,/img/locator/icon-logo-34x34.png,"Dubai-Sharjah Road<br><p><span style=""font-size: 12.5px;""><strong>ATM Services:</strong>&nbsp;</span></p><ul><li><span style=""font-size: 12px;"">Cash withdrawal</span></li><li><span style=""font-size: 12px;"">Bill payment (By account)</span></li><li><span style=""font-size: 12px;"">Fund transfer (By account)</span></li><li><span style=""font-size: 12px;"">Cash Deposit not available&nbsp;</span><br></li></ul>",0,8am to 3pm (Sat-Thu)
Adnoc Petrol Station,"9ba214ff-458f-66de-b8c5-ff1000b6b24a,67a214ff-458f-66de-b8c5-ff1000b6b24a,4cdcfbfe-458f-66de-b8c5-ff0000b6b24a,4edcfbfe-458f-66de-b8c5-ff0000b6b24a,46dcfbfe-458f-66de-b8c5-ff0000b6b24a,4bdcfbfe-458f-66de-b8c5-ff0000b6b24a",,Sharjah,25.381816,55.402696,/img/locator/icon-logo-34x34.png,"Kaser Al Amwag <br><span style=""color: rgb(255, 0, 0);""><strong>Out of Service</strong></span><br><p><span style=""font-size: 12.5px;""><strong>ATM Services:</strong>&nbsp;</span></p><ul><li><span style=""font-size: 12px;"">Cash withdrawal</span></li><li><span style=""font-size: 12px;"">Bill payment (By account)</span></li><li><span style=""font-size: 12px;"">Fund transfer (By account)</span></li><li><span style=""font-size: 12px;"">Cash Deposit not available&nbsp;</span><br></li></ul>",0,8am to 3pm (Sat-Thu)
Free Zone,"9ba214ff-458f-66de-b8c5-ff1000b6b24a,67a214ff-458f-66de-b8c5-ff1000b6b24a,4cdcfbfe-458f-66de-b8c5-ff0000b6b24a,4edcfbfe-458f-66de-b8c5-ff0000b6b24a,46dcfbfe-458f-66de-b8c5-ff0000b6b24a",,Ras Al Khaimah,25.801224,55.968518,/img/locator/icon-logo-34x34.png,"Ras Al Khaimah <br> <br><p><span style=""font-size: 12.5px;""><strong>ATM Services:</strong>&nbsp;</span></p><ul><li><span style=""font-size: 12px;"">Cash withdrawal</span></li><li><span style=""font-size: 12px;"">Bill payment (By account)</span></li><li><span style=""font-size: 12px;"">Fund transfer (By account)</span></li><li><span style=""font-size: 12px;"">Cash Deposit not available&nbsp;</span><br></li></ul>",0,8am to 3pm (Sat-Thu)
Emarat Petrol Station - Al Kharran,"9ba214ff-458f-66de-b8c5-ff1000b6b24a,4cdcfbfe-458f-66de-b8c5-ff0000b6b24a,67a214ff-458f-66de-b8c5-ff1000b6b24a,46dcfbfe-458f-66de-b8c5-ff0000b6b24a,4edcfbfe-458f-66de-b8c5-ff0000b6b24a,4bdcfbfe-458f-66de-b8c5-ff0000b6b24a",,Ras Al Khaimah,25.710037,55.9695340000001,/img/locator/icon-logo-34x34.png,Al Kharran,0,8am to 3pm (Sat-Thu)
Al Rostamani International Exchange,"67a214ff-458f-66de-b8c5-ff1000b6b24a,9ba214ff-458f-66de-b8c5-ff1000b6b24a,4edcfbfe-458f-66de-b8c5-ff0000b6b24a,46dcfbfe-458f-66de-b8c5-ff0000b6b24a,4bdcfbfe-458f-66de-b8c5-ff0000b6b24a",,Fujairah,25.125937,56.345208,/img/locator/icon-logo-34x34.png,"Sheikh Zayed Bin Khalid Rd.<br> <br><p><span style=""font-size: 12.5px;""><strong>ATM Services:</strong>&nbsp;</span></p><ul><li><span style=""font-size: 12px;"">Cash withdrawal</span></li><li><span style=""font-size: 12px;"">Bill payment (By account)</span></li><li><span style=""font-size: 12px;"">Fund transfer (By account)</span></li><li><span style=""font-size: 12px;"">Cash deposit (Not available)</span><br></li></ul>",0,8am to 3pm (Sat-Thu)
Knowledge Village,"9ba214ff-458f-66de-b8c5-ff1000b6b24a,67a214ff-458f-66de-b8c5-ff1000b6b24a,4cdcfbfe-458f-66de-b8c5-ff0000b6b24a,4edcfbfe-458f-66de-b8c5-ff0000b6b24a,46dcfbfe-458f-66de-b8c5-ff0000b6b24a",,Dubai,25.101587,55.1609530000001,/img/locator/icon-logo-34x34.png,Block 8,0,8am to 3pm (Sat-Thu)
Dubai Civil Defense,"9ba214ff-458f-66de-b8c5-ff1000b6b24a,67a214ff-458f-66de-b8c5-ff1000b6b24a,4cdcfbfe-458f-66de-b8c5-ff0000b6b24a,4edcfbfe-458f-66de-b8c5-ff0000b6b24a,46dcfbfe-458f-66de-b8c5-ff0000b6b24a",,Dubai,25.262589,55.389075,/img/locator/icon-logo-34x34.png,"Qusais<br><p><span style=""font-size: 12px;""><strong>ATM Services:</strong></span></p><ul><li><span style=""font-size: 12px;"">Cash Withdrawal</span><br></li><li><span style=""font-size: 12px;"">Bill Payment (By account)</span></li><li><span style=""font-size: 12px;"">Fund Transfer (By account)</span></li><li><span style=""font-size: 12px;"">Cash Deposit not available&nbsp;</span></li></ul>",0,8am to 3pm (Sat-Thu)
Hadi Exchange,"9ba214ff-458f-66de-b8c5-ff1000b6b24a,67a214ff-458f-66de-b8c5-ff1000b6b24a,4cdcfbfe-458f-66de-b8c5-ff0000b6b24a,4edcfbfe-458f-66de-b8c5-ff0000b6b24a,46dcfbfe-458f-66de-b8c5-ff0000b6b24a,4bdcfbfe-458f-66de-b8c5-ff0000b6b24a",,Sharjah,25.293653,55.441153,/img/locator/icon-logo-34x34.png,"Sharjah<br><p><span style=""font-size: 12.5px;""><strong>ATM Services:</strong>&nbsp;</span></p><ul><li><span style=""font-size: 12px;"">Cash withdrawal</span></li><li><span style=""font-size: 12px;"">Bill payment (By account)</span></li><li><span style=""font-size: 12px;"">Fund transfer (By account)</span></li><li><span style=""font-size: 12px;"">Cash Deposit not available&nbsp;</span><br></li></ul>",0,8am to 3pm (Sat-Thu)
Sharjah Branch,"49dcfbfe-458f-66de-b8c5-ff0000b6b24a,4cdcfbfe-458f-66de-b8c5-ff0000b6b24a,9ba214ff-458f-66de-b8c5-ff1000b6b24a,4ddcfbfe-458f-66de-b8c5-ff0000b6b24a,343b0fff-458f-66de-b8c5-ff1000b6b24a,4edcfbfe-458f-66de-b8c5-ff0000b6b24a,4adcfbfe-458f-66de-b8c5-ff0000b6b24a,cb4102ff-458f-66de-b8c5-ff0b00b6b24a,9ea214ff-458f-66de-b8c5-ff1000b6b24a,67a214ff-458f-66de-b8c5-ff1000b6b24a,47dcfbfe-458f-66de-b8c5-ff0000b6b24a,4bdcfbfe-458f-66de-b8c5-ff0000b6b24a",,Sharjah,25.347197,55.390491,/img/locator/icon-logo-34x34.png,"King Abdul Aziz Street (Immigration Road),<br>Al Qasimia Area<br><p><span style=""font-size: 12.5px;""><strong>ATM Services:</strong>&nbsp;</span></p><ul><li><span style=""font-size: 12px;"">Cash Withdrawal&nbsp;</span></li><li><span style=""font-size: 12px;"">Smart Cash Deposit</span><br></li><li><span style=""font-size: 12px;"">Cheque Deposit Machine</span></li><li><span style=""font-size: 12px;"">Bill Payment (by Account)</span></li><li><span style=""font-size: 12px;"">Fund Transfer (by Account)</span></li></ul><br><br>",6,"08:00 AM to 03:30 PM (Monday - Thursday), 07:30 AM to 12:30 PM (Friday)"
Adnoc Petrol Station,"9ba214ff-458f-66de-b8c5-ff1000b6b24a,67a214ff-458f-66de-b8c5-ff1000b6b24a,4cdcfbfe-458f-66de-b8c5-ff0000b6b24a,4edcfbfe-458f-66de-b8c5-ff0000b6b24a,46dcfbfe-458f-66de-b8c5-ff0000b6b24a",Al Kharran,Ras Al Khaimah,25.710037,55.9695340000001,/img/locator/icon-logo-34x34.png,"Al Kharan, Ras Al Khaimah <br><p><span style=""font-size: 12.5px;""><strong>ATM Services:</strong>&nbsp;</span></p><ul><li><span style=""font-size: 12px;"">Cash withdrawal</span></li><li><span style=""font-size: 12px;"">Bill payment (By account)</span></li><li><span style=""font-size: 12px;"">Fund transfer (By account)</span></li><li><span style=""font-size: 12px;"">Cash deposit (Not available)</span></li></ul>",0,8am to 3pm (Sat-Thu)
Mirdif City Center,"4cdcfbfe-458f-66de-b8c5-ff0000b6b24a,9ba214ff-458f-66de-b8c5-ff1000b6b24a,565a08ff-458f-66de-b8c5-ff0b00b6b24a,4edcfbfe-458f-66de-b8c5-ff0000b6b24a,4adcfbfe-458f-66de-b8c5-ff0000b6b24a,9ea214ff-458f-66de-b8c5-ff1000b6b24a,67a214ff-458f-66de-b8c5-ff1000b6b24a",,Dubai,25.213893,55.4064510000001,/img/locator/icon-logo-34x34.png,"Sheikh Mohmmed Bin Zayed Rd. Mirdif, Dubai<br><p><span style=""font-size: 12px;""><strong>ATM Services:</strong></span></p><ul><li><span style=""font-size: 12px;"">Cash Withdrawal</span></li><li><span style=""font-size: 12px;"">Cash Deposit [South East Exit, G Level] (CBD Customer)</span></li><li><span style=""font-size: 12px;"">Bill Payment by Account and Cash</span></li><li><span style=""font-size: 12px;"">Fund Transfer by Account only</span></li></ul>",0,8am to 3pm (Sat-Thu)
Higher Colleges of Technology (HCT),"4cdcfbfe-458f-66de-b8c5-ff0000b6b24a,9ba214ff-458f-66de-b8c5-ff1000b6b24a,565a08ff-458f-66de-b8c5-ff0b00b6b24a,4edcfbfe-458f-66de-b8c5-ff0000b6b24a,4adcfbfe-458f-66de-b8c5-ff0000b6b24a,67a214ff-458f-66de-b8c5-ff1000b6b24a",,Dubai,25.109149,55.39248,/img/locator/icon-logo-34x34.png,"Academic City<br><p><span style=""font-size: 12px;""><strong>ATM Services:</strong></span></p><ul><li><span style=""font-size: 12px;"">Cash Withdrawal (Inside the building only)</span><br></li><li><span style=""font-size: 12px;"">Bill Payment (By account)</span></li><li><span style=""font-size: 12px;"">Fund Transfer (By account)</span></li><li><span style=""font-size: 12px;"">Cash Deposit not available&nbsp;</span></li></ul>",0,8am to 3pm (Sat-Thu)
DNRD Aweer,"46dcfbfe-458f-66de-b8c5-ff0000b6b24a,4cdcfbfe-458f-66de-b8c5-ff0000b6b24a,9ba214ff-458f-66de-b8c5-ff1000b6b24a,4edcfbfe-458f-66de-b8c5-ff0000b6b24a,67a214ff-458f-66de-b8c5-ff1000b6b24a",,Dubai,25.155457,55.511902,/img/locator/icon-logo-34x34.png,"Aweer<br><p><span style=""font-size: 12px;""><strong>ATM Services:</strong></span></p><ul><li><span style=""font-size: 12px;"">Cash Withdrawal</span><br></li><li><span style=""font-size: 12px;"">Bill Payment (By account)</span></li><li><span style=""font-size: 12px;"">Fund Transfer (By account)</span></li><li><span style=""font-size: 12px;"">Cash Deposit not available&nbsp;</span></li></ul>",0,8am to 3pm (Sat-Thu)
Jebel Ali Free Zone,"9ba214ff-458f-66de-b8c5-ff1000b6b24a,67a214ff-458f-66de-b8c5-ff1000b6b24a,4cdcfbfe-458f-66de-b8c5-ff0000b6b24a,4edcfbfe-458f-66de-b8c5-ff0000b6b24a,46dcfbfe-458f-66de-b8c5-ff0000b6b24a,4bdcfbfe-458f-66de-b8c5-ff0000b6b24a",,Dubai,25.012003,55.090309,/img/locator/icon-logo-34x34.png,"Jebel Ali Free Zone, South Zone<br><p><span style=""font-size: 12px;""><strong>ATM Services:</strong></span></p><ul><li><span style=""font-size: 12px;"">Cash Withdrawal</span></li><li><span style=""font-size: 12px;"">Cash Deposit not available&nbsp;</span></li><li><span style=""font-size: 12px;"">Cheque Deposit Machine</span></li><li><span style=""font-size: 12px;"">Bill Payment</span></li><li><span style=""font-size: 12px;"">Fund Transfer (By account)</span></li></ul>",0,8am to 3pm (Sat-Thu)
Emarat Petrol Station - Greenbelt,"4bdcfbfe-458f-66de-b8c5-ff0000b6b24a,4edcfbfe-458f-66de-b8c5-ff0000b6b24a,46dcfbfe-458f-66de-b8c5-ff0000b6b24a",,Sharjah,25.314177,55.396455,/img/locator/icon-logo-34x34.png,Greenbelt<br>,0,8am to 3pm (Sat-Thu)
Adnoc Petrol Station,"67a214ff-458f-66de-b8c5-ff1000b6b24a,9ba214ff-458f-66de-b8c5-ff1000b6b24a,4cdcfbfe-458f-66de-b8c5-ff0000b6b24a,4edcfbfe-458f-66de-b8c5-ff0000b6b24a,46dcfbfe-458f-66de-b8c5-ff0000b6b24a,4bdcfbfe-458f-66de-b8c5-ff0000b6b24a",,Sharjah,25.314177,55.396455,/img/locator/icon-logo-34x34.png,"&nbsp;Industrial Area<br><p><span style=""font-size: 12.5px;""><strong>ATM Services:</strong>&nbsp;</span></p><ul><li><span style=""font-size: 12px;"">Cash withdrawal</span></li><li><span style=""font-size: 12px;"">Bill payment (By account)</span></li><li><span style=""font-size: 12px;"">Fund transfer (By account)</span></li><li><span style=""font-size: 12px;"">Cash Deposit not available&nbsp;</span><br></li></ul>",0,8am to 3pm (Sat-Thu)
Madinat Zayed Shopping Center,"9ba214ff-458f-66de-b8c5-ff1000b6b24a,67a214ff-458f-66de-b8c5-ff1000b6b24a,4cdcfbfe-458f-66de-b8c5-ff0000b6b24a,4edcfbfe-458f-66de-b8c5-ff0000b6b24a,46dcfbfe-458f-66de-b8c5-ff0000b6b24a",,Abu Dhabi,24.48394,54.365579,/img/locator/icon-logo-34x34.png,"Abu Dhabi <br><p><span style=""font-size: 12.5px;""><strong>ATM Services:</strong>&nbsp;</span></p><ul><li><span style=""font-size: 12px;"">Cash withdrawal</span></li><li><span style=""font-size: 12px;"">Bill payment (By account)</span></li><li><span style=""font-size: 12px;"">Fund transfer (By account)</span></li><li><span style=""font-size: 12px;"">Cash Deposit not available&nbsp;</span><br></li></ul>",0,8am to 3pm (Sat-Thu)
Sunset Mall,"67a214ff-458f-66de-b8c5-ff1000b6b24a,9ba214ff-458f-66de-b8c5-ff1000b6b24a,4edcfbfe-458f-66de-b8c5-ff0000b6b24a,46dcfbfe-458f-66de-b8c5-ff0000b6b24a",,Dubai,25.18416,55.226003,/img/locator/icon-logo-34x34.png,"Jumeirah<br><p><span style=""font-size: 12px;""><strong>ATM Services:</strong></span></p><ul><li><span style=""font-size: 12px;"">Cash Withdrawal</span><br></li><li><span style=""font-size: 12px;"">Bill Payment (By account)</span></li><li><span style=""font-size: 12px;"">Fund Transfer (By account)</span></li></ul>",0,8am to 3pm (Sat-Thu)
Mohammed Rashid Boulevard,"9ba214ff-458f-66de-b8c5-ff1000b6b24a,67a214ff-458f-66de-b8c5-ff1000b6b24a,4cdcfbfe-458f-66de-b8c5-ff0000b6b24a,4edcfbfe-458f-66de-b8c5-ff0000b6b24a,46dcfbfe-458f-66de-b8c5-ff0000b6b24a,4bdcfbfe-458f-66de-b8c5-ff0000b6b24a",,Dubai,25.197182,55.270635,/img/locator/icon-logo-34x34.png,"Al Wasl, Dubai<br><p><span style=""font-size: 12px;""><strong>ATM Services:</strong></span></p><ul><li><span style=""font-size: 12px;"">Cash Withdrawal</span><br></li><li><span style=""font-size: 12px;"">Bill Payment (By account)</span></li><li><span style=""font-size: 12px;"">Fund Transfer (By account)</span></li><li><span style=""font-size: 12px;"">Cash Deposit not available&nbsp;</span></li></ul>",0,8am to 3pm (Sat-Thu)
Dubai Chamber of Commerce,"9ba214ff-458f-66de-b8c5-ff1000b6b24a,9ea214ff-458f-66de-b8c5-ff1000b6b24a,67a214ff-458f-66de-b8c5-ff1000b6b24a,4cdcfbfe-458f-66de-b8c5-ff0000b6b24a,4edcfbfe-458f-66de-b8c5-ff0000b6b24a,4adcfbfe-458f-66de-b8c5-ff0000b6b24a,46dcfbfe-458f-66de-b8c5-ff0000b6b24a",,Dubai,25.260162,55.315402,/img/locator/icon-logo-34x34.png,"Baniyas Rd.<br><p><span style=""font-size: 12px;""><strong>ATM Services:</strong></span></p><ul><li><span style=""font-size: 12px;"">Cash Withdrawal</span></li><li><span style=""font-size: 12px;"">Cash Deposit (CBD Customer)</span></li><li><span style=""font-size: 12px;"">Bill Payment</span></li><li><span style=""font-size: 12px;"">Fund Transfer (By account)</span></li></ul>",0,8am to 3pm (Sat-Thu)
EIDA-Rashidiya,"9ba214ff-458f-66de-b8c5-ff1000b6b24a,67a214ff-458f-66de-b8c5-ff1000b6b24a,4cdcfbfe-458f-66de-b8c5-ff0000b6b24a,4edcfbfe-458f-66de-b8c5-ff0000b6b24a,46dcfbfe-458f-66de-b8c5-ff0000b6b24a",,Dubai,25.21979,55.4012700000001,/img/locator/icon-logo-34x34.png,"Rashidiya<br><p><span style=""font-size: 12px;""><strong>ATM Services:</strong></span></p><ul><li><span style=""font-size: 12px;"">Cash Withdrawal</span><br></li><li><span style=""font-size: 12px;"">Bill Payment (By account)</span></li><li><span style=""font-size: 12px;"">Fund Transfer (By account)</span></li><li><span style=""font-size: 12px;"">Cash Deposit not available&nbsp;</span></li></ul>",0,8am to 3pm (Sat-Thu)
EIDA-Al Barsha,"67a214ff-458f-66de-b8c5-ff1000b6b24a,9ba214ff-458f-66de-b8c5-ff1000b6b24a,4cdcfbfe-458f-66de-b8c5-ff0000b6b24a,4edcfbfe-458f-66de-b8c5-ff0000b6b24a,46dcfbfe-458f-66de-b8c5-ff0000b6b24a",,Dubai,25.09145,55.187864,/img/locator/icon-logo-34x34.png,"Al Barsha<br><p><span style=""font-size: 12px;""><strong>ATM Services:</strong></span></p><ul><li><span style=""font-size: 12px;"">Cash Withdrawal</span><br></li><li><span style=""font-size: 12px;"">Bill Payment (By account)</span></li><li><span style=""font-size: 12px;"">Fund Transfer (By account)</span></li><li><span style=""font-size: 12px;"">Cash Deposit not available&nbsp;</span></li></ul>",0,8am to 3pm (Sat-Thu)
Ghaya Grand Hotel,"67a214ff-458f-66de-b8c5-ff1000b6b24a,9ba214ff-458f-66de-b8c5-ff1000b6b24a,4cdcfbfe-458f-66de-b8c5-ff0000b6b24a,4edcfbfe-458f-66de-b8c5-ff0000b6b24a,46dcfbfe-458f-66de-b8c5-ff0000b6b24a,4bdcfbfe-458f-66de-b8c5-ff0000b6b24a",,Dubai,25.033447,55.203338,/img/locator/icon-logo-34x34.png,"Al Fay Rd. Dubai Production City <br><p><span style=""font-size: 12px;""><strong>ATM Services:</strong></span></p><ul><li><span style=""font-size: 12px;"">Cash Withdrawal</span><span style=""font-size: 12px;""><br></span></li><li><span style=""font-size: 12px;"">Bill Payment (By account)</span></li><li><span style=""font-size: 12px;"">Fund Transfer (By account)</span></li><li><span style=""font-size: 12px;"">Cash Deposit not available&nbsp;</span></li></ul>",0,8am to 3pm (Sat-Thu)
Dubai Chamber,"4adcfbfe-458f-66de-b8c5-ff0000b6b24a,46dcfbfe-458f-66de-b8c5-ff0000b6b24a",,Dubai,24.966564,55.0777009999999,/img/locator/icon-logo-34x34.png,Jebel Ali <br><br>,0,8am to 3pm (Sat-Thu)
Free Zone,"9ba214ff-458f-66de-b8c5-ff1000b6b24a,67a214ff-458f-66de-b8c5-ff1000b6b24a,4cdcfbfe-458f-66de-b8c5-ff0000b6b24a,4edcfbfe-458f-66de-b8c5-ff0000b6b24a,46dcfbfe-458f-66de-b8c5-ff0000b6b24a",,Ajman,25.419364,55.452841,/img/locator/icon-logo-34x34.png,"Ajman Free Zone <br><p><span style=""font-size: 12.5px;""><strong>ATM Services:</strong>&nbsp;</span></p><ul><li><span style=""font-size: 12px;"">Cash withdrawal</span></li><li><span style=""font-size: 12px;"">Bill payment (By account)</span></li><li><span style=""font-size: 12px;"">Fund transfer (By account)</span></li><li><span style=""font-size: 12px;"">Cash Deposit not available&nbsp;</span><br></li></ul>",0,8am to 3pm (Sat-Thu)
EIDA-Sharjah,"67a214ff-458f-66de-b8c5-ff1000b6b24a,9ba214ff-458f-66de-b8c5-ff1000b6b24a,4edcfbfe-458f-66de-b8c5-ff0000b6b24a,46dcfbfe-458f-66de-b8c5-ff0000b6b24a",,Sharjah,25.307524,55.58404,/img/locator/icon-logo-34x34.png,"Emirates Identity Authority, Sharjah<br><p><span style=""font-size: 12.5px;""><strong>ATM Services:</strong>&nbsp;</span></p><ul><li><span style=""font-size: 12px;"">Cash withdrawal</span></li><li><span style=""font-size: 12px;"">Bill payment (By account)</span></li><li><span style=""font-size: 12px;"">Fund transfer (By account)</span></li><li><span style=""font-size: 12px;"">Cash Deposit not available&nbsp;</span><br></li></ul>",0,8am to 3pm (Sat-Thu)
Shareif Mall,"67a214ff-458f-66de-b8c5-ff1000b6b24a,9ba214ff-458f-66de-b8c5-ff1000b6b24a,4edcfbfe-458f-66de-b8c5-ff0000b6b24a,46dcfbfe-458f-66de-b8c5-ff0000b6b24a",,Fujairah,25.601464,56.271473,/img/locator/icon-logo-34x34.png,"&nbsp;Dibba, Fujairah<br><p><span style=""font-size: 12.5px;""><strong>ATM Services:</strong>&nbsp;</span></p><ul><li><span style=""font-size: 12px;"">Cash withdrawal</span></li><li><span style=""font-size: 12px;"">Bill payment (By account)</span></li><li><span style=""font-size: 12px;"">Fund transfer (By account)</span></li><li><span style=""font-size: 12px;"">Cash Deposit (Not available)</span></li></ul><br>",0,8am to 3pm (Sat-Thu)
Al Noor Bakery,"67a214ff-458f-66de-b8c5-ff1000b6b24a,9ba214ff-458f-66de-b8c5-ff1000b6b24a,4edcfbfe-458f-66de-b8c5-ff0000b6b24a,46dcfbfe-458f-66de-b8c5-ff0000b6b24a,4bdcfbfe-458f-66de-b8c5-ff0000b6b24a",,Al Ain,24.225309,55.7336,/img/locator/icon-logo-34x34.png,"Abu Dhabi Rd Al Muhaiji <br>Al Ain <br><p><span style=""font-size: 12.5px;""><strong>ATM Services:</strong>&nbsp;</span></p><ul><li><span style=""font-size: 12px;"">Cash withdrawal</span></li><li><span style=""font-size: 12px;"">Bill payment (By account)</span></li><li><span style=""font-size: 12px;"">Fund transfer (By account)</span></li><li><span style=""font-size: 12px;"">Cash Deposit not available&nbsp;</span><br></li></ul>",0,8am to 3pm (Sat-Thu)
"Zayed The First, Abu Dhabi Branch","4cdcfbfe-458f-66de-b8c5-ff0000b6b24a,67a214ff-458f-66de-b8c5-ff1000b6b24a,9ba214ff-458f-66de-b8c5-ff1000b6b24a,9ea214ff-458f-66de-b8c5-ff1000b6b24a,4edcfbfe-458f-66de-b8c5-ff0000b6b24a,49dcfbfe-458f-66de-b8c5-ff0000b6b24a,9936fcfe-458f-66de-b8c5-ff0000b6b24a,343b0fff-458f-66de-b8c5-ff1000b6b24a,4adcfbfe-458f-66de-b8c5-ff0000b6b24a,cb4102ff-458f-66de-b8c5-ff0b00b6b24a,45dcfbfe-458f-66de-b8c5-ff0000b6b24a,46dcfbfe-458f-66de-b8c5-ff0000b6b24a,47dcfbfe-458f-66de-b8c5-ff0000b6b24a",,Abu Dhabi,24.49177,54.370989,/img/locator/icon-logo-34x34.png,"Zayed The First Street&nbsp; (Old Electra Street),<br>Next to El Dorado Cinema<br><p><span style=""font-size: 12.5px;""><strong>ATM Services:</strong>&nbsp;</span></p><ul><li><span style=""font-size: 12px;"">Cash Withdrawal&nbsp;</span></li><li><span style=""font-size: 12px;"">Smart Cash Deposit</span></li><li><span style=""font-size: 12px;"">Cheque Deposit Machine</span></li><li><span style=""font-size: 12px;"">Bill Payment (by Account)</span></li><li><span style=""font-size: 12px;"">Fund Transfer (by Account)</span></li></ul><br><br>",30,"08:00 AM to 03:30 PM (Monday - Thursday), 07:30 AM to 12:30 PM (Friday)"
Aloft Hotel,"4edcfbfe-458f-66de-b8c5-ff0000b6b24a,9ba214ff-458f-66de-b8c5-ff1000b6b24a,67a214ff-458f-66de-b8c5-ff1000b6b24a,46dcfbfe-458f-66de-b8c5-ff0000b6b24a",,Dubai,24.866969,55.146684,/img/locator/icon-logo-34x34.png,"Aviation City, Dubai<br><p><span style=""font-size: 12px;""><strong>ATM Services:</strong></span></p><ul><li><span style=""font-size: 12px;"">Cash Withdrawal</span><br></li><li><span style=""font-size: 12px;"">Bill Payment (By account)</span></li><li><span style=""font-size: 12px;"">Fund Transfer (By account)</span></li><li><span style=""font-size: 12px;"">Cash Deposit not available&nbsp;</span></li></ul>",0,8am to 3pm (Sat-Thu)
Tasheel Al Garhoud,"46dcfbfe-458f-66de-b8c5-ff0000b6b24a,9ba214ff-458f-66de-b8c5-ff1000b6b24a,67a214ff-458f-66de-b8c5-ff1000b6b24a,4edcfbfe-458f-66de-b8c5-ff0000b6b24a",,Dubai,25.246608,55.33857,/img/locator/icon-logo-34x34.png,"Al Garhoud, Dubai <br><p><span style=""font-size: 12px;""><strong>ATM Services:</strong></span></p><ul><li><span style=""font-size: 12px;"">Cash Withdrawal</span><br></li><li><span style=""font-size: 12px;"">Bill Payment (By account)</span></li><li><span style=""font-size: 12px;"">Fund Transfer (By account)</span></li><li><span style=""font-size: 12px;"">Cash Deposit not available&nbsp;</span></li></ul>",0,8am to 3pm (Sat-Thu)
Mall of Emirates,"67a214ff-458f-66de-b8c5-ff1000b6b24a,9ba214ff-458f-66de-b8c5-ff1000b6b24a,4edcfbfe-458f-66de-b8c5-ff0000b6b24a,46dcfbfe-458f-66de-b8c5-ff0000b6b24a",,Dubai,25.118108,55.200426,/img/locator/icon-logo-34x34.png,"Dubai<br><p><span style=""font-size: 12px;""><strong>ATM Services:</strong></span></p><ul><li><span style=""font-size: 12px;"">Cash Withdrawal</span><br></li><li><span style=""font-size: 12px;"">Bill Payment (By account)</span></li><li><span style=""font-size: 12px;"">Fund Transfer (By account)</span></li><li><span style=""font-size: 12px;"">Cash Deposit <strong>not available</strong></span></li></ul>",0,8am to 3pm (Sat-Thu)
Rashid Hospital,"4bdcfbfe-458f-66de-b8c5-ff0000b6b24a,9ba214ff-458f-66de-b8c5-ff1000b6b24a,67a214ff-458f-66de-b8c5-ff1000b6b24a,4edcfbfe-458f-66de-b8c5-ff0000b6b24a,46dcfbfe-458f-66de-b8c5-ff0000b6b24a",,Dubai,25.244369,55.318397,/img/locator/icon-logo-34x34.png,"Umm Hurair 2, Dubai<br><p><span style=""font-size: 12px;""><strong>ATM Services:</strong></span></p><ul><li><span style=""font-size: 12px;"">Cash Withdrawal</span><br></li><li><span style=""font-size: 12px;"">Bill Payment (By account)</span></li><li><span style=""font-size: 12px;"">Fund Transfer (By account)</span></li><li><span style=""font-size: 12px;"">Cash Deposit not available&nbsp;</span></li></ul>",0,8am to 3pm (Sat-Thu)
Latifa Hospital,"46dcfbfe-458f-66de-b8c5-ff0000b6b24a,4bdcfbfe-458f-66de-b8c5-ff0000b6b24a,4edcfbfe-458f-66de-b8c5-ff0000b6b24a,67a214ff-458f-66de-b8c5-ff1000b6b24a,9ba214ff-458f-66de-b8c5-ff1000b6b24a",,Dubai,25.223361,55.318146,/img/locator/icon-logo-34x34.png,"Oud Metha Rd. Al Jaddaf <br>Dubai<br><p><span style=""font-size: 12px;""><strong>ATM Services:</strong></span></p><ul><li><span style=""font-size: 12px;"">Cash Withdrawal</span><br></li><li><span style=""font-size: 12px;"">Bill Payment (By account)</span></li><li><span style=""font-size: 12px;"">Fund Transfer (By account)</span></li><li><span style=""font-size: 12px;"">Cash Deposit not available&nbsp;</span></li></ul>",0,8am to 3pm (Sat-Thu)
Dubai Hospital,"4edcfbfe-458f-66de-b8c5-ff0000b6b24a,9ba214ff-458f-66de-b8c5-ff1000b6b24a,67a214ff-458f-66de-b8c5-ff1000b6b24a,46dcfbfe-458f-66de-b8c5-ff0000b6b24a",,Dubai,25.285399,55.321495,/img/locator/icon-logo-34x34.png,"222 Al Khaleej Rd. Deira Dubai<br><p><span style=""font-size: 12px;""><strong>ATM Services:</strong></span></p><ul><li><span style=""font-size: 12px;"">Cash Withdrawal</span><br></li><li><span style=""font-size: 12px;"">Bill Payment (By account)</span></li><li><span style=""font-size: 12px;"">Fund Transfer (By account)</span></li><li><span style=""font-size: 12px;"">Cash Deposit not available&nbsp;</span></li></ul>",0,8am to 3pm (Sat-Thu)
Al Garhoud Private Hospital,"4edcfbfe-458f-66de-b8c5-ff0000b6b24a,4bdcfbfe-458f-66de-b8c5-ff0000b6b24a,67a214ff-458f-66de-b8c5-ff1000b6b24a,9ba214ff-458f-66de-b8c5-ff1000b6b24a,46dcfbfe-458f-66de-b8c5-ff0000b6b24a",,Dubai,25.250635,55.342381,/img/locator/icon-logo-34x34.png,"Al Garhoud, Near Millennium<br>Airport Hotel, Dubai<br><p><span style=""font-size: 12px;""><strong>ATM Services:</strong></span></p><ul><li><span style=""font-size: 12px;"">Cash Withdrawal</span><br></li><li><span style=""font-size: 12px;"">Bill Payment (By account)</span></li><li><span style=""font-size: 12px;"">Fund Transfer (By account)</span></li><li><span style=""font-size: 12px;"">Cash Deposit not available&nbsp;<strong></strong></span></li></ul>",0,8am to 3pm (Sat-Thu)
Tasheel Musaffah,"4adcfbfe-458f-66de-b8c5-ff0000b6b24a,9ba214ff-458f-66de-b8c5-ff1000b6b24a,4edcfbfe-458f-66de-b8c5-ff0000b6b24a,67a214ff-458f-66de-b8c5-ff1000b6b24a,46dcfbfe-458f-66de-b8c5-ff0000b6b24a",,Abu Dhabi,24.3562258,54.5230855,/img/locator/icon-logo-34x34.png,"Sector M25 , Plot Number P1 <br>Abu Dhabi<br><p><span style=""font-size: 12.5px;""><strong>ATM Services:</strong>&nbsp;</span></p><ul><li><span style=""font-size: 12px;"">Cash withdrawal</span></li><li><span style=""font-size: 12px;"">Bill payment </span></li><li><span style=""font-size: 12px;"">Fund transfer (By account)</span></li><li><span style=""font-size: 12px;"">Cash Deposit (CBD Customer)</span><br></li></ul>",0,8am to 3pm (Sat-Thu)
FEWA Ajman,"67a214ff-458f-66de-b8c5-ff1000b6b24a,9ba214ff-458f-66de-b8c5-ff1000b6b24a,4edcfbfe-458f-66de-b8c5-ff0000b6b24a,46dcfbfe-458f-66de-b8c5-ff0000b6b24a",,Ajman,25.3913441,55.474391,/img/locator/icon-logo-34x34.png,"heikh Maktoum Bin Rashid Road <br>Ajman Industrial Area1 <br><p><span style=""font-size: 12.5px;""><strong>ATM Services:</strong>&nbsp;</span></p><ul><li><span style=""font-size: 12px;"">Cash withdrawal</span></li><li><span style=""font-size: 12px;"">Bill payment (By account)</span></li><li><span style=""font-size: 12px;"">Fund transfer (By account)</span></li><li><span style=""font-size: 12px;"">Cash Deposit not available&nbsp;</span><br></li></ul>",0,8am to 3pm (Sat-Thu)
Palm strip Mall,"46dcfbfe-458f-66de-b8c5-ff0000b6b24a,9ba214ff-458f-66de-b8c5-ff1000b6b24a,67a214ff-458f-66de-b8c5-ff1000b6b24a,4edcfbfe-458f-66de-b8c5-ff0000b6b24a",,Dubai,25.234481,55.264935,/img/locator/icon-logo-34x34.png,"Jumeirah 1, Dubai<br><p><span style=""font-size: 12px;""><strong>ATM Services:</strong></span></p><ul><li><span style=""font-size: 12px;"">Cash Withdrawal</span><br></li><li><span style=""font-size: 12px;"">Bill Payment (By account)</span></li><li><span style=""font-size: 12px;"">Fund Transfer (By account)</span></li></ul>",0,8am to 3pm (Sat-Thu)
"Habtoor Camp, DIP","4edcfbfe-458f-66de-b8c5-ff0000b6b24a,67a214ff-458f-66de-b8c5-ff1000b6b24a,9ba214ff-458f-66de-b8c5-ff1000b6b24a,46dcfbfe-458f-66de-b8c5-ff0000b6b24a",,,24.984867,55.182416,/img/locator/icon-logo-34x34.png,"Dubai Investment Park<br><p><span style=""font-size: 12px;""><strong>ATM Services:</strong></span></p><ul><li><span style=""font-size: 12px;"">Cash Withdrawal</span><br></li><li><span style=""font-size: 12px;"">Bill Payment (By account)</span></li><li><span style=""font-size: 12px;"">Fund Transfer (By account)</span></li><li><span style=""font-size: 12px;"">Cash Deposit not available&nbsp;</span></li></ul>",0,8am to 3pm (Sat-Thu)
Dubai Health Authority,"46dcfbfe-458f-66de-b8c5-ff0000b6b24a,9ba214ff-458f-66de-b8c5-ff1000b6b24a,67a214ff-458f-66de-b8c5-ff1000b6b24a,4edcfbfe-458f-66de-b8c5-ff0000b6b24a",,Dubai,25.24716,55.319527,/img/locator/icon-logo-34x34.png,"Umm Hurair 2<br><p><span style=""font-size: 12px;""><strong>ATM Services:</strong></span></p><ul><li><span style=""font-size: 12px;"">Cash Withdrawal</span><br></li><li><span style=""font-size: 12px;"">Bill Payment (By account)</span></li><li><span style=""font-size: 12px;"">Fund Transfer (By account)</span></li></ul>",0,8am to 3pm (Sat-Thu)
Emirates Towers,"4cdcfbfe-458f-66de-b8c5-ff0000b6b24a,9ba214ff-458f-66de-b8c5-ff1000b6b24a,4edcfbfe-458f-66de-b8c5-ff0000b6b24a,67a214ff-458f-66de-b8c5-ff1000b6b24a,46dcfbfe-458f-66de-b8c5-ff0000b6b24a,4bdcfbfe-458f-66de-b8c5-ff0000b6b24a",,Dubai,25.218,55.2824,/img/locator/icon-logo-34x34.png,"Near Hotel's HR office<br><p><span style=""font-size: 12px;""><strong>ATM Services:</strong></span></p><ul><li><span style=""font-size: 12px;"">Cash Withdrawal for staff only</span><br></li><li><span style=""font-size: 12px;"">Bill Payment (By account)</span></li><li><span style=""font-size: 12px;"">Fund Transfer (By account)</span></li><li><span style=""font-size: 12px;"">Cash Deposit not available&nbsp;</span></li></ul>",0,8am to 3pm (Sat-Thu)
Oasis Village,"4cdcfbfe-458f-66de-b8c5-ff0000b6b24a,9ba214ff-458f-66de-b8c5-ff1000b6b24a,4edcfbfe-458f-66de-b8c5-ff0000b6b24a,67a214ff-458f-66de-b8c5-ff1000b6b24a,46dcfbfe-458f-66de-b8c5-ff0000b6b24a,4bdcfbfe-458f-66de-b8c5-ff0000b6b24a",,Dubai,25.1446,55.2463,/img/locator/icon-logo-34x34.png,"Al Qouz<br><p><span style=""font-size: 12px;""><strong>ATM Services:</strong></span></p><ul><li><span style=""font-size: 12px;"">Cash Withdrawal staff only</span><br></li><li><span style=""font-size: 12px;"">Bill Payment (By account)</span></li><li><span style=""font-size: 12px;"">Fund Transfer (By account)</span></li><li><span style=""font-size: 12px;"">Cash Deposit not available&nbsp;</span></li></ul>",0,8am to 3pm (Sat-Thu)
JW Marriot,"67a214ff-458f-66de-b8c5-ff1000b6b24a,9ba214ff-458f-66de-b8c5-ff1000b6b24a,4edcfbfe-458f-66de-b8c5-ff0000b6b24a,46dcfbfe-458f-66de-b8c5-ff0000b6b24a,4bdcfbfe-458f-66de-b8c5-ff0000b6b24a",,Dubai,24.984867,55.182416,/img/locator/icon-logo-34x34.png,Jebel Ali<br>,0,8am to 3pm (Sat-Thu)
Saleh Construction Sonapur,"67a214ff-458f-66de-b8c5-ff1000b6b24a,9ba214ff-458f-66de-b8c5-ff1000b6b24a,4edcfbfe-458f-66de-b8c5-ff0000b6b24a,46dcfbfe-458f-66de-b8c5-ff0000b6b24a,4bdcfbfe-458f-66de-b8c5-ff0000b6b24a",,Dubai,25.259787,55.421594,/img/locator/icon-logo-34x34.png,"Sonapur<br><p><span style=""font-size: 12px;""><strong>ATM Services:</strong></span></p><ul><li><span style=""font-size: 12px;"">Cash Withdrawal</span><br></li><li><span style=""font-size: 12px;"">Bill Payment (By account)</span></li><li><span style=""font-size: 12px;"">Fund Transfer (By account)</span></li><li><span style=""font-size: 12px;"">Cash Deposit not available&nbsp;</span></li></ul>",0,8am to 3pm (Sat-Thu)
Saleh Construction,"67a214ff-458f-66de-b8c5-ff1000b6b24a,9ba214ff-458f-66de-b8c5-ff1000b6b24a,4edcfbfe-458f-66de-b8c5-ff0000b6b24a,46dcfbfe-458f-66de-b8c5-ff0000b6b24a,4bdcfbfe-458f-66de-b8c5-ff0000b6b24a",,Dubai,25.012573,55.1037229999999,/img/locator/icon-logo-34x34.png,"Jebel Ali<br><p><span style=""font-size: 12px;""><strong>ATM Services:</strong></span></p><ul><li><span style=""font-size: 12px;"">Cash Withdrawal</span><br></li><li><span style=""font-size: 12px;"">Bill Payment (By account)</span></li><li><span style=""font-size: 12px;"">Fund Transfer (By account)</span></li><li><span style=""font-size: 12px;"">Cash Deposit not available&nbsp;</span></li></ul>",0,8am to 3pm (Sat-Thu)
Staff Accommodation,"9ba214ff-458f-66de-b8c5-ff1000b6b24a,67a214ff-458f-66de-b8c5-ff1000b6b24a,4cdcfbfe-458f-66de-b8c5-ff0000b6b24a,4edcfbfe-458f-66de-b8c5-ff0000b6b24a,46dcfbfe-458f-66de-b8c5-ff0000b6b24a,4bdcfbfe-458f-66de-b8c5-ff0000b6b24a",,Dubai,25.030227,55.1907180000001,/img/locator/icon-logo-34x34.png,"Salini Construction<br>Dubai Production City, Dubai<br><p><span style=""font-size: 12px;""><strong>ATM Services:</strong></span></p><ul><li><span style=""font-size: 12px;"">Cash Withdrawal</span><br></li><li><span style=""font-size: 12px;"">Bill Payment (By account)</span><br></li><li><span style=""font-size: 12px;"">Fund Transfer (By account)</span></li><li><span style=""font-size: 12px;"">Cash Deposit not available&nbsp;</span></li></ul>",0,8am to 3pm (Sat-Thu)
Muhaisina,"4cdcfbfe-458f-66de-b8c5-ff0000b6b24a,9ba214ff-458f-66de-b8c5-ff1000b6b24a,4edcfbfe-458f-66de-b8c5-ff0000b6b24a,4adcfbfe-458f-66de-b8c5-ff0000b6b24a,45dcfbfe-458f-66de-b8c5-ff0000b6b24a,9ea214ff-458f-66de-b8c5-ff1000b6b24a,67a214ff-458f-66de-b8c5-ff1000b6b24a",,Dubai,25.2876051,55.4009628,/img/locator/icon-logo-34x34.png,Behind Industrial Area<br>,0,8am to 3pm (Sat-Thu)
Jumeirah Beach Hotel,"46dcfbfe-458f-66de-b8c5-ff0000b6b24a,9ba214ff-458f-66de-b8c5-ff1000b6b24a,4edcfbfe-458f-66de-b8c5-ff0000b6b24a,67a214ff-458f-66de-b8c5-ff1000b6b24a",,Dubai,25.141492,55.190887,/img/locator/icon-logo-34x34.png,"Umm Suqeim<br><p><span style=""font-size: 12px;""><strong>ATM Services:</strong></span></p><ul><li><span style=""font-size: 12px;"">Cash Withdrawal only for Staff</span><br></li><li><span style=""font-size: 12px;"">Bill Payment (By account)</span></li><li><span style=""font-size: 12px;"">Fund Transfer (By account)</span></li><li><span style=""font-size: 12px;"">Cash Deposit not available&nbsp;</span></li></ul>",0,8am to 3pm (Sat-Thu)
Dubai Airport,"4cdcfbfe-458f-66de-b8c5-ff0000b6b24a,46dcfbfe-458f-66de-b8c5-ff0000b6b24a,9ba214ff-458f-66de-b8c5-ff1000b6b24a,4edcfbfe-458f-66de-b8c5-ff0000b6b24a,67a214ff-458f-66de-b8c5-ff1000b6b24a",,Dubai,25.25374,55.3646140000001,/img/locator/icon-logo-34x34.png,"Terminal 1,<br> Arrival Area<br>",0,8am to 3pm (Sat-Thu)
Unimix,"4cdcfbfe-458f-66de-b8c5-ff0000b6b24a,9ba214ff-458f-66de-b8c5-ff1000b6b24a,4edcfbfe-458f-66de-b8c5-ff0000b6b24a,67a214ff-458f-66de-b8c5-ff1000b6b24a",,Dubai,25.160027,55.234509,/img/locator/icon-logo-34x34.png,"Al Quoz<br><p><span style=""font-size: 12px;""><strong>ATM Services:</strong></span></p><ul><li><span style=""font-size: 12px;"">Cash Withdrawal</span><br></li><li><span style=""font-size: 12px;"">Bill Payment (By account)</span></li><li><span style=""font-size: 12px;"">Fund Transfer (By account)</span></li><li><span style=""font-size: 12px;"">Cash Deposit not available&nbsp;</span></li></ul>",0,8am to 3pm (Sat-Thu)
St. Regis Hotel,"46dcfbfe-458f-66de-b8c5-ff0000b6b24a,4cdcfbfe-458f-66de-b8c5-ff0000b6b24a,9ba214ff-458f-66de-b8c5-ff1000b6b24a,4edcfbfe-458f-66de-b8c5-ff0000b6b24a,67a214ff-458f-66de-b8c5-ff1000b6b24a",,Dubai,25.183576,55.254543,/img/locator/icon-logo-34x34.png,"Al Habtoor Al Khaibaisi, Dubai<br><p><span style=""font-size: 12px;""><strong>ATM Services:</strong></span></p><ul><li><span style=""font-size: 12px;"">Cash Withdrawal</span><br></li><li><span style=""font-size: 12px;"">Bill Payment (By account)</span></li><li><span style=""font-size: 12px;"">Fund Transfer (By account)</span></li><li><span style=""font-size: 12px;"">Cash Deposit not available&nbsp;</span></li></ul>",0,8am to 3pm (Sat-Thu)
W.Hotel,"46dcfbfe-458f-66de-b8c5-ff0000b6b24a,4cdcfbfe-458f-66de-b8c5-ff0000b6b24a,9ba214ff-458f-66de-b8c5-ff1000b6b24a,4edcfbfe-458f-66de-b8c5-ff0000b6b24a,67a214ff-458f-66de-b8c5-ff1000b6b24a",,Dubai,25.183357,55.254292,/img/locator/icon-logo-34x34.png,"260 Sheikh Zayed Rd.<br><p><span style=""font-size: 12px;""><strong>ATM Services:</strong></span></p><ul><li><span style=""font-size: 12px;"">Cash Withdrawal</span><br></li><li><span style=""font-size: 12px;"">Bill Payment (By account)</span></li><li><span style=""font-size: 12px;"">Fund Transfer (By account)</span></li><li><span style=""font-size: 12px;"">Cash Deposit not available&nbsp;</span></li></ul>",0,8am to 3pm (Sat-Thu)
Metropolitan Hotel,"46dcfbfe-458f-66de-b8c5-ff0000b6b24a,4cdcfbfe-458f-66de-b8c5-ff0000b6b24a,9ba214ff-458f-66de-b8c5-ff1000b6b24a,4edcfbfe-458f-66de-b8c5-ff0000b6b24a,67a214ff-458f-66de-b8c5-ff1000b6b24a",,Dubai,25.132966,55.212854,/img/locator/icon-logo-34x34.png,"Sheikh Zayed Rd. Exit 41<br>Al Thanya St.<br><p><span style=""font-size: 12px;""><strong>ATM Services:</strong></span></p><ul><li><span style=""font-size: 12px;"">Cash Withdrawal</span><br></li><li><span style=""font-size: 12px;"">Bill Payment (By account)</span></li><li><span style=""font-size: 12px;"">Fund Transfer (By account)</span></li><li><span style=""font-size: 12px;"">Cash Deposit not available&nbsp;</span></li></ul>",0,8am to 3pm (Sat-Thu)
Westin Hotel,"46dcfbfe-458f-66de-b8c5-ff0000b6b24a,4cdcfbfe-458f-66de-b8c5-ff0000b6b24a,9ba214ff-458f-66de-b8c5-ff1000b6b24a,4edcfbfe-458f-66de-b8c5-ff0000b6b24a,67a214ff-458f-66de-b8c5-ff1000b6b24a",,Dubai,25.184549,55.255271,/img/locator/icon-logo-34x34.png,"Hilton Hotel, 44th floor, Sh. Zayed Rd.<br>Habtoor City, Dubai Marina<br><p><span style=""font-size: 12px;""><strong>ATM Services:</strong></span></p><ul><li><span style=""font-size: 12px;"">Cash Withdrawal</span><br></li><li><span style=""font-size: 12px;"">Bill Payment (By account)</span></li><li><span style=""font-size: 12px;"">Fund Transfer (By account)</span></li><li><span style=""font-size: 12px;"">Cash Deposit not available&nbsp;</span></li></ul>",0,8am to 3pm (Sat-Thu)
Emirates Falcon,"67a214ff-458f-66de-b8c5-ff1000b6b24a,9ba214ff-458f-66de-b8c5-ff1000b6b24a,4edcfbfe-458f-66de-b8c5-ff0000b6b24a,46dcfbfe-458f-66de-b8c5-ff0000b6b24a,4bdcfbfe-458f-66de-b8c5-ff0000b6b24a",,,25.157013,55.250082,/img/locator/icon-logo-34x34.png,"Emirates Falcon<br><p><span style=""font-size: 12px;""><strong>ATM Services:</strong></span></p><ul><li><span style=""font-size: 12px;"">Cash Withdrawal (CBD card holders only)</span><br></li><li><span style=""font-size: 12px;"">Bill Payment (By account)</span></li><li><span style=""font-size: 12px;"">Fund Transfer (By account)</span></li><li><span style=""font-size: 12px;"">Cash Deposit not available&nbsp;</span></li></ul>",0,8am to 3pm (Sat-Thu)
JAFZA Oil Fields Supply,"4cdcfbfe-458f-66de-b8c5-ff0000b6b24a,9ba214ff-458f-66de-b8c5-ff1000b6b24a,4edcfbfe-458f-66de-b8c5-ff0000b6b24a,67a214ff-458f-66de-b8c5-ff1000b6b24a,46dcfbfe-458f-66de-b8c5-ff0000b6b24a,4bdcfbfe-458f-66de-b8c5-ff0000b6b24a",,Dubai,24.976946,55.044229,/img/locator/icon-logo-34x34.png,"JAFZA Oil Fields Supply<br><p><span style=""font-size: 12px;""><strong>ATM Services:</strong></span></p><ul><li><span style=""font-size: 12px;"">Cash Withdrawal</span><br></li><li><span style=""font-size: 12px;"">Bill Payment (By account)</span></li><li><span style=""font-size: 12px;"">Fund Transfer (By account)</span></li><li><span style=""font-size: 12px;"">Cash Deposit not available&nbsp;</span></li></ul>",0,8am to 3pm (Sat-Thu)
Hatta DNRD,"9ba214ff-458f-66de-b8c5-ff1000b6b24a,67a214ff-458f-66de-b8c5-ff1000b6b24a,4edcfbfe-458f-66de-b8c5-ff0000b6b24a,46dcfbfe-458f-66de-b8c5-ff0000b6b24a,4bdcfbfe-458f-66de-b8c5-ff0000b6b24a",,,24.817904,56.131519,/img/locator/icon-logo-34x34.png,"Hatta DNRD<br><p><span style=""font-size: 12px;""><strong>ATM Services:</strong></span></p><ul><li><span style=""font-size: 12px;"">Cash Withdrawal</span><br></li><li><span style=""font-size: 12px;"">Bill Payment (By account)</span></li><li><span style=""font-size: 12px;"">Fund Transfer (By account)</span></li><li><span style=""font-size: 12px;"">Cash Deposit not available&nbsp;</span></li></ul>",0,8am to 3pm (Sat-Thu)
Al Habtoor Polo Resort & Club,"4cdcfbfe-458f-66de-b8c5-ff0000b6b24a,9ba214ff-458f-66de-b8c5-ff1000b6b24a,67a214ff-458f-66de-b8c5-ff1000b6b24a,46dcfbfe-458f-66de-b8c5-ff0000b6b24a,4bdcfbfe-458f-66de-b8c5-ff0000b6b24a",,,25.080481,55.367927,/img/locator/icon-logo-34x34.png,"Al Habtoor Polo Resort &amp; Club<br><p><span style=""font-size: 12px;""><strong>ATM Services:</strong></span></p><ul><li><span style=""font-size: 12px;"">Cash Withdrawal</span><br></li><li><span style=""font-size: 12px;"">Bill Payment (By account)</span></li><li><span style=""font-size: 12px;"">Fund Transfer (By account)</span></li><li><span style=""font-size: 12px;"">Cash Deposit not available&nbsp;</span></li></ul>",0,8am to 3pm (Sat-Thu)
Bvlgari Resort & Residence,"4cdcfbfe-458f-66de-b8c5-ff0000b6b24a,9ba214ff-458f-66de-b8c5-ff1000b6b24a,67a214ff-458f-66de-b8c5-ff1000b6b24a,46dcfbfe-458f-66de-b8c5-ff0000b6b24a,4bdcfbfe-458f-66de-b8c5-ff0000b6b24a",,Dubai,25.210213,55.236791,/img/locator/icon-logo-34x34.png,"Jumeira Bay Island, <br>Jumeirah 2<br><p><span style=""font-size: 12px;""><strong>ATM Services:</strong></span></p><ul><li><span style=""font-size: 12px;"">Cash Withdrawal</span><br></li><li><span style=""font-size: 12px;"">Bill Payment (By account)</span></li><li><span style=""font-size: 12px;"">Fund Transfer (By account)</span></li><li><span style=""font-size: 12px;"">Cash Deposit not available&nbsp;</span></li></ul>",0,8am to 3pm (Sat-Thu)
Al Sharq Health Care,"46dcfbfe-458f-66de-b8c5-ff0000b6b24a,4edcfbfe-458f-66de-b8c5-ff0000b6b24a,67a214ff-458f-66de-b8c5-ff1000b6b24a,4cdcfbfe-458f-66de-b8c5-ff0000b6b24a,9ba214ff-458f-66de-b8c5-ff1000b6b24a",,Fujairah,25.151449,56.351204,/img/locator/icon-logo-34x34.png,"Fujairah&nbsp;<br><p><span style=""font-size: 12.5px;""><strong>ATM Services:</strong>&nbsp;</span></p><ul><li><span style=""font-size: 12px;"">Cash withdrawal</span></li><li><span style=""font-size: 12px;"">Bill payment (By account)</span></li><li><span style=""font-size: 12px;"">Fund transfer (By account)</span></li><li><span style=""font-size: 12px;"">Cash Deposit (Not available)</span><br></li></ul>",0,8am to 3pm (Sat-Thu)
Emarat Petrol Station Al Ameen,"67a214ff-458f-66de-b8c5-ff1000b6b24a,4edcfbfe-458f-66de-b8c5-ff0000b6b24a,9ba214ff-458f-66de-b8c5-ff1000b6b24a,46dcfbfe-458f-66de-b8c5-ff0000b6b24a",,Dubai,25.214716,55.258586,/img/locator/icon-logo-34x34.png,"Al Ameen, Al Wasl St.<br><p><span style=""font-size: 12px;""><strong>ATM Services:</strong></span></p><ul><li><span style=""font-size: 12px;"">Cash Withdrawal</span><br></li><li><span style=""font-size: 12px;"">Bill Payment (By account)</span></li><li><span style=""font-size: 12px;"">Fund Transfer (By account)</span></li><li><span style=""font-size: 12px;"">Cash Deposit not available&nbsp;</span></li></ul>",0,8am to 3pm (Sat-Thu)
Habtoor Staff Accomodation,"67a214ff-458f-66de-b8c5-ff1000b6b24a,4edcfbfe-458f-66de-b8c5-ff0000b6b24a,9ba214ff-458f-66de-b8c5-ff1000b6b24a,4cdcfbfe-458f-66de-b8c5-ff0000b6b24a,46dcfbfe-458f-66de-b8c5-ff0000b6b24a",,Dubai,25.2048493,55.2707828,/img/locator/icon-logo-34x34.png,"Dubai Production City<br><p><span style=""font-size: 12px;""><strong>ATM Services:</strong></span></p><ul><li><span style=""font-size: 12px;"">Cash Withdrawal</span><br></li><li><span style=""font-size: 12px;"">Bill Payment (By account)</span></li><li><span style=""font-size: 12px;"">Fund Transfer (By account)</span></li></ul>",0,8am to 3pm (Sat-Thu)
