atmid,country,city,branch,location,latitude,longitude,branchtype,timings,facilities,pobox,phone,fax,insdate
,United Arab Emirates,Abu Dhabi,ADCB Mortgage Centre,"Unit 902 & 903, Business Avenue Tower (9th floor), Al Faymah Street, Abu Dhabi ",24.49155101,54.3761957,MortgageCentre,08:00 AM - 03:00 PM Monday to Thursday & Saturday <br/>​08:00 AM - 12:00 PM on Friday <br/>Closed on Sunday,Assistance for customers throughout the entire Mortgage journey from instant digital pre-approval to post-disbursement support.,,,,01/01/0001
101,United Arab Emirates,Abu Dhabi,ADCB Head Office Branch ATMs ,"Sheikh Zayed Bin Sultan Street, ADCB Building",24.493104,54.374589,ATM,,Cash Withdrawal / Cash Deposit / Cheque Deposit,,600 50 2030,,01/01/0001
101,United Arab Emirates,Abu Dhabi,ADCB Head Office Branch,"Zayed the first street at the intersection with Sheikh Zayed Road, ADCB building",24.493104,54.374589,Branch,08:00 AM - 03:00 PM Monday to Thursday & Saturday <br/>​08:00 AM - 12:00 PM on Friday <br/>Closed on Sunday,"Teller Transactions / Customer Service / SME Center / Excellency Center / Safe Deposit Lockers Service / ATM Services (Cash withdrawals, Cash & Cheque Deposits)",2934 Abu Dhabi,+971 2 6962600,,01/01/0001
101,United Arab Emirates,Abu Dhabi,Head Office Excellency Centre  ,"Zayed the first street at the intersection with Sheikh Zayed Road, ADCB building - Mezzanine floor",24.493104,54.374589,Excellency,08:00 AM - 03:00 PM Monday to Thursday & Saturday <br/>​08:00 AM - 12:00 PM on Friday <br/>Closed on Sunday,"Teller Transaction / Customer Service / ATM Services (Cash withdrawals, Cash & Cheque Deposits)",939 Abu Dhabi,600 50 2004,,01/01/0001
100219,United Arab Emirates,Abu Dhabi,"ADCB Private Banking Center, Abu Dhabi","Abu Dhabi Global Market, Al Sila Tower, 10th Floor , Al Maryah Island",24.501099,54.3885360,Private,08:00 AM - 03:00 PM Monday to Thursday <br/>08:00 AM - 12:00 PM on Friday <br/>Closed on Saturday and Sunday,All private banking services except cash transactions,,600 50 2322,,01/01/0001
104,United Arab Emirates,Abu Dhabi,Al Hosn Branch ATMs,"Remah Tower, Zayed the First Street, Abu Dhabi",24.478962,54.354263,ATM,,Cash Withdrawal / Cash Deposit / Cheque Deposit,,600 50 2030,,01/01/0001
104,United Arab Emirates,Abu Dhabi,Al Hosn Branch ,"Remah Tower, Zayed the First Street, Abu Dhabi",24.478962,54.354263,Branch,08:00 AM - 03:00 PM Monday to Thursday & Saturday <br/>​08:00 AM - 12:00 PM on Friday <br/>Closed on Sunday,"Teller Transaction / Customer Service / ATM Services (Cash withdrawals, Cash & Cheque Deposits)",2832 Abu Dhabi,+971 2 4067500,,01/01/0001
106,United Arab Emirates,Abu Dhabi,Khalidiya Mall Branch ATMs ,"Al Khalidiya, Mubarak Bin Mohammed Street, Khalidiya Mall, Ground level",24.470256,54.351511,ATM,,Cash Withdrawal / Cash Deposit / Cheque Deposit,,600 50 2030,,01/01/0001
106,United Arab Emirates,Abu Dhabi,Khalidiya Mall Branch,"Al Khalidiya, Mubarak Bin Mohammed Street, Khalidiya Mall, Ground level",24.470256,54.351511,Branch,10:00 AM - 09:00 PM Monday to Thursday & Saturday <br/> 03:00 PM - 09:00 PM on Friday<br/> Closed on Sunday,"Teller Transaction / Customer Service / ATM Services (Cash withdrawals, Cash & Cheque Deposits)",29923 Abu Dhabi,+971 2 5016350,,01/01/0001
107,United Arab Emirates,Abu Dhabi,Abu Dhabi Exhibition Center (ADNEC) Branch ATMs ,"ADNEC Area, Abu Dhabi One Tower, Ground level",24.420002,54.442854,ATM,,Cash Withdrawal / Cash Deposit / Cheque Deposit,,600 50 2030,,01/01/0001
1092,United Arab Emirates,Abu Dhabi,ADNOC Station - Al Samah,"Sheikh Zayed Road, Al Samha, Station ID 887, Samha area from Abu Dhabi to Dubai",24.669687,54.762404,ATM,,Cash Withdrawal,,600 50 2030,,01/01/0001
1093,United Arab Emirates,Abu Dhabi,Al Qana Maqtaa,"Al Qana, Al Maqta, Abu Dhabi",24.401936473824,54.4972700120345,ATM,,Cash Withdrawal,,600 50 2030,,01/01/0001
1096,United Arab Emirates,Abu Dhabi,Khalifa Medical Center,"Al Karamah Street, Sheikh Khalifa Medical City ",24.469191,54.36385,ATM,,Cash Withdrawal,,600 50 2030,,01/01/0001
1098,United Arab Emirates,Abu Dhabi,Najda Street,"Fatima Bint Mubarak Street, Near La Brioche",24.484564,54.375214,ATM,,Cash Withdrawal,,600 50 2030,,01/01/0001
113,United Arab Emirates,Abu Dhabi,GASCO Head Office Branch ATMs ,"Al Danah, Khalifa Bin Zayed Street, Sheikh Khalifa Energy Complex, Ground level",24.497761,54.366612,ATM,,Cash Withdrawal / Cash Deposit / Cheque Deposit,,600 50 2030,,01/01/0001
113,United Arab Emirates,Abu Dhabi,GASCO Head Office Branch,"Al Danah, Khalifa Bin Zayed Street, Sheikh Khalifa Energy Complex, Ground level",24.497761,54.366612,Branch,08:00 AM - 03:00 PM Monday to Thursday <br/>08:00 AM - 12:00 PM on Friday <br/>Closed on Saturday and Sunday,"Teller Transaction / Customer Service / ATM Services (Cash withdrawals, Cash & Cheque Deposits)",48332 Abu Dhabi,+971 2 4067555,,01/01/0001
1194,United Arab Emirates,Abu Dhabi,ADNOC Station - Al Mirfa City,"Al Mirfa area, ADNOC 746 - Al Mirfa",24.0869079,53.483265,ATM,,Cash Withdrawal,,600 50 2030,,01/01/0001
1195,United Arab Emirates,Abu Dhabi,ADNOC Station - Al Marfaq ,"ADNOC 171 Al Mafraq, Sheikh Maktoum Bin Rashid Road, Opposite Mafraq Hospital، Baniyas East - Abu Dhabi",24.3210298,54.6107723,ATM,,Cash Withdrawal,,600 50 2030,,01/01/0001
152,United Arab Emirates,Abu Dhabi,Zayed Town Branch ATMs ,"Madinat Zayed, Tarif -Liwa Road, ADCB Building",23.659708,53.701574,ATM,,Cash Withdrawal / Cash Deposit / Cheque Deposit,,600 50 2030,,01/01/0001
152,United Arab Emirates,Abu Dhabi,Madinat Zayed Branch,"Madinat Zayed, Tarif -Liwa Road, ADCB Building",23.659708,53.7015740,Branch,08:00 AM - 03:00 PM Monday to Thursday & Saturday <br/>​08:00 AM - 12:00 PM on Friday <br/>Closed on Sunday,"Teller Transaction / Customer Service / ATM Services (Cash withdrawals, Cash & Cheque Deposits)",50013 Abu Dhabi,+971 2 6148350,,01/01/0001
153,United Arab Emirates,Abu Dhabi,Al Shahama Branch ATMs ,Sheikh Maktoum Bin Rashid Road -Dubai-Abu Dhabi road - ADCB Building,24.5539139,54.6940797,ATM,,Cash Withdrawal / Cash Deposit / Cheque Deposit,,600 50 2030,,01/01/0001
153,United Arab Emirates,Abu Dhabi,Al Shahama Branch,"Sheikh Maktoum Bin Rashid Road -Dubai-Abu Dhabi road, ADCB Building",24.5539139,54.6940797,Branch,08:00 AM - 03:00 PM Monday to Thursday & Saturday <br/>​08:00 AM - 12:00 PM on Friday <br/>Closed on Sunday,"Teller Transaction / Customer Service / ATM Services (Cash withdrawals, Cash & Cheque Deposits)",76122 Abu Dhabi,+971 2 5016200,,01/01/0001
154,United Arab Emirates,Abu Dhabi,Ruwais Branch ATMs ,"Al Ruwais City, Ruwais Housing Complex, Central Market, Sheikh Zayed Road",24.088663,52.648450,ATM,,Cash Withdrawal / Cash Deposit / Cheque Deposit,,600 50 2030,,01/01/0001
154,United Arab Emirates,Abu Dhabi,Ruwais Branch,"Al Ruwais City, Ruwais Housing Complex, Central Market, Sheikh Zayed Road",24.088663,52.648450,Branch,08:00 AM - 03:00 PM Monday to Thursday & Saturday <br/>​08:00 AM - 12:00 PM on Friday <br/>Closed on Sunday,"Teller Transaction / Customer Service / ATM Services (Cash withdrawals, Cash & Cheque Deposits)",11851 Abu Dhabi,+971 2 6148375,,01/01/0001
155,United Arab Emirates,Abu Dhabi,Mussafah Branch ATMs ,"Mussaffah, Mussaffah Industrial area - M2, ADCB Building",24.3777,54.5223,ATM,,Cash Withdrawal / Cash Deposit / Cheque Deposit,,600 50 2030,,01/01/0001
155,United Arab Emirates,Abu Dhabi,Mussafah Branch,"Mussaffah, Mussaffah Industrial area - M2, ADCB Building",24.3777,54.5223,Branch,08:00 AM - 03:00 PM Monday to Thursday & Saturday <br/>​08:00 AM - 12:00 PM on Friday <br/>Closed on Sunday,"Teller Transaction / Customer Service / ATM Services (Cash withdrawals, Cash & Cheque Deposits)",9331 Abu Dhabi,+971 2 4014550,,01/01/0001
156,United Arab Emirates,Abu Dhabi,Gayathi Branch ATMs ,"Al Ruwais Road, Near Gayathi Ahalia Medical Centre, Al Gayathi Area",23.8430112,52.8084331,ATM,,Cash Withdrawal / Cash Deposit / Cheque Deposit,,600 50 2030,,01/01/0001
156,United Arab Emirates,Abu Dhabi,Gayathi Branch,"Al Ruwais Road, Near Gayathi Ahalia Medical Centre, Al Gayathi Area",23.8430112,52.8084331,Branch,08:00 AM - 03:00 PM Monday to Thursday & Saturday <br/>​08:00 AM - 12:00 PM on Friday <br/>Closed on Sunday,"Teller Transaction / Customer Service / ATM Services (Cash withdrawals, Cash & Cheque Deposits)",77731 Abu Dhabi,+971 2 6148325,,01/01/0001
157,United Arab Emirates,Abu Dhabi,Baya Al Sila Branch ATMs ,"Al Sila'a, Abu Dhabi - Ghweifat Highway, Near Tam Centre, ADCB Building",24.061081,51.762096,ATM,,Cash Withdrawal / Cash Deposit / Cheque Deposit,,600 50 2030,,01/01/0001
157,United Arab Emirates,Abu Dhabi,Baya Al Sila Branch,"Al Sila'a, Abu Dhabi - Ghweifat Highway, Near Tam Centre, ADCB Building",24.061081,51.762096,Branch,08:00 AM - 01:30 PM Monday to Thursday & Saturday <br/>​08:00 AM - 12:00 PM on Friday <br/>Closed on Sunday,"Teller Transaction / Customer Service / ATM Services (Cash withdrawals, Cash & Cheque Deposits)",76889 Abu Dhabi,+971 2 6148275,,01/01/0001
158,United Arab Emirates,Abu Dhabi,Dalma Mall Branch ATMs ,"Musaffah Main road, Al Wazn Street, Dalma Mall First  Floor",24.3331,54.5239,ATM,,Cash Withdrawal / Cash Deposit / Cheque Deposit,,600 50 2030,,01/01/0001
158,United Arab Emirates,Abu Dhabi,Dalma Mall Branch,"Musaffah Main road, Al Wazn Street, Dalma Mall, First  Floor",24.3331,54.5239,Branch,10:00 AM - 09:00 PM Monday to Thursday & Saturday <br/> 03:00 PM - 09:00 PM on Friday<br/> Closed on Sunday,"Teller Transaction / Customer Service / ATM Services (Cash withdrawals, Cash & Cheque Deposits)",39260 Abu Dhabi,+971 2 6591350,,01/01/0001
159,United Arab Emirates,Abu Dhabi,Khalifa City A Branch ATMs ,"Khalifa City A, Villa 4, 16th Street South East 1, next to Al Hilal Bank",24.406679,54.569199,ATM,,Cash Withdrawal / Cash Deposit / Cheque Deposit,,600 50 2030,,01/01/0001
159,United Arab Emirates,Abu Dhabi,Khalifa City A Branch,"Khalifa City A, Villa 4, 16th Street South East 1, next to Al Hilal Bank",24.425929,54.565077,Branch,08:00 AM - 03:00 PM Monday to Thursday & Saturday <br/>​08:00 AM - 12:00 PM on Friday <br/>Closed on Sunday,"Teller Transaction / Customer Service / ATM Services (Cash withdrawals, Cash & Cheque Deposits)",46604 Abu Dhabi,+971 2 6591300,,01/01/0001
159,United Arab Emirates,Abu Dhabi,Khalifa City A Excellency Centre,"Khalifa City A, Villa 4, 16th Street South East 1, next to Al Hilal Bank - Mezzanine floor",24.425929,54.565077,Excellency,08:00 AM - 03:00 PM Monday to Thursday & Saturday <br/>​08:00 AM - 12:00 PM on Friday <br/>Closed on Sunday,"Teller Transaction / Customer Service / ATM Services (Cash withdrawals, Cash & Cheque Deposits)",46604 Abu Dhabi,600 50 2004,,01/01/0001
161,United Arab Emirates,Abu Dhabi,Al Nahyan Camp Branch ATMs ,"Dalma Street, Behind Al Nahyan Military Camp, Al Nahyan Camp area - ADCB Building",24.4667098,54.3841853,ATM,,Cash Withdrawal / Cash Deposit / Cheque Deposit,,600 50 2030,,01/01/0001
161,United Arab Emirates,Abu Dhabi,Al Nahyan Camp Branch,"Dalma Street, Behind Al Nahyan Military Camp, Al Nahyan Camp area, ADCB Building",24.4667098,54.3841853,Branch,08:00 AM - 03:00 PM Monday to Thursday & Saturday <br/>​08:00 AM - 12:00 PM on Friday <br/>Closed on Sunday,"Teller Transaction / Customer Service / ATM Services (Cash withdrawals, Cash & Cheque Deposits)",111486 Abu Dhabi,+971 2 4937000,,01/01/0001
162,United Arab Emirates,Abu Dhabi,Abu Dhabi Mall Branch ATMs ,"Al Zahiyah, Al Miyani Street, Tourist Club area, Abu Dhabi Mall Ground level next to main entrance ",24.495759,54.383129,ATM,,Cash Withdrawal / Cash Deposit / Cheque Deposit,,600 50 2030,,01/01/0001
162,United Arab Emirates,Abu Dhabi,Abu Dhabi Mall Branch,"Al Zahiyah, Al Miyani Street, Tourist Club area, Abu Dhabi Mall, Ground level next to main entrance",24.495759,54.383129,Branch,10:00 AM - 09:00 PM Monday to Thursday & Saturday <br/> 03:00 PM - 09:00 PM on Friday<br/> Closed on Sunday,"Teller Transaction / Customer Service / ATM Services (Cash withdrawals, Cash & Cheque Deposits)",939 Abu Dhabi,+971 2 6968400,,01/01/0001
163,United Arab Emirates,Abu Dhabi,Bawabat Al Sharq Mall Branch ATMs ,"Baniyas City, 6th street, Bawabat Al Sharq Mall,  Ground floor next to the west entrance",24.312138,54.620681,ATM,,Cash Withdrawal / Cash Deposit / Cheque Deposit,,600 50 2030,,01/01/0001
163,United Arab Emirates,Abu Dhabi,Bawabat Al Sharq Mall Branch,"Baniyas City, 6th street, Bawabat Al Sharq Mall,  Ground floor next to the west entrance",24.312138,54.620681,Branch,10:00 AM - 09:00 PM Monday to Thursday & Saturday <br/> 03:00 PM - 09:00 PM on Friday<br/> Closed on Sunday,"Teller Transaction / Customer Service / ATM Services (Cash withdrawals, Cash & Cheque Deposits)",60870 Abu Dhabi,+971 2 5016250,,01/01/0001
,United Arab Emirates,Abu Dhabi,Khalidiya Tower ATMs,"Khalidiya Towers, Building # 1, Corniche street, Opposite to Emirates Palace Hotel",24.457835,54.3198500,ATM,,Cash Withdrawal / Cash Deposit / Cheque Deposit,,600 50 2030,,01/01/0001
165,United Arab Emirates,Abu Dhabi,Abu Dhabi Investment Authority (ADIA) Branch ATMs ,"Corniche Street, ADIA Tower, Ground level, Corniche area",24.485674,54.351726,ATM,,Cash Withdrawal / Cash Deposit / Cheque Deposit,,600 50 2030,,01/01/0001
165,United Arab Emirates,Abu Dhabi,Abu Dhabi Investment Authority (ADIA) Branch,"Corniche Street, ADIA Tower, Ground level, Corniche area",24.485674,54.351726,Branch,08:00 AM - 03:00 PM Monday to Thursday <br/>08:00 AM - 12:00 PM on Friday <br/>Closed on Saturday and Sunday,"Teller Transaction / Customer Service / ATM Services (Cash withdrawals, Cash & Cheque Deposits)",939 Abu Dhabi,+971 2 4067600,,01/01/0001
,United Arab Emirates,Abu Dhabi,Galleria Mall,"Al Mariyah island, Galleria Mall Level 2 near Caribou café, Al Mariyah Island",24.49844,54.3891260,ATM,,Cash Withdrawal / Cash Deposit / Cheque Deposit,,600 50 2030,,01/01/0001
166,United Arab Emirates,Abu Dhabi,Reem Mall Branch,"Reem Mall, Ground floor, Al Reem Island, Abu Dhabi",24.4893,54.4009000,Branch,10:00 AM - 09:00 PM Monday to Thursday & Saturday <br/> 03:00 PM - 09:00 PM on Friday<br/> Closed on Sunday,"Customer Service / ATM Services (Cash withdrawals, Cash & Cheque Deposits)",6508 Abu Dhabi,+971 2 6148150,,01/01/0001
167,United Arab Emirates,Abu Dhabi,Yas Mall Branch ATMs ,"Sheikh Khalifa Bin Zayed Highway, , Yas Mall Ground Floor next to Carrefour, Yas Island area",24.488476,54.608874,ATM,,Cash Withdrawal / Cash Deposit / Cheque Deposit,,600 50 2030,,01/01/0001
167,United Arab Emirates,Abu Dhabi,Yas Mall Branch,"Sheikh Khalifa Bin Zayed Highway, , Yas Mall Ground floor, Yas Island area",24.488476,54.608874,Branch,10:00 AM - 09:00 PM Monday to Thursday & Saturday <br/> 03:00 PM - 09:00 PM on Friday<br/> Closed on Sunday,"Teller Transaction / Customer Service / ATM Services (Cash withdrawals, Cash & Cheque Deposits)",7145 Abu Dhabi,+971 2 6591200,,01/01/0001
168,United Arab Emirates,Abu Dhabi,ADGAS Branch ATMs,"Al Danah, Corniche Street, ADNOC Gas Co. Building",24.496021,54.364156,ATM,,Cash Withdrawal / Cash Deposit / Cheque Deposit,,600 50 2030,,01/01/0001
168,United Arab Emirates,Abu Dhabi,ADGAS Branch,"Al Danah, Corniche Street, ADNOC Gas Co. Building",24.496021,54.364156,Branch,08:00 AM - 03:00 PM Monday to Thursday <br/>08:00 AM - 12:00 PM on Friday <br/>Closed on Saturday and Sunday,"Teller Transaction / Customer Service / ATM Services (Cash withdrawals, Cash & Cheque Deposits)","3500, Abu Dhabi",+971 2 6941540,,01/01/0001
173,United Arab Emirates,Abu Dhabi,Al Mushrif Branch ATMs ,"Al Mushrif, Al Khaleej Al Arabi Road, Mushrif Cooperative Society, Ground floor",24.426387,54.407691,ATM,,Cash Withdrawal / Cash Deposit / Cheque Deposit,,600 50 2030,,01/01/0001
173,United Arab Emirates,Abu Dhabi,Al Mushrif Branch,"Al Mushrif, Al Khaleej Al Arabi Road, Mushrif Cooperative Society, Ground floor",24.426387,54.407691,Branch,08:00 AM - 07:00 PM Monday to Thursday & Saturday <br/>​08:00 AM - 12:00 PM on Friday<br/> Closed on Sunday,"Teller Transaction / Customer Service / ATM Services (Cash withdrawals, Cash & Cheque Deposits)",63824 Abu Dhabi,+971 2 6941530,,01/01/0001
2092,United Arab Emirates,Abu Dhabi,Yas Marina,"Building number 1, Next to Cipriani restaurant, Yas Marina, Yas Island",24.466744,54.609446,ATM,,Cash Withdrawal,,600 50 2030,,01/01/0001
2493,United Arab Emirates,Abu Dhabi,ADNOC Station - Officers City,"Khaleej Al Arabi Street, ADNOC Officers City, Mangrove Area Near Officers City",24.395873,54.50902,ATM,,Cash Withdrawal,,600 50 2030,,01/01/0001
2494,United Arab Emirates,Abu Dhabi,ADNOC Station - Mahawi,"Abu Dhabi - Alain Highway,  Mahawi, Abu Dhabi - Alain Highway",24.322325,54.588704,ATM,,Cash Withdrawal,,600 50 2030,,01/01/0001
2693,United Arab Emirates,Abu Dhabi,"Yas Marina, West Plaza","West Yas - Zone K - Yas Island, Opposite West Yas Academy",24.493119,54.586796,ATM,,Cash Withdrawal,,600 50 2030,,01/01/0001
2696,United Arab Emirates,Abu Dhabi,"Yas Mall, Cascade Dining",Located between Yas Mall and Ferrari World,24.485961,54.608502,ATM,,Cash Withdrawal,,600 50 2030,,01/01/0001
3594,United Arab Emirates,Abu Dhabi,Emirates Nuclear Energy Corporation,"Khaleej Al Arabi Street, Masdar City, Ground floor",24.426878,54.618671,ATM,,Cash Withdrawal,,600 50 2030,,01/01/0001
391,United Arab Emirates,Abu Dhabi,Carrefour  - Airport Road,"Airport Road, 1st  Level near escalators",24.423267,54.452888,ATM,,Cash Withdrawal,,600 50 2030,,01/01/0001
396,United Arab Emirates,Abu Dhabi,Abu Dhabi Coop - Abu Dhabi Mall,"Abu Dhabi Mall, Tourist Club area , Coop main Entrance",24.496707,54.382289,ATM,,Cash Withdrawal,,600 50 2030,,01/01/0001
399,United Arab Emirates,Abu Dhabi,Abu Dhabi Coop - Muroor Road ,"Muroor Street, Coop back entrance",24.433568,54.439112,ATM,,Cash Withdrawal,,600 50 2030,,01/01/0001
4098,United Arab Emirates,Abu Dhabi,Baniyas Coop,"Plot P1, Sector EB9 Bani Yas East, Abu Dhabi",24.4868291,54.4000807,ATM,,Cash Withdrawal,,600 50 2030,,01/01/0001
46,United Arab Emirates,Abu Dhabi,uBank Galleria Mall Branch,"Galleria Mall new extension, Ground Floor, Al Mariyah Island, Abu Dhabi",24.501,54.3910000,uBank,10:00 AM - 09:30 PM Monday to Thursday & Saturday <br/>03:00 PM - 09:30 PM on Friday <br/>Closed on Sunday,"Digital Banking service Center / ATM Services (Cash withdrawals, Cash & Cheque Deposits)",,+971 2 6148083,,01/01/0001
5107,United Arab Emirates,Abu Dhabi,Al Falah City,"Village no 1, Community Centre, Near to the big Mosque",24.452213,54.740724,ATM,,Cash Withdrawal,,600 50 2030,,01/01/0001
5108,United Arab Emirates,Abu Dhabi,Mussafah Police Station,"Mussafah near to Delma Mall, Abu Dhabi",24.339233,54.524891,ATM,,Cash Withdrawal,,600 50 2030,,01/01/0001
5110,United Arab Emirates,Abu Dhabi,Radisson Blu Yas Island,"Radisson Blu, Yas Plaza, Yas Island, Abu Dhabi",24.46749,54.59793,ATM,,Cash Withdrawal,,600 50 2030,,01/01/0001
5111,United Arab Emirates,Abu Dhabi,ADNOC Station - Salam,"Sheikh Zayed bin Sultan Street, Al Salam, Near Swiss Hotel",24.498069,54.372443,ATM,,Cash Withdrawal,,600 50 2030,,01/01/0001
5112,United Arab Emirates,Abu Dhabi,ADNOC Station - Souq Al Bateen,"Al Bateen Street, Souq Al Bateen, Station ID  969, Near Al Bateen Park",24.4582,54.34923,ATM,,Cash Withdrawal,,600 50 2030,,01/01/0001
5115,United Arab Emirates,Abu Dhabi,Marina Mall,"Ground Level Next to Starbucks Coffee, Corniche Road",24.476838,54.322211,ATM,,Cash Withdrawal,,600 50 2030,,01/01/0001
5119,United Arab Emirates,Abu Dhabi,NMC Hospital,Electra Street,24.483668,54.361133,ATM,,Cash Withdrawal,,600 50 2030,,01/01/0001
5120,United Arab Emirates,Abu Dhabi,Qasr Al Hosn,Rashid Bin Saeed Al Maktoum St(2nd St) - Abu Dhabi, 24.481461,54.355263,ATM,,Cash Withdrawal,,600 50 2030,,01/01/0001
5121,United Arab Emirates,Abu Dhabi,"Souk Planet, Etihad Plaza","Etihad Plaza, Khalifa City A",24.442300,54.607250,ATM,,Cash Withdrawal,,600 50 2030,,01/01/0001
5124,United Arab Emirates,Abu Dhabi,Abu Dhabi Commercial Properties,"Tourist Club Area, Near Al Majid Motors showroom",24.493083,54.378328,ATM,,Cash Withdrawal / Cash Deposit / Cheque Deposit,,600 50 2030,,01/01/0001
5130,United Arab Emirates,Abu Dhabi,Rabdan Mall,"Between the two bridges area, Al Maqaa Area",24.407382,54.5061240,ATM,,Cash Withdrawal / Cash Deposit,,600 50 2030,,01/01/0001
5136,United Arab Emirates,Abu Dhabi,Rixos Marina Hotel,"Rixos Marina Abu Dhabi, Ring Road Marina, Abu Dhabi",24.4807067,54.32207205,ATM,,Cash Withdrawal,,600 50 2030,,01/01/0001
5143,United Arab Emirates,Abu Dhabi,Al Falah Plaza,"Ground Level, Muroor Road, Al Dhafrah area",24.478371,54.372153,ATM,,Cash Withdrawal,,600 50 2030,,01/01/0001
5148,United Arab Emirates,Abu Dhabi,Al Wahda Mall,"Ground level, Lulu Hypermarket main entrance, Hazza Bin Zayed St",24.470393,54.372389,ATM,,Cash Withdrawal,,600 50 2030,,01/01/0001
5164,United Arab Emirates,Abu Dhabi,Department of Culture and Tourism,"Located in Nation Tower, Building B in Corniche area and ATM will be installed in 9th floor",24.464095,54.328266,ATM,,Cash Withdrawal,,600 50 2030,,01/01/0001
5168,United Arab Emirates,Abu Dhabi,The Crown Prince Court,"King Abdulla Al Saood Street, Al Bateen area",24.454455,54.345084,ATM,,Cash Withdrawal,,600 50 2030,,01/01/0001
5170,United Arab Emirates,Abu Dhabi,Ruwais Housing Complex,"Ruwais housing complex, Near Fardan Exchange",24.071865,52.652299,ATM,,Cash Withdrawal,,600 50 2030,,01/01/0001
5180,United Arab Emirates,Abu Dhabi,"Earth SuperMarket, Mohamed Bin Zayed City","Mohamed Bin Zayed City, near Emirates National School",24.363734,54.551616,ATM,,Cash Withdrawal,,600 50 2030,,01/01/0001
5181,United Arab Emirates,Abu Dhabi,ATM Service Center - ADCB Securities,"Sheikh Zayed Bin Sultan Street, Next to ADNOC Distribution Company Building",24.49243,54.3754800,ATM,,Cash Withdrawal / Cash Deposit / Cheque Deposit,,600 50 2030,,01/01/0001
5182,United Arab Emirates,Abu Dhabi,Hudayriyat Island,"Marsana Building 05, Al Hudayriyat Island",24.413497,54.349083,ATM,,Cash Withdrawal,,600 50 2030,,01/01/0001
5208,United Arab Emirates,Abu Dhabi,ADNOC Station - Saada,"Sheikh Rashid Bin Saeed Street, Al Sada, Station ID   918, Next to Mister Baker",24.465217,54.375747,ATM,,Cash Withdrawal,,600 50 2030,,01/01/0001
5209,United Arab Emirates,Abu Dhabi,ADNOC Technical Academy,"ADNOC Technical Academy, OJT Building Lobby, Al Shamikha",24.377526,54.686131,ATM,,Cash Withdrawal,,600 50 2030,,01/01/0001
5210,United Arab Emirates,Abu Dhabi,ADNOC Station - Yasat,"Fatima Bint Mubarak street, Al Yasat, Station ID 926, Near Al Raha Hospital ",24.489058,54.370459,ATM,,Cash Withdrawal,,600 50 2030,,01/01/0001
5212,United Arab Emirates,Abu Dhabi,ADNOC - Shamkha,"ADNOC Service Station - 726 Al Shamkha, Al Shamkha, New Baniyas – Abu Dhabi (Near Baniyas Statduim)",24.347465,54.687663,ATM,,Cash Withdrawal,,600 50 2030,,01/01/0001
5238,United Arab Emirates,Abu Dhabi,Reem Mall,"Al Reem Island, infront of carrefour - Abu Dhabi",24.486834,54.397892,ATM,,Cash Withdrawal,,600 50 2030,,01/01/0001
5239,United Arab Emirates,Abu Dhabi,Sheikh Shakhbout Medical City,"Sheikh Shakhbout Medical City, PO Box 11001, Abu Dhabi, United Arab Emirates​",24.32526,54.6136,ATM,,Cash Withdrawal,,600 50 2030,,01/01/0001
5241,United Arab Emirates,Abu Dhabi,Federal National Council,"Al Khubeirah area, Near Ministry of Justice",24.463069,54.331083,ATM,,Cash Withdrawal,,600 50 2030,,01/01/0001
5253,United Arab Emirates,Abu Dhabi,Department of Finance,"Sultan Bin Zayed the First St, Corniche, Near Emirates Hospital",24.492728,54.359215,ATM,,Cash Withdrawal,,600 50 2030,,01/01/0001
5254,United Arab Emirates,Abu Dhabi,LuLu Hypermarket - Baniyas,"Abu Dhabi - Al Ain Road, Next to Baniyas Mall, Baniyas East Area",24.296366,54.636206,ATM,,Cash Withdrawal,,600 50 2030,,01/01/0001
5255,United Arab Emirates,Abu Dhabi,ADNOC Station - Manhal,"Sheikh Rashid Bin Saeed Street, Al Manhal, Station ID  911, Near Arab Udupi restaurant",24.4747,54.366893,ATM,,Cash Withdrawal,,600 50 2030,,01/01/0001
5256,United Arab Emirates,Abu Dhabi,Mushrif Mall,"2nd level Near Lulu Hypermarket entrance, Sheikh Rashid Bin Saeed Street Al Zafranah Area",24.434794,54.41223,ATM,,Cash Withdrawal / Cash Deposit,,600 50 2030,,01/01/0001
5257,United Arab Emirates,Abu Dhabi,Carrefour - Mamsha Saadiyat,Mamsha AL Saadiyat - Carrefour - Azure -3 Building - Abu Dhabi,24.53853252,54.41296432,ATM,,Cash Withdrawal,,600 50 2030,,01/01/0001
5262,United Arab Emirates,Abu Dhabi,Al Dhafra Mall ,"Tarif-Liwa Road, Madinat Zayed, Al Dhafra Region, Abu Dhabi, Ground floor",23.63929,53.70936,ATM,,Cash Withdrawal,,600 50 2030,,01/01/0001
5265,United Arab Emirates,Abu Dhabi,Corniche Hospital,"Corniche Road, Near Sheraton Hotel",24.501528,54.369741,ATM,,Cash Withdrawal,,600 50 2030,,01/01/0001
5266,United Arab Emirates,Abu Dhabi,ADNOC Station - Baniyas Old Club,"Abu Dhabi Al Ain Road, Baniyas Old Club, Near Baniyas Sports and Cultural Club",24.30378,54.62218,ATM,,Cash Withdrawal,,600 50 2030,,01/01/0001
5267,United Arab Emirates,Abu Dhabi,ADNOC Station - Al Hayalah,"Sheikh Zayed Highway, Al Rahba, Near Deerfield Mall",24.521900,54.669690,ATM,,Cash Withdrawal,,600 50 2030,,01/01/0001
5268,United Arab Emirates,Abu Dhabi,ADNOC Station - Khalifa City - A South,"Khalifa City A , 12th Street, Near Federal Court - Ministry of Justice",24.396670,54.555700,ATM,,Cash Withdrawal,,600 50 2030,,01/01/0001
5270,United Arab Emirates,Abu Dhabi,Yas Link Golf Course,Yas Island,24.4775,54.6006,ATM,,Cash Withdrawal,,600 50 2030,,01/01/0001
5273,United Arab Emirates,Abu Dhabi,Al Raha Village Mall,"Next to entrance of Supermarket, Abu Dhabi-Al Ain Truck Road -Workers City -Al Mafraq ",24.252005,54.626452,ATM,,Cash Withdrawal,,600 50 2030,,01/01/0001
5277,United Arab Emirates,Abu Dhabi,The Westin Golf Resort and Spa,"Sheikh Zayed Bin Sultan Street, Near Abu Dhabi Golf Club",24.419586,54.529025,ATM,,Cash Withdrawal,,600 50 2030,,01/01/0001
5283,United Arab Emirates,Abu Dhabi,ADPC Khalifa Port,"ADPC Khalifa Port Documentation Centre, Sheikh Khalifa Industrial Zone",24.779581,54.708993,ATM,,Cash Withdrawal,,600 50 2030,,01/01/0001
5294,United Arab Emirates,Abu Dhabi,Abu Dhabi Coop - Mina Centre,"20th street, Mina Street, Al Mina area",24.518931,54.37187,ATM,,Cash Withdrawal,,600 50 2030,,01/01/0001
5301,United Arab Emirates,Abu Dhabi,Madinat Zayed Shopping Center,"Muroor Road, ATM near the main entrance",24.4832292,54.3668186,ATM,,Cash Withdrawal / Cash Deposit / Cheque Deposit,,600 50 2030,,01/01/0001
5302,United Arab Emirates,Abu Dhabi,Saadiyat Village,"Sheikh Khalifa Bin Zayed Highway, Saadiyat Construction Village",24.511956,54.449723,ATM,,Cash Withdrawal,,600 50 2030,,01/01/0001
5303,United Arab Emirates,Abu Dhabi,Anantara Eastern Mangroves Hotel,"Dhafeer Street, Sheikh Zayed Bin Sultan Road, Eastern Mangrove Area",24.446495,54.436918,ATM,,Cash Withdrawal,,600 50 2030,,01/01/0001
5313,United Arab Emirates,Abu Dhabi,Souq Qaryat Al Beri,"Khor Al Maqta, Al Maqta area, Next to Shangri-La Hotel",24.408841,54.490863,ATM,,Cash Withdrawal,,600 50 2030,,01/01/0001
5318,United Arab Emirates,Abu Dhabi,Etihad Towers,"Ground level near Waitrose Supermarket, Corniche Street Opposite to Emirates Palace Hotel",24.458869,54.321395,ATM,,Cash Withdrawal,,600 50 2030,,01/01/0001
5319,United Arab Emirates,Abu Dhabi,Qasr Al Sarab Desert Resort,"Um Al Zamool Hamim Road, Main Lobby area",22.900515,54.336992,ATM,,Cash Withdrawal,,600 50 2030,,01/01/0001
5320,United Arab Emirates,Abu Dhabi,Baniyas Police Station,"Sheikh Maktoum Bin Rashid Road, Near Bawabat Al Sharq Mall - 7 Al Zoud St - Abu Dhabi",24.31429311,54.61085322,ATM,,Cash Withdrawal,,600 50 2030,,01/01/0001
5322,United Arab Emirates,Abu Dhabi,Makani Mall,"Sweihan - Al Hayer Road, Al Shamkha Area",24.386756,54.722678,ATM,,Cash Withdrawal / Cash Deposit / Cheque Deposit,,600 50 2030,,01/01/0001
5326,United Arab Emirates,Abu Dhabi,Ghuwaifat Customs,"Finance Building, Abu Dhabi Ghuwaifat Highway, Ghuwaifat Check Post",24.1269547,51.619539,ATM,,Cash Withdrawal / Cash Deposit,,600 50 2030,,01/01/0001
5330,United Arab Emirates,Abu Dhabi,ADNOC Station - Khalifa Ind City ,"Sheikh Zayed Highway, Khalifa Industrial City, Station ID   662, Abu Dhabi - Dubai Highway ",24.740506,54.829862,ATM,,Cash Withdrawal,,600 50 2030,,01/01/0001
5333,United Arab Emirates,Abu Dhabi,The Galleria Mall Extensions,"The Galleria Mall, Maryah Island - next to waitrose market",24.50187,54.38874,ATM,,Cash Withdrawal,,600 50 2030,,01/01/0001
5338,United Arab Emirates,Abu Dhabi,Abu Dhabi Investment Council (ADIC),"Al Nahyan Area, Sheikh Zayed street, Al Bahr Towers",24.455578,54.40081,ATM,,Cash Withdrawal / Cash Deposit / Cheque Deposit,,600 50 2030,,01/01/0001
5341,United Arab Emirates,Abu Dhabi,Tawazun Industrial Park ,"Al Ajban, Zayed Military City, Exit 366, between Abu Dhabi and Dubai highway",24.5643631,54.8874489,ATM,,Cash Withdrawal,,600 50 2030,,01/01/0001
5343,United Arab Emirates,Abu Dhabi,ADNOC Station - Yas Island,"Sheikh Khalifa Highway, Al Falah Area",24.498982,54.587674,ATM,,Cash Withdrawal,,600 50 2030,,01/01/0001
5344,United Arab Emirates,Abu Dhabi,Yellow Duck Hypermarket,"Mussaffah, Street 28, Next to Emirates ID Office, Industrial Area",24.366586,54.519632,ATM,,Cash Withdrawal,,600 50 2030,,01/01/0001
5347,United Arab Emirates,Abu Dhabi,Tabreed Building - Masdar City,"Tabreed Building, Masdar City, PO Box 29478, Abu Dhabi",24.438193,54.614303,ATM,,Cash Withdrawal,,600 50 2030,,01/01/0001
5350,United Arab Emirates,Abu Dhabi,Saadiyat Rotana Resort & Villas,Saadiyat Island,24.541934,54.430346,ATM,,Cash Withdrawal,,600 50 2030,,01/01/0001
5351,United Arab Emirates,Abu Dhabi,Abu Dhabi Ports Company (ADPC),"Al Mina Street, Al Mina area",24.514992,54.382335,ATM,,Cash Withdrawal,,600 50 2030,,01/01/0001
5357,United Arab Emirates,Abu Dhabi,Deerfield's Town Square Mall,"Ground floor near Hypermarket, Sheikh Zayed Highway, Al Bahiya Area",24.523426,54.671423,ATM,,Cash Withdrawal,,600 50 2030,,01/01/0001
5363,United Arab Emirates,Abu Dhabi,Twofour54,Yas island Yas Bay Main Parking Entrance - Abu Dhabi,24.4608382,54.5984171,ATM,,Cash Withdrawal,,600 50 2030,,01/01/0001
5365,United Arab Emirates,Abu Dhabi,Abu Dhabi Int'l Airport T1 ,"Terminal 1, Arrival Hall Area",24.426911,54.646425,ATM,,Cash Withdrawal,,600 50 2030,,01/01/0001
5368,United Arab Emirates,Abu Dhabi,Khalifa University ,"Rashid bin Saeed al Maktoum street, Building B",24.447638,54.394855,ATM,,Cash Withdrawal,,600 50 2030,,01/01/0001
5369,United Arab Emirates,Abu Dhabi,Department of Presidential Affairs,"Corniche Street, Near Central Bank",24.458088,54.331512,ATM,,Cash Withdrawal,,600 50 2030,,01/01/0001
5370,United Arab Emirates,Abu Dhabi,Saadiyat Beach Golf Club,"Sheikh Khalifa Bin Zayed Highway, Near Retail shops",24.542536,54.438264,ATM,,Cash Withdrawal,,600 50 2030,,01/01/0001
5371,United Arab Emirates,Abu Dhabi,Novotel Hotel,"Al Khaleej Al Arabi Street, Al Maqta Area",24.431522,54.428673,ATM,,Cash Withdrawal,,600 50 2030,,01/01/0001
5374,United Arab Emirates,Abu Dhabi,The Mall World Trade Center,"Ground level opposite to House of Fraser, Khalifa Street, Al Markaziyah",24.487481,54.357305,ATM,,Cash Withdrawal / Cash Deposit,,600 50 2030,,01/01/0001
5382,United Arab Emirates,Abu Dhabi,Village Mall,"12th Street, M-24 Mussafah, Near Life care Hospital",24.366488,54.523773,ATM,,Cash Withdrawal,,600 50 2030,,01/01/0001
5386,United Arab Emirates,Abu Dhabi,New York University,"Saadiyat Marina District, Saadiyat Island",24.523914,54.434252,ATM,,Cash Withdrawal,,600 50 2030,,01/01/0001
5394,United Arab Emirates,Abu Dhabi,Emirates Driving Company,"Street no. 17 Mussaffah Industrial Area, Behind Dalma Mall",24.342092,54.520319,ATM,,Cash Withdrawal,,600 50 2030,,01/01/0001
5399,United Arab Emirates,Abu Dhabi,Al Mushrif Coop,"Khaleej Al Arabi street, Al Mushref Area",24.426129,54.408047,ATM,,Cash Withdrawal / Cash Deposit,,600 50 2030,,01/01/0001
5429,United Arab Emirates,Abu Dhabi,uBank - Yas Mall ATM,"Sheikh Khalifa Bin Zayed Highway, Yas Mall First Floor nnext to Candylicious, Yas Island",24.488476,54.608874,ATM,,Cash Withdrawal / Cash Deposit / Cheque Deposit,,600 50 2030,,01/01/0001
5430,United Arab Emirates,Abu Dhabi,ATM Service Center - Al Wahda Mall,"Hazza Bin Zayed St, Al Wahda Mall, Level 2 near BHS, Al Wahda Area",24.470393,54.3723890,ATM,,Cash Withdrawal / Cash Deposit / Cheque Deposit,,600 50 2030,,01/01/0001
5432,United Arab Emirates,Abu Dhabi,Creative Minds Store,"ADNEC Area, Abu Dhabi One Tower, Ground level, Creative Minds Shop Entrance",24.420002,54.4428540,ATM,,Cash Withdrawal / Cash Deposit / Cheque Deposit,,600 50 2030,,01/01/0001
5470,United Arab Emirates,Abu Dhabi,ICAD,Industrial City of Abu Dhabi,24.323055,54.520790,ATM,,Cash Withdrawal / Cash Deposit / Cheque Deposit,,600 50 2030,,01/01/0001
5475,United Arab Emirates,Abu Dhabi,Al Ain University - Abu Dhabi,"Al Ain University, Abu Dhabi Campus, Mohamed Bin Zayed City",24.346,54.5393000,ATM,,Cash Withdrawal,,600 50 2030,,01/01/0001
5552,United Arab Emirates,Abu Dhabi,ADAC Business Park,"Opposite Terminal 3, Near Premier Inn Abu Dhabi International Airport Hotel",24.420854,54.648099,ATM,,Cash Withdrawal / Cash Deposit,,600 50 2030,,01/01/0001
5553,United Arab Emirates,Abu Dhabi,Yas Bay Waterfront,"Level 2 beside Admin offices , Hilton Bay, Yas Island",24.459045,54.5998640,ATM,,Cash Withdrawal,,600 50 2030,,01/01/0001
5567,United Arab Emirates,Abu Dhabi,CruiseTerminal Port Zayed,"Mina area inside Port Zayed, Port Zayed",24.52931,54.379907,ATM,,Cash Withdrawal,,600 50 2030,,01/01/0001
5568,United Arab Emirates,Abu Dhabi,Al Reef Community Center,"Al Adaed Street, Building 26, Al Reef, Downtown, Next to Select Supermarket",24.455798,54.672751,ATM,,Cash Withdrawal,,600 50 2030,,01/01/0001
5569,United Arab Emirates,Abu Dhabi,NMC Royal Hospital - Khalifa City A,"16th Street Khalifa City A., Ground floor next to Elevators",24.410875,54.572029,ATM,,Cash Withdrawal,,600 50 2030,,01/01/0001
5570,United Arab Emirates,Abu Dhabi,Paragon Bay Mall,"Hazza Bin Zayed Street AL Reem Island - Abu Dhabi,Paragon Bay Mall, Opposite Carrefour ",24.494243,54.4068603,ATM,,Cash Withdrawal / Cash Deposit / Cheque Deposit,,600 50 2030,,01/01/0001
5571,United Arab Emirates,Abu Dhabi,Etihad Catering,"Catering building, Ground level, next to Cargo Terminal",24.4252862865832,54.65010983478,ATM,,Cash Withdrawal / Cash Deposit / Cheque Deposit,,600 50 2030,,01/01/0001
5572,United Arab Emirates,Abu Dhabi,Sir Baniyas Island,"Sir Bani Yas Island, Clinic Building",24.276793,52.621247,ATM,,Cash Withdrawal,,600 50 2030,,01/01/0001
5575,United Arab Emirates,Abu Dhabi,ADNOC Station - Khalifa City - B (Shakbout City),"Khalifa City B -Shakbout City, Near Abu Dhabi Civil Defence",24.368158,54.625883,ATM,,Cash Withdrawal,,600 50 2030,,01/01/0001
5576,United Arab Emirates,Abu Dhabi,ADNOC Station - Motor World,"Al Shamkha 31st Street, Motor World, Station ID 169, Near Motor World ",24.398565,54.690243,ATM,,Cash Withdrawal,,600 50 2030,,01/01/0001
5577,United Arab Emirates,Abu Dhabi,ADNOC Station - Rabdan,"Sheikh Rashid bin Saeed Street, Abu Dhabi - Al Ain road, Rabdan, Station ID  162, Near Mushrif Mall",24.436545,54.402369,ATM,,Cash Withdrawal,,600 50 2030,,01/01/0001
5578,United Arab Emirates,Abu Dhabi,ADNOC Station - Al Manara,"Mohammed Bin Zayed City ,28th Street, Near Mezyad Mall",24.371065,54.53559,ATM,,Cash Withdrawal,,600 50 2030,,01/01/0001
5584,United Arab Emirates,Abu Dhabi,ADNOC Station - Abu Dhabi Corniche,"6th Street, Corniche Road, Station ID Corniche Road  933, Near Roseberry Supermarket",24.466607,54.333256,ATM,,Cash Withdrawal,,600 50 2030,,01/01/0001
5594,United Arab Emirates,Abu Dhabi,Index Exchange - Mussafah ,"M-40, Mussafah Industrial ",24.351426,54.4855410,ATM,,Cash Withdrawal,,600 50 2030,,01/01/0001
5595,United Arab Emirates,Abu Dhabi,Al Seef Village Mall,Al Seef Village Mall Ground floor near Carrefour shopfront - Al Muntazah - Zone 1 - Abu Dhabi,24.435700,54.455700,ATM,,Cash Withdrawal,,600 50 2030,,01/01/0001
5596,United Arab Emirates,Abu Dhabi,Lifecare Hospital,"Mussaffah M-24, Near Village Mall",24.36083,54.52089,ATM,,Cash Withdrawal,,600 50 2030,,01/01/0001
5597,United Arab Emirates,Abu Dhabi,Mamoorah Tower B,"Plot 18_19 E25, Al Nahyan Area, Al Muroor Road, Delma (15th) Street.",24.464031,54.3876000,ATM,,Cash Withdrawal,,600 50 2030,,01/01/0001
5599,United Arab Emirates,Abu Dhabi,ADNOC HQ,"Corniche Road, ADNOC HQ Building",24.461848,54.324335,ATM,,Cash Withdrawal / Cash Deposit,,600 50 2030,,01/01/0001
5650,United Arab Emirates,Abu Dhabi,Capital Mall,"Zone 9B, Ground Floor, Capital Mall, Mohamed Ben Zayed City, Abu Dhabi, UAE",24.375851,54.530247,ATM,,Cash Withdrawal,,600 50 2030,,01/01/0001
5701,United Arab Emirates,Abu Dhabi,Mafraq Center,"Mafraq Center, East 8, Baniyas",24.258783,54.62538,ATM,,Cash Withdrawal,,600 50 2030,,01/01/0001
5703,United Arab Emirates,Abu Dhabi,Mariyah Mall,"Al Mariah Mall, Fatima Bint Mubarak Street ",24.4939471,54.3673397,ATM,,Cash Withdrawal,,600 50 2030,,01/01/0001
5706,United Arab Emirates,Abu Dhabi,Central Mall,"Central Mall, Khalifa City A",24.411688,54.590377,ATM,,Cash Withdrawal,,600 50 2030,,01/01/0001
5708,United Arab Emirates,Abu Dhabi,ICAD Mall,"M42, Street 11, Mussafah",24.339067,54.489446,ATM,,Cash Withdrawal,,600 50 2030,,01/01/0001
5709,United Arab Emirates,Abu Dhabi,Parco Mall,"Al Istinarah Street, Al Mafraq",24.259944,54.630412,ATM,,Cash Withdrawal,,600 50 2030,,01/01/0001
5713,United Arab Emirates,Abu Dhabi,Index Exchange - Hamdan Street,"Hamdan Street, Opposite Liwa Centre",24.488365,54.360808,ATM,,Cash Withdrawal / Cash Deposit / Cheque Deposit,,600 50 2030,,01/01/0001
5714,United Arab Emirates,Abu Dhabi,Al Forsan Central Mall,4 Abdulrahman Bin 'Awf St - Khalifa City - Sector 33 - Abu Dhabi,24.41071453,54.56518762,ATM,,Cash Withdrawal,,600 50 2030,,01/01/0001
5715,United Arab Emirates,Abu Dhabi,Rostamani Exchange - TCA,"Ramee Hotel (Ground Floor), Behind Al Salama Hospital, Hamdan Street UAE",24.500444,54.374813,ATM,,Cash Withdrawal,,600 50 2030,,01/01/0001
5717,United Arab Emirates,Abu Dhabi,Dhafra Worker Village,"Plot # 29, ICAD III, Mussafah.",24.312823,54.497547,ATM,,Cash Withdrawal,,600 50 2030,,01/01/0001
5718,United Arab Emirates,Abu Dhabi,"The Courtyard Mall, Riyadh City","Al Khayr Street, Madinat Al Riyad",24.327381,54.749419,ATM,,Cash Withdrawal,,600 50 2030,,01/01/0001
5721,United Arab Emirates,Abu Dhabi,LuLu Hypermarket - Madinat Zayed Shopping Centre,"Madinat Zayed shopping center, Sultan Bin Zayed the First Street",24.482819,54.365669,ATM,,Cash Withdrawal,,600 50 2030,,01/01/0001
5722,United Arab Emirates,Abu Dhabi,Burjeel Hospital,Al Najdah Street,24.47895,54.38075,ATM,,Cash Withdrawal,,600 50 2030,,01/01/0001
5731,United Arab Emirates,Abu Dhabi,"Emirates Al Madina, ICAD","11th Street, ICAD Gate 1.",24.34082,54.49082,ATM,,Cash Withdrawal,,600 50 2030,,01/01/0001
5735,United Arab Emirates,Abu Dhabi,LuLu Express - Shawamekh,Shawamekh - Abu Dhabi,24.35237,54.64845,ATM,,Cash Withdrawal,,600 50 2030,,01/01/0001
5736,United Arab Emirates,Abu Dhabi,Safeer Center,"M'areej Street, Mussafah",24.3427,54.5299,ATM,,Cash Withdrawal,,600 50 2030,,01/01/0001
5738,United Arab Emirates,Abu Dhabi,West Mart Hyper Market - Ghayathi,"Ghayathi Industrial Area, Ghayathi - Al Ruwais Road, Abu Dhabi",23.91442,52.80363,ATM,,Cash Withdrawal,,600 50 2030,,01/01/0001
5741,United Arab Emirates,Abu Dhabi,Royal M Hotel & Resorts,Al Bateen Marina King Abdullah Bin Abdulaziz Al Saud Street - Al Quffal Street ,24.44849,54.337891,ATM,,Cash Withdrawal,,600 50 2030,,01/01/0001
5742,United Arab Emirates,Abu Dhabi,Le Royal Meridian,"Le Royal Meridian Hotel, Abu Dhabi, Khalifa Street ",24.495889,54.366454,ATM,,Cash Withdrawal,,600 50 2030,,01/01/0001
5743,United Arab Emirates,Abu Dhabi,Emirates Center for Research & Strategies Study,"Emirates Center for Research & Strategic Study, Murror Road",24.457097,54.394213,ATM,,Cash Withdrawal,,600 50 2030,,01/01/0001
5744,United Arab Emirates,Abu Dhabi,Nation Tower Mall,"Level 1 Nation Tower Mall, Abu Dhabi Corniche ",24.464788,54.328962,ATM,,Cash Withdrawal,,600 50 2030,,01/01/0001
5746,United Arab Emirates,Abu Dhabi,Mamoorah Tower A,Mamoorah Tower A- Office entrance ,24.463409,54.387999,ATM,,Cash Withdrawal,,600 50 2030,,01/01/0001
5747,United Arab Emirates,Abu Dhabi,Cleveland Clinic,Mariyah Island,24.497312,54.389156,ATM,,Cash Withdrawal,,600 50 2030,,01/01/0001
5759,United Arab Emirates,Abu Dhabi,Emirates College for Advanced Education (ECAE)- Khalifa A City,Khalifa A City - Khalifa City SE-43 - Abu Dhabi,24.420397,54.5942734,ATM,,Cash Withdrawal,,600 50 2030,,01/01/0001
5760,United Arab Emirates,Abu Dhabi,Yash 6 Ruwais,"Building 1-8, Aminity Building, Ruwais - Road - Abu Dhabi",24.07195,52.67623,ATM,,Cash Withdrawal,,600 50 2030,,01/01/0001
67,United Arab Emirates,Abu Dhabi,uBank Yas Mall Branch,"Sheikh Khalifa Bin Zayed Highway, Yas Mall First Floor nnext to Candylicious, Yas Island",24.488476,54.608874,uBank,10:00 AM - 09:30 PM Monday to Thursday & Saturday <br/>03:00 PM - 09:30 PM on Friday <br/>Closed on Sunday,"Digital Banking service Center / ATM Services (Cash withdrawals, Cash & Cheque Deposits)",,+971 2 6591244,,01/01/0001
68,United Arab Emirates,Abu Dhabi,uBank Al Wahda Mall Branch,"Al Wahda Mall, Hazza Bin Zayed Street, Level 2",24.470393,54.372389,uBank,10:00 AM - 09:30 PM Monday to Thursday & Saturday <br/>03:00 PM - 09:30 PM on Friday <br/>Closed on Sunday,"Digital Banking service Center / ATM Services (Cash withdrawals, Cash & Cheque Deposits)",,+971 2 6591212,,01/01/0001
,United Arab Emirates,Abu Dhabi,ADCB ATM Service Center - Baniyas Town,"Abu Dhabi Al Ain Road, ADCB - Old branch location",24.297242,54.6284760,ATM,,Cash Withdrawal / Cash Deposit / Cheque Deposit,,600 50 2030,,01/01/0001
,United Arab Emirates,Abu Dhabi,ATM Service Centre – Mohamed Bin Zayed City ,"Mussafah, 16th Street, Dhababa Saif Al Mashghoni Building,  Mohammad Bin zayed City (East) 10",24.3331,54.5313000,ATM,,Cash Withdrawal / Cash Deposit / Cheque Deposit,,600 50 2030,,01/01/0001
,United Arab Emirates,Abu Dhabi,uBank Galleria Mall ATMs,"Galleria Mall new extension, Ground Floor, Al Mariyah Island, Abu Dhabi",24.501,54.3910000,ATM,,Cash Withdrawal / Cash Deposit / Cheque Deposit,,600 50 2030,,01/01/0001
,United Arab Emirates,Abu Dhabi,Reem Mall Branch ATMs,"Reem Mall, Ground floor, Al Reem Island, Abu Dhabi",24.4893,54.4009000,ATM,,Cash Withdrawal / Cash Deposit / Cheque Deposit,,600 50 2030,,01/01/0001
,United Arab Emirates,Abu Dhabi,Khalidiya Tower Excellency Centre,"Khalidiya Towers, Building 1, Corniche street, Opposite to Emirates Palace Hotel",24.457835,54.319850,Excellency,08:00 AM - 03:00 PM Monday to Thursday & Saturday <br/>​08:00 AM - 12:00 PM on Friday <br/>Closed on Sunday,"Teller Transaction / Customer Service / ATM Services (Cash withdrawals, Cash & Cheque Deposits)",59919 Abu Dhabi,600 50 2004,,01/01/0001
,United Arab Emirates,Abu Dhabi,Sheikh Zayed Festival,Al Wathbah - Al-Wathba South - Abu Dhabi - United Arab Emirates ,24.221655,54.6856800,ATM,,Cash Withdrawal,,600 50 2030,,01/01/0001
2694,United Arab Emirates,Ajman,City Center Ajman,"Ground level near Carrefour,  Al Ittehad Street, Al Jurf 2 Area",25.399749,55.478961,ATM,,Cash Withdrawal / Cash Deposit / Cheque Deposit,,600 50 2030,,01/01/0001
321,United Arab Emirates,Ajman,Ajman Branch ATMs ,"Al Rashidiya Area, Al Ittihad Street, ADCB Building",25.404283,55.446448,ATM,,Cash Withdrawal / Cash Deposit / Cheque Deposit,,600 50 2030,,01/01/0001
321,United Arab Emirates,Ajman,Ajman Branch,"Al Rashidiya Area, Al Ittihad Street, ADCB Building",25.404283,55.446448,Branch,08:00 AM - 03:00 PM Monday to Thursday & Saturday <br/>​08:00 AM - 12:00 PM on Friday <br/>Closed on Sunday,"Teller Transaction / Customer Service / ATM Services (Cash withdrawals, Cash & Cheque Deposits)",1843 Ajman,+971 6 5191633,,01/01/0001
322,United Arab Emirates,Ajman,Al Jurf Branch ATMs ,"Al Rawda, Sheikh Zayed Street, Al Nafoora Building",25.40548,55.50793,ATM,,Cash Withdrawal / Cash Deposit / Cheque Deposit,,600 50 2030,,01/01/0001
322,United Arab Emirates,Ajman,Al Jurf Branch,"Al Rawda, Sheikh Zayed Street, Al Nafoora Building",25.40548,55.50793,Branch,​08:00 AM - 07:00 PM Monday to Thursday & Saturday ​<br/>08:00 AM - 12:00 PM on Friday<br/> Closed on Sunday,"Teller Transaction / Customer Service / ATM Services (Cash withdrawals, Cash & Cheque Deposits)",13535 Ajman,+971 6 5193400,,01/01/0001
5129,United Arab Emirates,Ajman,Safeer Mall,"Sheikh Khalifa Bin Zayed St, Opposite Ajman University, Nuaima Area",25.393205,55.455691,ATM,,Cash Withdrawal / Cash Deposit,,600 50 2030,,01/01/0001
5195,United Arab Emirates,Ajman,Al Murad Mall,Badr St - 3 Al Nuaimia - Ajman,25.389601,55.438891,ATM,,Cash Withdrawal,,600 50 2030,,01/01/0001
5221,United Arab Emirates,Ajman,ADNOC Station - Al Deyafa-Ajman,"Sheikh Khalifa Bin Zayed St, Salem Al Qewani, Station ID 884, Near Dana Mall",25.389501,55.460443,ATM,,Cash Withdrawal,,600 50 2030,,01/01/0001
5222,United Arab Emirates,Ajman,ADNOC Station - Al Aamra,Sheikh Maktoum Bin Rashid Street - Al Amerah - Station ID 281 - Ajman,25.380536,55.5764,ATM,,Cash Withdrawal,,600 50 2030,,01/01/0001
5263,United Arab Emirates,Ajman,ADNOC Station - Al Zahra-Ajman,"Sheikh Makthoum Bin Rashid Street, Al Zahra, Near Al Safeer Hypermarket",25.397282,55.494726,ATM,,Cash Withdrawal,,600 50 2030,,01/01/0001
5332,United Arab Emirates,Ajman,Grand Mall,"Ground level at the main entrance, Sheikh Khalifa Bin Zayed Street, Al Rashidiya 3 area",25.393295,55.439049,ATM,,Cash Withdrawal,,600 50 2030,,01/01/0001
5334,United Arab Emirates,Ajman,Fine Hypermarket,"Hassan Bin Haitham Street, , Near Lucky Roundabout, Industrial area 2",25.376078,55.4767570,ATM,,Cash Withdrawal,,600 50 2030,,01/01/0001
5419,United Arab Emirates,Ajman,Ansari Exchange - Al Jurf Branch,"Shop No. 05 Ground Floor, Al Jurf Industrial 1, Ajman",25.4297,55.5237000,ATM,,Cash Withdrawal,,600 50 2030,,01/01/0001
5557,United Arab Emirates,Ajman,Fairmont Hotel,"Sheikh Humaid Bin Rashid Al Nuaimai Street, Opposite Chamber of Commerce Ajman ",25.419304,55.439108,ATM,,Cash Withdrawal,,600 50 2030,,01/01/0001
5700,United Arab Emirates,Ajman,ADNOC Station  - Al Jurf,Sheikh Mohammed bin Rashid Al Maktoum Road  - Al Hamidiya 2  - Station ID 455  - Ajman,25.41865,55.539921,ATM,,Cash Withdrawal,,600 50 2030,,01/01/0001
5711,United Arab Emirates,Ajman,Nesto Hypermarket,"Ittihad Road, Al Karama",25.396331,55.452908,ATM,,Cash Withdrawal,,600 50 2030,,01/01/0001
,United Arab Emirates,Ajman,ADCB ATM Service Center - Al Jurf,"Ajman Town Square, unit 9, Rawdha 3, Southern sector, Ajman",25.397278,55.5005560,ATM,,Cash Withdrawal / Cash Deposit / Cheque Deposit,,600 50 2030,,01/01/0001
1191,United Arab Emirates,Al Ain,ADNOC Station - Khatam,"Alain - Abu Dhabi Highway ,Al Khatam, Station ID  975, Near Al Aman Wassalama Supermarket",24.19084,54.993733,ATM,,Cash Withdrawal,,600 50 2030,,01/01/0001
1193,United Arab Emirates,Al Ain,Hazza Bin Zayed (Drive Through),"Near Gold Gym Car Park area, Hazza Bin Zayed Stadium, Zayed Al Awwal Street ",24.245325,55.71851,ATM,,Cash Withdrawal,,600 50 2030,,01/01/0001
201,United Arab Emirates,Al Ain,Al Ain Main Branch ATMs ,"Al Mutawaa Area, Hessa Bint Mohammed Street, ADCB Building",24.216286,55.759177,ATM,,Cash Withdrawal / Cash Deposit / Cheque Deposit,,600 50 2030,,01/01/0001
201,United Arab Emirates,Al Ain,Al Ain Main Branch,"Al Mutawaa Area, Hessa Bint Mohammed Street, ADCB Building",24.216286,55.759177,Branch,08:00 AM - 03:00 PM Monday to Thursday & Saturday <br/>​08:00 AM - 12:00 PM on Friday <br/>Closed on Sunday,"Teller Transactions / Customer Service / Excellency Center / Safe Deposit Lockers Service  / ATM Services (Cash withdrawals, Cash & Cheque Deposits)",15180 Abu Dhabi,+971 3 7031800,,01/01/0001
201,United Arab Emirates,Al Ain,Al Ain Main Excellency Centre,"Al Mutawaa Area, Hessa Bint Mohammed Street, ADCB Building",24.216286,55.759177,Excellency,08:00 AM - 03:00 PM Monday to Thursday & Saturday <br/>​08:00 AM - 12:00 PM on Friday <br/>Closed on Sunday,"Teller Transaction / Customer Service / ATM Services (Cash withdrawals, Cash & Cheque Deposits)",15180 Abu Dhabi,600 50 2004,,01/01/0001
205,United Arab Emirates,Al Ain,Al Yahar Branch ATMs ,"Al Yahar, Abu Dhabi - Al Ain Road, ADCB Building",24.221711,55.544156,ATM,,Cash Withdrawal / Cash Deposit / Cheque Deposit,,600 50 2030,,01/01/0001
205,United Arab Emirates,Al Ain,Al Yahar Branch,"Al Yahar, Abu Dhabi - Al Ain Road, ADCB Building",24.221711,55.544156,Branch,08:00 AM - 03:00 PM Monday to Thursday & Saturday <br/>​08:00 AM - 12:00 PM on Friday <br/>Closed on Sunday,"Teller Transaction / Customer Service / ATM Services (Cash withdrawals, Cash & Cheque Deposits)",81084 Abu Dhabi,+971 3 7028925,,01/01/0001
207,United Arab Emirates,Al Ain,Hazza Bin Zayed Stadium Branch ATMs ,"Al Tiwayyah, Hamdan Bin Mohammad street, Hazza Bin Zayed Stadium",24.245325,55.71851,ATM,,Cash Withdrawal / Cash Deposit / Cheque Deposit,,600 50 2030,,01/01/0001
207,United Arab Emirates,Al Ain,Hazza Bin Zayed Stadium Branch,"Al Tiwayyah, Hamdan Bin Mohammad street, Hazza Bin Zayed Stadium",24.245325,55.71851,Branch,​08:00 AM - 07:00 PM Monday to Thursday & Saturday ​<br/>08:00 AM - 12:00 PM on Friday<br/> Closed on Sunday,"Teller Transaction / Customer Service / ATM Services (Cash withdrawals, Cash & Cheque Deposits)",87532 Abu Dhabi,+971 3 7028950,,01/01/0001
208,United Arab Emirates,Al Ain,Tawam Hospital Branch,"Tawam, Sheikh Khalifa Bin Zayed Street, Tawam Hospital, Ground floor - Administration Section Wing",24.195555,55.648106,Branch,08:00 AM - 03:00 PM Monday to Thursday ​<br/>08:00 AM - 12:00 PM on Friday<br/> Closed on Saturday and Sunday,"Teller Transaction / Customer Service / ATM Services (Cash withdrawals, Cash & Cheque Deposits)",15180 Abu Dhabi,+971 3 7075484,,01/01/0001
209,United Arab Emirates,Al Ain,Al Muraba’a Branch ATMs,"Al Murabaa, Matouk Harib Thenaya Al Amri Building , Opp. Al Ain Mall, Othman Bin Othman bin Affan Street",24.22235,55.7793,ATM,,Cash Withdrawal / Cash Deposit / Cheque Deposit,,600 50 2030,,01/01/0001
209,United Arab Emirates,Al Ain,Al Muraba'a Branch,"Al Murabaa, Matouk Harib Thenaya Al Amri Building , Opposite Al Ain Mall, Othman Bin Othman bin Affan Street",24.22235,55.7793,Branch,08:00 AM - 03:00 PM Monday to Thursday & Saturday <br/>​08:00 AM - 12:00 PM on Friday <br/>Closed on Sunday,"Teller Transaction / Customer Service / ATM Services (Cash withdrawals, Cash & Cheque Deposits)",202088 Al Ain,+971 3 7034220,,01/01/0001
212,United Arab Emirates,Al Ain,Bawadi Branch ATMs,"Mizyad Area , Bawadi Mall, Offices Building, Unit OB 1",24.15885,55.80717,ATM,,Cash Withdrawal / Cash Deposit / Cheque Deposit,,600 50 2030,,01/01/0001
212,United Arab Emirates,Al Ain,Bawadi Branch,"Mizyad Area , Bawadi Mall, Offices Building, Unit OB 1",24.15885,55.80717,Branch,08:00 AM - 03:00 PM Monday to Thursday & Saturday <br/>​08:00 AM - 12:00 PM on Friday <br/>Closed on Sunday,"Teller Transaction / Customer Service / ATM Services (Cash withdrawals, Cash & Cheque Deposits)",64205 Al Ain,+971 3 7034220,,01/01/0001
2597,United Arab Emirates,Al Ain,Bawadi Mall,"Ground floor, Near Carrefour, Zayed Bin Sultan Street, Mazyad",24.159774,55.807661,ATM,,Cash Withdrawal / Cash Deposit / Cheque Deposit,,600 50 2030,,01/01/0001
2691,United Arab Emirates,Al Ain,Al Ain Coop - Al Wagan,"E95 Highway, Al Wagan area, Near Al Wagan Park",23.63939,55.564884,ATM,,Cash Withdrawal / Cash Deposit / Cheque Deposit,,600 50 2030,,01/01/0001
3891,United Arab Emirates,Al Ain,Al Ain Coop - Al Qua,"Al Qua – Um Al Zomool road, Al Qua Town",23.420267,55.417656,ATM,,Cash Withdrawal / Cash Deposit / Cheque Deposit,,600 50 2030,,01/01/0001
5096,United Arab Emirates,Al Ain,Tawam Hospital,"Sheikh Khalifa Bin Zayed Street, Ground floor (Administration Section Wing)",24.195555,55.648105,ATM,,Cash Withdrawal / Cash Deposit / Cheque Deposit,,600 50 2030,,01/01/0001
5103,United Arab Emirates,Al Ain,Al Jimi Mall,"Ground level near the main entrance, Hamdan Bin Mohammad Street, Al Jimi Area",24.243932,55.726862,ATM,,Cash Withdrawal / Cash Deposit,,600 50 2030,,01/01/0001
5105,United Arab Emirates,Al Ain,ADNOC Station - Al Quaa,"Al Quaa - Um Al Zamool Road, Next to Al Quaa Police Station",23.398405,55.42257,ATM,,Cash Withdrawal,,600 50 2030,,01/01/0001
5144,United Arab Emirates,Al Ain,LuLu Hypermarket - Sanaiya,"Sanaiya -118th street, Next to Rimal Mall",24.203271,55.761783,ATM,,Cash Withdrawal,,600 50 2030,,01/01/0001
5145,United Arab Emirates,Al Ain,LuLu Hypermarket - Al Kuwaitat,"Shakhboot Bin Sultan Street, Khuwaita area",24.231963,55.774187,ATM,,Cash Withdrawal,,600 50 2030,,01/01/0001
5161,United Arab Emirates,Al Ain,Al Waha Supermarket,"Al Baladiyya Street, Al Mutaredh Area",24.22711,55.73875,ATM,,Cash Withdrawal,,600 50 2030,,01/01/0001
5169,United Arab Emirates,Al Ain,Hili Mall,"Baniyas Street, 11th street, Next to Hili Rayhaan by Rotana",24.274084,55.779552,ATM,,Cash Withdrawal / Cash Deposit / Cheque Deposit,,600 50 2030,,01/01/0001
5193,United Arab Emirates,Al Ain,Al Ain Coop - Zakher,"Nahyan the First Street, Zakher Area",24.151469,55.697071,ATM,,Cash Withdrawal,,600 50 2030,,01/01/0001
5194,United Arab Emirates,Al Ain,Al Ain Mall,"1st level, Othman Bin Affan Street, Al Murabba Area",24.222408,55.781837,ATM,,Cash Withdrawal,,600 50 2030,,01/01/0001
5196,United Arab Emirates,Al Ain,Al Suroor Super Stores,"Abu Dhabi - Al Ain Road, Near Al Ain Sport Club, Al Yahar Area",24.226733,55.553139,ATM,,Cash Withdrawal,,600 50 2030,,01/01/0001
5214,United Arab Emirates,Al Ain,ADNOC Station - Ind Mazyad,"137th Street, Mezyad, Station ID  757, Near Mezyad Police Station",24.029991,55.844865,ATM,,Cash Withdrawal,,600 50 2030,,01/01/0001
5233,United Arab Emirates,Al Ain,Al Ain CO-OP - Aliyah Mall,Aliah Mall - Al Yahar South,24.2128,55.545047,ATM,,Cash Withdrawal,,600 50 2030,,01/01/0001
5352,United Arab Emirates,Al Ain,Al Mubarak Supermarket,"118th Street Sanaiya, Industrial Area Alain, Near Nissan Automobile",24.193013,55.762804,ATM,,Cash Withdrawal,,600 50 2030,,01/01/0001
5353,United Arab Emirates,Al Ain,Al Najem Mubarak Supermarket,"Khalifa bin Zayed the First Street, Industrial Area Alain, Near Al Fajir Hypermarket",24.193718,55.75583,ATM,,Cash Withdrawal,,600 50 2030,,01/01/0001
5404,United Arab Emirates,Al Ain,Zakher Police Station,Zakher Al Ain,24.13209,55.70662,ATM,,Cash Withdrawal,,600 50 2030,,01/01/0001
5481,United Arab Emirates,Al Ain,Al Hayer ATM,"Al Hayer, Dubai - Al Ain Highway, ADCB Building",24.5795,55.744865,ATM,,Cash Withdrawal / Cash Deposit / Cheque Deposit,,600 50 2030,,01/01/0001
5559,United Arab Emirates,Al Ain,Al Ain Coop - Al Salamat,"Abu Dhabi Al Ain Road, Al Salamat 1 area, Near Salamat Bint Buti School",24.203848,55.584577,ATM,,Cash Withdrawal,,600 50 2030,,01/01/0001
5712,United Arab Emirates,Al Ain,Barari Outlet Mall,"137th Street, Al Dhahir Area. ",24.086427,55.830234,ATM,,Cash Withdrawal,,600 50 2030,,01/01/0001
5728,United Arab Emirates,Al Ain,KM Hypermarket,Hili Industrial Area,24.26572,55.76987,ATM,,Cash Withdrawal,,600 50 2030,,01/01/0001
5730,United Arab Emirates,Al Ain,Al Ain Equestrian & Shooting Club,"Tawam Street, Al Maqam area",24.18467,55.6583,ATM,,Cash Withdrawal,,600 50 2030,,01/01/0001
5740,United Arab Emirates,Al Ain,Earth SuperMarket - Asharij,Sheikh Khalifa Bin Zayed St - Asharij Shabhanet Ashrej - Abu Dhabi,24.202156,55.6687,ATM,,Cash Withdrawal,,600 50 2030,,01/01/0001
6493,United Arab Emirates,Al Ain,Al Ain Police Directorate,"Shakbout Bin Sultan Street, Al Ain",24.234696,55.740604,ATM,,Cash Withdrawal,,600 50 2030,,01/01/0001
,United Arab Emirates,Dubai,ADCB Mortgage Centre,"Unit 102 - 106, Emaar Business Park 4 (1st floor), Sheikh Zayed Road, Dubai",25.09574175,55.1675441,MortgageCentre,08:00 AM - 03:00 PM Monday to Thursday & Saturday ​<br/>08:00 AM - 12:00 PM on Friday <br/>Closed on Sunday,Assistance for customers throughout the entire Mortgage journey from instant digital pre-approval to post-disbursement support.,,,,01/01/0001
100218,United Arab Emirates,Dubai,"ADCB Private Banking Center, Dubai","Conrad Tower, 22nd Floor, Sheikh Zayed Road, Dubai",25.2254987,55.2840988,Private,08:00 AM - 03:00 PM Monday to Thursday ​<br/>08:00 AM - 12:00 PM on Friday<br/> Closed on Saturday and Sunday,All private banking services except cash transactions,,600 50 2322,,01/01/0001
2098,United Arab Emirates,Dubai,Naïf Street,"Near Naïf Police station and UAE Exchange, Deira",25.272403,55.304644,ATM,,Cash Withdrawal,,600 50 2030,,01/01/0001
251,United Arab Emirates,Dubai,Al Rigga Street Branch ATMs,"Al Muraqqabat Area, Al Rigga street, Near Al Rigga Metro station, ADCB Building ",25.261973,55.325933,ATM,,Cash Withdrawal / Cash Deposit / Cheque Deposit,,600 50 2030,,01/01/0001
251,United Arab Emirates,Dubai,Al Rigga Street Branch,"Al Muraqqabat Area, Al Rigga street, Near Al Rigga Metro station, ADCB Building ",25.261973,55.325933,Branch,08:00 AM - 03:00 PM Monday to Thursday & Saturday <br/>​08:00 AM - 12:00 PM on Friday <br/>Closed on Sunday,"Teller Transaction / Customer Service / Safe Deposit Lockers Service / ATM Services (Cash withdrawals, Cash & Cheque Deposits)",5550 Dubai,+971 4 2305400,,01/01/0001
252,United Arab Emirates,Dubai,Karama Branch ATMs ,"Sheikh Khalifa Bin Zayed street, Next to ADCB Metro Station, Al Karama Area  ",25.242741,55.297623,ATM,,Cash Withdrawal / Cash Deposit / Cheque Deposit,,600 50 2030,,01/01/0001
252,United Arab Emirates,Dubai,Karama Branch,"Al Karama Area, Sheikh Khalifa Bin Zayed street, Next to ADCB Metro Station",25.242741,55.297623,Branch,08:00 AM - 03:00 PM Monday to Thursday & Saturday <br/>​08:00 AM - 12:00 PM on Friday <br/>Closed on Sunday,"Teller Transaction / Customer Service / SME Centre / Safe Deposit Lockers Service / ATM Services (Cash withdrawals, Cash & Cheque Deposits)",12808 Dubai,+971 4 5094800,,01/01/0001
253,United Arab Emirates,Dubai,Deira City Centre Branch ATMs ,"Deira City Centre, Ground floor near the Samsung store. 8th Street, Port Saeed District, Deira",25.256702,55.334014,ATM,,Cash Withdrawal / Cash Deposit / Cheque Deposit,,600 50 2030,,01/01/0001
253,United Arab Emirates,Dubai,Deira City Centre Branch,"Deira City Centre, Ground floor, 8th Street, Port Saeed District, Deira",25.256702,55.334014,Branch,10:00 AM - 09:00 PM Monday to Thursday & Saturday <br/>03:00 PM - 09:00 PM on Friday<br/> Closed on Sunday,"Teller Transactions / Customer Service / Excellency Center / ATM Services (Cash withdrawals, Cash & Cheque Deposits)",1069 Dubai,+971 4 6024100,,01/01/0001
256,United Arab Emirates,Dubai,Al Ittihad Branch ATMs ,"Greens Area, Sheikh Zayed Road, Emaar Business Park Building No 2 ",25.0956,55.1668,ATM,,Cash Withdrawal / Cash Deposit / Cheque Deposit,,600 50 2030,,01/01/0001
256,United Arab Emirates,Dubai,Al Ittihad Branch,"Greens Area, Sheikh Zayed Road, Emaar Business Park Building No. 2 ",25.0956,55.1668,Branch,08:00 AM - 03:00 PM Monday to Thursday & Saturday <br/>​08:00 AM - 12:00 PM on Friday <br/>Closed on Sunday,"Teller Transactions / Customer Service / Excellency Center / ATM Services (Cash withdrawals, Cash & Cheque Deposits)",37363 Dubai,+971 4 3106700,,01/01/0001
257,United Arab Emirates,Dubai,Mall of the Emirates Branch ATMs ,"Sheikh Zayed Road, Mall of Emirates Ground level Entrance no 1 , Al Barsha",25.11802,55.199175,ATM,,Cash Withdrawal / Cash Deposit / Cheque Deposit,,600 50 2030,,01/01/0001
257,United Arab Emirates,Dubai,Mall of the Emirates Branch,"Al Barsha, Sheikh Zayed Road, Mall of Emirates Ground level Entrance no 1",25.11802,55.199175,Branch,10:00 AM - 09:00 PM Monday to Thursday & Saturday <br/>03:00 PM - 09:00 PM on Friday<br/> Closed on Sunday,"Teller Transaction / Customer Service / ATM Services (Cash withdrawals, Cash & Cheque Deposits)",72225 Dubai,+971 4 3106750,,01/01/0001
258,United Arab Emirates,Dubai,Sheikh Zayed Road Branch - Indigo Central ATMs ,"Al Safa 2, Sheikh Zayed Road between 2 & 3 interchange, Indigo Central ",25.153081,55.225342,ATM,,Cash Withdrawal / Cash Deposit / Cheque Deposit,,600 50 2030,,01/01/0001
258,United Arab Emirates,Dubai,"Sheikh Zayed Road Branch - Indigo Central <p style=""color: red; "">(Temporarily closed)</p>","Al Safa 2, Sheikh Zayed Road between 2 & 3 interchange, Indigo Central ",25.153081,55.225342,Branch,08:00 AM - 03:00 PM Monday to Thursday & Saturday <br/>​08:00 AM - 12:00 PM on Friday <br/>Closed on Sunday,"Teller Transactions / Customer Service / Excellency Center / ATM Services (Cash withdrawals, Cash & Cheque Deposits)",214031 Dubai,+971 4 3106800,,01/01/0001
258,United Arab Emirates,Dubai,Sheikh Zayed Road Excellency Centre,"Al Safa 2, Sheikh Zayed Road between 2 & 3 interchange, Indigo Central ",25.153081,55.225342,Excellency,08:00 AM - 03:00 PM Monday to Thursday & Saturday <br/>​08:00 AM - 12:00 PM on Friday <br/>Closed on Sunday,"Teller Transaction / Customer Service / ATM Services (Cash withdrawals, Cash & Cheque Deposits)",214031 Dubai,600 50 2004,,01/01/0001
259,United Arab Emirates,Dubai,Dubai Mall Branch ATMs ,"Financial Centre Road, Dubai Mall , Ground level near to Waitrose Supermarket , Down Town Dubai Area",25.197059,55.27904,ATM,,Cash Withdrawal / Cash Deposit / Cheque Deposit,,600 50 2030,,01/01/0001
259,United Arab Emirates,Dubai,Dubai Mall Branch,"Financial Centre Road, Dubai Mall , Ground level",25.197059,55.27904,Branch,10:00 AM - 09:00 PM Monday to Thursday & Saturday <br/>03:00 PM - 09:00 PM on Friday<br/> Closed on Sunday,"Teller Transaction / Customer Service / ATM Services (Cash withdrawals, Cash & Cheque Deposits)",49124 Dubai,+971 4 7058850,,01/01/0001
260,United Arab Emirates,Dubai,Arabian Center Branch ATMs ,"Al Khawaneej Road, Arabian Centre Ground level near the Parking area, Al Mizhar area",25.236059,55.436175,ATM,,Cash Withdrawal / Cash Deposit / Cheque Deposit,,600 50 2030,,01/01/0001
260,United Arab Emirates,Dubai,Arabian Center Branch,"Al Mizhar area, Al Khawaneej Road, Arabian Centre Ground level near the Parking area",25.236059,55.436175,Branch,10:00 AM - 09:00 PM Monday to Thursday & Saturday <br/>03:00 PM - 09:00 PM on Friday<br/> Closed on Sunday,"Teller Transaction / Customer Service / ATM Services (Cash withdrawals, Cash & Cheque Deposits)",440025 Dubai,+971 4 7058800,,01/01/0001
261,United Arab Emirates,Dubai,Khalid Bin Waleed Branch ATMs ,"Khalid Bin Waleed Street, Opposite Four Point Sheraton Hotel , Al Mankhool Area",25.256675,55.299771,ATM,,Cash Withdrawal / Cash Deposit / Cheque Deposit,,600 50 2030,,01/01/0001
261,United Arab Emirates,Dubai,Khalid Bin Waleed Branch," Al Mankhool Area, Khalid Bin Waleed Street",25.256675,55.299771,Branch,08:00 AM - 03:00 PM Monday to Thursday & Saturday <br/>​08:00 AM - 12:00 PM on Friday <br/>Closed on Sunday,"Teller Transactions / Customer Service / Excellency Center / Safe Deposit Lockers Service / ATM Services (Cash withdrawals, Cash & Cheque Deposits)",118385 Dubai,+971 4 4091222,,01/01/0001
261,United Arab Emirates,Dubai,Khalid Bin Waleed Excellency Centre,"Mezzanine floor, Khalid Bin Waleed Street, Opposite Four Point Sheraton Hotel, Al Mankhool Area",25.256675,55.299771,Excellency,08:00 AM - 03:00 PM Monday to Thursday & Saturday <br/>​08:00 AM - 12:00 PM on Friday <br/>Closed on Sunday,"Teller Transaction / Customer Service / ATM Services (Cash withdrawals, Cash & Cheque Deposits)",118385 Dubai,600 50 2004,,01/01/0001
265,United Arab Emirates,Dubai,Business Bay Branch ATMs ,"Business Bay Area, Intersection of Al Saada street and Khaleej Al Tejari 1st street, The Bay Gate Tower  ",25.188957,55.263012,ATM,,Cash Withdrawal / Cash Deposit / Cheque Deposit,,600 50 2030,,01/01/0001
265,United Arab Emirates,Dubai,Business Bay Branch,"Business Bay Area, Intersection of Al Saada street and Khaleej Al Tejari 1st street, The Bay Gate Tower  ",25.188957,55.263012,Branch,08:00 AM - 03:00 PM Monday to Thursday & Saturday <br/>​08:00 AM - 12:00 PM on Friday <br/>Closed on Sunday,"Teller Transactions / Customer Service / Excellency Center / ATM Services (Cash withdrawals, Cash & Cheque Deposits)",33040 Dubai,+971 4 5180900,,01/01/0001
265,United Arab Emirates,Dubai,Business Bay Excellency Centre,"Business Bay Area, Intersection of Al Saada street and Khaleej Al Tejari 1st street, The Bay Gate Tower  ",25.188957,55.263012,Excellency,08:00 AM - 03:00 PM Monday to Thursday & Saturday <br/>​08:00 AM - 12:00 PM on Friday <br/>Closed on Sunday,"Teller Transaction / Customer Service / ATM Services (Cash withdrawals, Cash & Cheque Deposits)",33040 Dubai,600 50 2004,,01/01/0001
266,United Arab Emirates,Dubai,Dubai Silicon Oasis,"Dubai Silicon Oasis, Unit No., Seven Emirates Towers Complex, Sheikh Mohammed bin Zayed Road.",25.113869,55.3734130,ATM,,Cash Withdrawal / Cash Deposit / Cheque Deposit,,600 50 2030,,01/01/0001
2692,United Arab Emirates,Dubai,Dubai International Financial Centre,"2nd Level near Café Bateel, Towards DIFC Parking ",25.21434,55.28084,ATM,,Cash Withdrawal,,600 50 2030,,01/01/0001
2695,United Arab Emirates,Dubai,Al Safa Shopping Center,"Jumeirah Road, Umm Sequiem 3",25.177651,55.233827,ATM,,Cash Withdrawal,,600 50 2030,,01/01/0001
2697,United Arab Emirates,Dubai,City Land Mall,"Wadi Al Safa 4, Beside Global Village, Mohammad Bin Zayed Road",25.067327,55.303517,ATM,,Cash Withdrawal,,600 50 2030,,01/01/0001
2699,United Arab Emirates,Dubai,"Mall of the Emirates, level 2","Sheikh Zayed Road, Gate C, Level 2 , Sheikh Zayed Road, Al Barsha 1",25.11802,55.199175,ATM,,Cash Withdrawal / Cash Deposit / Cheque Deposit,,600 50 2030,,01/01/0001
269,United Arab Emirates,Dubai,Rashidiya Branch ATMs ,"Al Rashidiya Area, Al Kawanij Road, Bin Sougat Center",25.2335223,55.3842425,ATM,,Cash Withdrawal / Cash Deposit / Cheque Deposit,,600 50 2030,,01/01/0001
269,United Arab Emirates,Dubai,Rashidiya Branch,"Al Rashidiya Area, Al Kawanij Road, Bin Sougat Center",25.2335223,55.3842425,Branch,​08:00 AM - 07:00 PM Monday to Thursday & Saturday ​<br/>08:00 AM - 12:00 PM on Friday<br/> Closed on Sunday,"Teller Transaction / Customer Service / ATM Services (Cash withdrawals, Cash & Cheque Deposits)",10651 Dubai,+971 4 5180570,,01/01/0001
271,United Arab Emirates,Dubai,Al Bustan Branch ATMs ,"Al Qusais Area, Al Nahda Road, Al Bustan Center",25.274906,55.367653,ATM,,Cash Withdrawal / Cash Deposit / Cheque Deposit,,600 50 2030,,01/01/0001
271,United Arab Emirates,Dubai,Al Bustan Branch,"Al Qusais Area, Al Nahda Road, Al Bustan Center",25.274906,55.367653,Branch,​08:00 AM - 07:00 PM Monday to Thursday & Saturday ​<br/>08:00 AM - 12:00 PM on Friday<br/> Closed on Sunday,"Teller Transaction / Customer Service / ATM Services (Cash withdrawals, Cash & Cheque Deposits)",20917 Dubai,+971 4 5180550,,01/01/0001
3595,United Arab Emirates,Dubai,Dubai Festival City,"1st level Near IKEA, Al Rebat Road",25.221986,55.356288,ATM,,Cash Withdrawal,,600 50 2030,,01/01/0001
37,United Arab Emirates,Dubai,uBank Emirates Airline HQ Branch,"Al Garhoud, Airport Road, Emirates Group Headquarters, Second Floor Atrium  ",25.242579,55.366032,uBank,08:00 AM - 07:30 PM Monday to Thursday & Saturday <br/>08:00 AM - 12:30 PM on Friday<br/> Closed on Sunday,"Digital Banking service Center / ATM Services (Cash withdrawals, Cash & Cheque Deposits)",,+971 4 7058848,,01/01/0001
3898,United Arab Emirates,Dubai,Blue Water,"Blue Water, Ain Dubai",25.080235,55.12226,ATM,,Cash Withdrawal,,600 50 2030,,01/01/0001
392,United Arab Emirates,Dubai,City Center Me'aisem ,"Sheikh Mohammad Bin Zayed Road, TA04, Entrance 2, next to Tim Horton's ",25.040578,55.196069,ATM,,Cash Withdrawal,,600 50 2030,,01/01/0001
5104,United Arab Emirates,Dubai,Dubai Outsource Zone 1 (DOZ),"Dubai Outsource Zone,  Manama St - Dubai ",25.123813,55.426009,ATM,,Cash Withdrawal,,600 50 2030,,01/01/0001
5114,United Arab Emirates,Dubai,Atlantis Hotel,"Crescent Road Palm Jumeirah, Palm Jumeirah",25.130677,55.117121,ATM,,Cash Withdrawal,,600 50 2030,,01/01/0001
5122,United Arab Emirates,Dubai,"Mall of the Emirates, Ground Floor","Sheikh Zayed Road, Ground level Entrance no 1, Near ADCB Branch",25.11802,55.199175,ATM,,Cash Withdrawal / Cash Deposit / Cheque Deposit,,600 50 2030,,01/01/0001
5123,United Arab Emirates,Dubai,One JLT Bldg,"One JLT Tower, Ground Floor, Jumeirah Lake Tower",25.07239,55.14517,ATM,,Cash Withdrawal / Cash Deposit / Cheque Deposit,,600 50 2030,,01/01/0001
5131,United Arab Emirates,Dubai,Dubai Marina Mall,"Ground level near Waitrose Supermarket, Sheikh Zayed Road, Dubai Marina Area",25.07629,55.140638,ATM,,Cash Withdrawal,,600 50 2030,,01/01/0001
5133,United Arab Emirates,Dubai,Oasis Centre,"Ground Level, Sheikh Zayed Road Al Quoz 1 area",25.169562,55.241811,ATM,,Cash Withdrawal,,600 50 2030,,01/01/0001
5146,United Arab Emirates,Dubai,LuLu Center - Muhaisnah,"Amman Street, Al Muhaisnah Area, Near Dubai Taxi Corporation ",25.280557,55.410447,ATM,,Cash Withdrawal,,600 50 2030,,01/01/0001
5147,United Arab Emirates,Dubai,LuLu Hypermarket - Al Qusais,"Al Nahda Street, Al Qusais, Near Stadium Metro Station",25.278947,55.362328,ATM,,Cash Withdrawal / Cash Deposit / Cheque Deposit,,600 50 2030,,01/01/0001
5159,United Arab Emirates,Dubai,Carrefour - Al Nahda Twin Towers,"Twin Tower, Amman Street, Al Nahda 2 area",25.297674,55.382338,ATM,,Cash Withdrawal,,600 50 2030,,01/01/0001
5160,United Arab Emirates,Dubai,EMARAT Station - Al Mutina,"Salah Al Deen Street, Opposite to Murraqabat Police station",25.270647,55.328881,ATM,,Cash Withdrawal,,600 50 2030,,01/01/0001
5167,United Arab Emirates,Dubai,Al Khail Mall,"Ground Level, Al Quoz  4, 318 th Street",25.148922,55.246537,ATM,,Cash Withdrawal / Cash Deposit / Cheque Deposit,,600 50 2030,,01/01/0001
5177,United Arab Emirates,Dubai,Sheikh Zayed Housing Program,"Marrakech Street, Umm Ramool ",25.233574,55.354266,ATM,,Cash Withdrawal,,600 50 2030,,01/01/0001
5183,United Arab Emirates,Dubai,AKOYA Oxygen,"Damac AKOYA Oxygen Community Center, Al waqraa 2 Dubai",24.997788,55.383763,ATM,,Cash Withdrawal,,600 50 2030,,01/01/0001
5251,United Arab Emirates,Dubai,Carrefour - IBN Batutta Mall,"Ibn Battuta Mall, Sheikh Zayed Highway",25.041754,55.118024,ATM,,Cash Withdrawal / Cash Deposit / Cheque Deposit,,600 50 2030,,01/01/0001
5264,United Arab Emirates,Dubai,City Center Al Shindagha,"Ground level at the main entrance, Al Ghubaiba street, Bur Dubai", 25.264139,55.287216,ATM,,Cash Withdrawal / Cash Deposit / Cheque Deposit,,600 50 2030,,01/01/0001
5272,United Arab Emirates,Dubai,Life Pharmacy Al Warqah,"Life Department store, Raja & Sisters Building, Warqa 1",25.1930961,55.4057375,ATM,,Cash Withdrawal / Cash Deposit / Cheque Deposit,,600 50 2030,,01/01/0001
5280,United Arab Emirates,Dubai,uBank - Emirates HQ ATM,"Second Floor Atrium, Emirates Group Headquarters, Airport Road. ",25.242579,55.366032,ATM,,Cash Withdrawal / Cash Deposit / Cheque Deposit,,600 50 2030,,01/01/0001
5292,United Arab Emirates,Dubai,EPPCO Service Station - 09,"Opposite to Box Park , Al Wasl Road, D 92 ",25.197834,55.246733,ATM,,Cash Withdrawal,,600 50 2030,,01/01/0001
5300,United Arab Emirates,Dubai,uBank - City Walk ATM,"City Walk Boulevard 2, Building L-08, Yas Mall Ground Floor unit -508, Al Wasl City Walk",25.2077,55.2624,ATM,,Cash Withdrawal / Cash Deposit / Cheque Deposit,,600 50 2030,,01/01/0001
5306,United Arab Emirates,Dubai,Dukes Hotel Dubai,"Palm Jumeirah,",25.11266,55.13795,ATM,,Cash Withdrawal,,600 50 2030,,01/01/0001
5307,United Arab Emirates,Dubai,ADNOC Station - Al Barsha,Street 50 - Al Barsha - Al Barsha South - Station ID 528  - Dubai,25.0772032,55.2244857,ATM,,Cash Withdrawal,,600 50 2030,,01/01/0001
5310,United Arab Emirates,Dubai,ENOC Service Station - 1009,"2nd Dec Street, D 73,  Station ID 1009, Opposite  Sheikh Hamdan Award Complex",25.239192,55.271167,ATM,,Cash Withdrawal,,600 50 2030,,01/01/0001
5311,United Arab Emirates,Dubai,Carrefour - DIP,"Dubai Investment Park 1, Green community village. Main Entrance",24.997997,55.17566,ATM,,Cash Withdrawal / Cash Deposit / Cheque Deposit,,600 50 2030,,01/01/0001
5314,United Arab Emirates,Dubai,Sama Tower,"Sheikh Zayed Road, Trade Centre District",25.228523,55.285547,ATM,,Cash Withdrawal,,600 50 2030,,01/01/0001
5323,United Arab Emirates,Dubai,City Center Mirdiff,"North East Entrance, Ground floor",25.217804,55.4089700,ATM,,Cash Withdrawal / Cash Deposit / Cheque Deposit,,600 50 2030,,01/01/0001
5327,United Arab Emirates,Dubai,Waterfront Market,"Al Khaleej Road, Opposite to Dubai Hospital",25.292072,55.32272125,ATM,,Cash Withdrawal,,600 50 2030,,01/01/0001
5331,United Arab Emirates,Dubai,Karama (Drive Through),"Sheikh Khalifa Bin Zayed street, Next to ADCB Karama Branch",25.242741,55.297623,ATM,,Cash Withdrawal,,600 50 2030,,01/01/0001
5342,United Arab Emirates,Dubai,Al Bandar Rotana,"Baniyas Road, Al Buteen Area",25.2590613,55.3196183,ATM,,Cash Withdrawal,,600 50 2030,,01/01/0001
5346,United Arab Emirates,Dubai,Al Falaj Supermarket,"Abu Hail area, Hor Al Anz, Behind Abu Hail center",25.279791,55.349212,ATM,,Cash Withdrawal,,600 50 2030,,01/01/0001
5373,United Arab Emirates,Dubai,Fraser Suites Hotel,"Sheikh Zayed Raod, Sidra Tower, Commercial tower entrance",25.10807,55.17882,ATM,,Cash Withdrawal,,600 50 2030,,01/01/0001
5378,United Arab Emirates,Dubai,ENOC Service Station 1002  - Al Satwa,"308 Road, Behind Towers Rotana Hotel, Al Satwa",25.214037,55.273855,ATM,,Cash Withdrawal,,600 50 2030,,01/01/0001
5387,United Arab Emirates,Dubai,Deira City Centre Metro Station,"8th Street, Port Saeed District, Deira, Next to City Centre Deira",25.254173,55.330412,ATM,,Cash Withdrawal,,600 50 2030,,01/01/0001
5388,United Arab Emirates,Dubai,Metro Station - DAMAC,"Sheikh Zayed Road, Near Dubai Marina",25.080255,55.147557,ATM,,Cash Withdrawal,,600 50 2030,,01/01/0001
5389,United Arab Emirates,Dubai,Metro Station - Union Square,"Union Square Park, Al Maktoum Road, Behind Dubai Municipality HO",25.266101,55.31377,ATM,,Cash Withdrawal,,600 50 2030,,01/01/0001
5390,United Arab Emirates,Dubai,Metro Station - Burj Khalifa,"Sheikh Zayed Road, Near Dubai Mall",25.201507,55.269711,ATM,,Cash Withdrawal,,600 50 2030,,01/01/0001
5391,United Arab Emirates,Dubai,Metro Station - Al Jaffiliyah ,"Sheikh Khalifa Bin Zayed Road, Next to General Directorate of Residency and Foreigners Affairs",25.234176,55.292255,ATM,,Cash Withdrawal,,600 50 2030,,01/01/0001
5392,United Arab Emirates,Dubai,Metro Station - MOE,"Sheikh Zayed Road, Near Mall of the Emirates",25.121119,55.200139,ATM,,Cash Withdrawal,,600 50 2030,,01/01/0001
5393,United Arab Emirates,Dubai,Metro station - Al Ghubaiba,"Al Ghubaiba Road, Near City Centre Shindagha",25.264908,55.288652,ATM,,Cash Withdrawal,,600 50 2030,,01/01/0001
5566,United Arab Emirates,Dubai,ADNOC Station - Qusais Industrial,Al Qusais Industrial Area - Al Qusais Industrial Area 2 - Station ID 531 - Dubai,25.282623,55.39509,ATM,,Cash Withdrawal,,600 50 2030,,01/01/0001
5579,United Arab Emirates,Dubai,Silicon Central Mall,"Silicon Central Mall, Dubai Silicon Oasis",25.112186,55.375623,ATM,,Cash Withdrawal,,600 50 2030,,01/01/0001
5585,United Arab Emirates,Dubai,ADNOC Station - Wadi Al Amardi ,Wadi Al Amardi West 217- Dubai,25.1850163,55.4901213,ATM,,Cash Withdrawal,,600 50 2030,,01/01/0001
5644,United Arab Emirates,Dubai,Jebel Ali Banks Area,Jebel Ali Free Zone - Banks Area  - Gate # 3,25.01193,55.0890700,ATM,,Cash Withdrawal / Cash Deposit / Cheque Deposit,,600 50 2322,,01/01/0001
5663,United Arab Emirates,Dubai,Dune Center,"Dune Center, Al-Badaa 2nd December Street, Satwa",25.2371,55.2754,ATM,,Cash Withdrawal / Cash Deposit / Cheque Deposit,,600 50 2030,,01/01/0001
5702,United Arab Emirates,Dubai,Fida Al Madinah Supermarket -DIP,"Jebel Ali - Lahbab Road (E 77 Road), Dubai Investment Park 2, Near Dunes Village",24.984986,55.196014,ATM,,Cash Withdrawal,,600 50 2030,,01/01/0001
5704,United Arab Emirates,Dubai,Shopper's Mall,"Shopper's Mall, Jebel Ali industrial area ",25.007237,55.110486,ATM,,Cash Withdrawal,,600 50 2030,,01/01/0001
5705,United Arab Emirates,Dubai,Discovery Garden Pavilion,Street 7 - The Pavilion - Discovery Gardens,25.034551,55.147549,ATM,,Cash Withdrawal,,600 50 2030,,01/01/0001
5707,United Arab Emirates,Dubai,Aswaaq Mall,"Street 220, Al Mizahar",25.250925,55.453161,ATM,,Cash Withdrawal,,600 50 2030,,01/01/0001
5719,United Arab Emirates,Dubai,Dubai Festival Plaza Mall,"Road 38, Jebel Ali, Dubai, Ground Floor",25.02948,55.10804,ATM,,Cash Withdrawal,,600 50 2030,,01/01/0001
5720,United Arab Emirates,Dubai,Khawaneej Mall,"Al Khawaneej Walk Mall, Al Khawaneej 1, behind Last Exit Al Khawaneej. Next to American Hospital Khawaneej Clinic",25.234883,55.473069,ATM,,Cash Withdrawal,,600 50 2030,,01/01/0001
5723,United Arab Emirates,Dubai,Index Exchange - DIP,Hilal Al Madian Shopping Complex Dubai Investment Park - 1 Jebel Ali Dubai,24.971966,55.170662,ATM,,Cash Withdrawal,,600 50 2030,,01/01/0001
5725,United Arab Emirates,Dubai,"Ansari Exchange, Hor Al Anz Branch ","Abu Baker Siddique Road, Near Muteena Street signal",25.2753,55.32927,ATM,,Cash Withdrawal,,600 50 2030,,01/01/0001
5726,United Arab Emirates,Dubai,Jebel Ali Mall,Jebel Ali industrial Area,25.00558,55.10357,ATM,,Cash Withdrawal,,600 50 2030,,01/01/0001
5729,United Arab Emirates,Dubai,Al Qouz Mall,"17 B Street, Al Qouz Industrial Area 3",25.12305,55.22197,ATM,,Cash Withdrawal / Cash Deposit,,600 50 2030,,01/01/0001
5732,United Arab Emirates,Dubai,"Rostamani Exchange, Hor Al Anz Branch","Near Al Shaab Colony & Talal Supermarket, Hor Al Anz",25.27695,55.33825,ATM,,Cash Withdrawal,,600 50 2030,,01/01/0001
5734,United Arab Emirates,Dubai,"Rostamani Exchange, Deira Branch","Al Bader Building, Baniyas Road, Deira",25.2683938,55.3054447,ATM,,Cash Withdrawal,,600 50 2030,,01/01/0001
6093,United Arab Emirates,Dubai,Dubai Airport  - T3 Duty Free,"Terminal 3, Opposite to Dubai Duty Free Shop",25.245613,55.359646,ATM,,Cash Withdrawal,,600 50 2030,,01/01/0001
6099,United Arab Emirates,Dubai,Dubai Airport - T1 Arrival,"Terminal 1, Opposite to DU Centre",25.249606,55.351401,ATM,,Cash Withdrawal,,600 50 2030,,01/01/0001
6294,United Arab Emirates,Dubai,Broz mart - JVC,DAMAC Tower 108 Street No. 1 Jumeriah Village Circle,25.0536527,55.1978898,ATM,,Cash Withdrawal / Cash Deposit,,600 50 2030,,01/01/0001
69,United Arab Emirates,Dubai,uBank City Walk Branch,"City Walk Boulevard 2, Building L-08, Ground Floor unit -508 ",25.2077,55.2624,uBank,10:00 AM - 09:30 PM Monday to Thursday & Saturday <br/>03:00 PM - 09:30 PM on Friday <br/>Closed on Sunday,"Digital Banking service Center / ATM Services (Cash withdrawals, Cash & Cheque Deposits)",,+971 2 6591206,,01/01/0001
331,United Arab Emirates,Fujairah,Fujairah Branch ATMs ,"Hamad Bin Abdulla Street , Near ADNOC Service Station, Fujairah",25.1224,56.3410000,ATM,,Cash Withdrawal / Cash Deposit / Cheque Deposit,,600 50 2030,,01/01/0001
331,United Arab Emirates,Fujairah,Fujairah Branch,"Hamad Bin Abdulla Street, Near to ADNOC Station, ADCB Building",25.1224,56.3410000,Branch,​08:00 AM - 07:00 PM Monday to Thursday & Saturday ​<br/>08:00 AM - 12:00 PM on Friday<br/> Closed on Sunday,"Teller Transaction / Customer Service / ATM Services (Cash withdrawals, Cash & Cheque Deposits)",770 Fujairah,+971 9 2048600,,01/01/0001
332,United Arab Emirates,Fujairah,Dibba Branch ATMs ,"Dibba Al-Fujairah Area, Al Grofa Street, ADCB Building",25.598787,56.274483,ATM,,Cash Withdrawal / Cash Deposit / Cheque Deposit,,600 50 2030,,01/01/0001
332,United Arab Emirates,Fujairah,Dibba Branch,"Dibba Al-Fujairah Area, Al Grofa Street, ADCB Building",25.598787,56.274483,Branch,08:00 AM - 03:00 PM Monday to Thursday & Saturday <br/>​08:00 AM - 12:00 PM on Friday <br/>Closed on Sunday,"Teller Transaction / Customer Service / ATM Services (Cash withdrawals, Cash & Cheque Deposits)",13212 Fujairah,+971 9 2048666,,01/01/0001
394,United Arab Emirates,Fujairah,City Center Fujairah ,"Sheikh Khalifa Bin Zayed Rd, TA02 Entrance 1, Chilis entrance",25.125694,56.302207,ATM,,Cash Withdrawal,,600 50 2030,,01/01/0001
5102,United Arab Emirates,Fujairah,Fujairah Rotana Resort & Spa,"Dibba Road, Al Aqah Area",25.508991,56.363457,ATM,,Cash Withdrawal,,600 50 2030,,01/01/0001
5219,United Arab Emirates,Fujairah,ADNOC Station - Fujairah Corniche,"Corniche Road, Station ID  777, Next to Sadaf Restaurant",25.133704,56.355819,ATM,,Cash Withdrawal,,600 50 2030,,01/01/0001
5339,United Arab Emirates,Fujairah,ADNOC Station - Al Nahda,"Sheikh Khalifa Bin Zayed Road - Fujairah Exit, Opposite  Zayed Sports Complex - Station ID 641 - Fujairah",25.1230288,56.2848713,ATM,,Cash Withdrawal,,600 50 2030,,01/01/0001
5380,United Arab Emirates,Fujairah,ADNOC Station - Fujairah Beach,"Rugaylat Road, Station ID 762, Opposite Fujairah CID Office",25.161773,56.350431,ATM,,Cash Withdrawal,,600 50 2030,,01/01/0001
5395,United Arab Emirates,Fujairah,LuLu Mall Fujairah,"Hamad Bin Abdullah Road, Near Etisalat Business Center",25.120453,56.328232,ATM,,Cash Withdrawal,,600 50 2030,,01/01/0001
6292,United Arab Emirates,Khorfakan,ADNOC Station - Khorfakkan,"Rugaylat Road, Near Khorfakkan Traffic Roundabout",25.349625,56.347777,ATM,,Cash Withdrawal / Cash Deposit / Cheque Deposit,,600 50 2030,,01/01/0001
341,United Arab Emirates,Ras Al Khaimah,Ras Al Khaimah Branch ATMs ,"Dafan Al Nakheel Area, Bin Daher Street, Al Naeem Mall",25.79225,55.967757,ATM,,Cash Withdrawal / Cash Deposit / Cheque Deposit,,600 50 2030,,01/01/0001
341,United Arab Emirates,Ras Al Khaimah,Ras Al Khaimah Branch,"Dafan Al Nakheel Area, Bin Daher Street, Al Naeem Mall",25.79225,55.967757,Branch,​08:00 AM - 07:00 PM Monday to Thursday & Saturday ​<br/>08:00 AM - 12:00 PM on Friday<br/> Closed on Sunday,"Teller Transaction / Customer Service / ATM Services (Cash withdrawals, Cash & Cheque Deposits)",1633 Ras Al Khaimah,+971 7 2051700,,01/01/0001
5245,United Arab Emirates,Ras Al Khaimah,Aswaaq Ras Al Khaimah Hypermarket - Ghalila Branch,"Ras Al Khaimah National Market, Nakheel-Mussandam Rd",26.01123,56.08192,ATM,,Cash Withdrawal / Cash Deposit,,600 50 2030,,01/01/0001
5321,United Arab Emirates,Ras Al Khaimah,Ras Al Khaimah,"Sheikh Muhammad Bin Salem Road, Near Families Supermarket",25.795293,55.948552,ATM,,Cash Withdrawal,,600 50 2030,,01/01/0001
5335,United Arab Emirates,Ras Al Khaimah,City Center Al Dhait,"Al Dhait South, North Ras Al Khaimah",25.727875,55.92011,ATM,,Cash Withdrawal,,600 50 2030,,01/01/0001
5354,United Arab Emirates,Ras Al Khaimah,RAK Mall,"Near the parking entrance, Al Khuzam Road - North Ras Al Khaimah",25.77232,55.959892,ATM,,Cash Withdrawal / Cash Deposit / Cheque Deposit,,600 50 2030,,01/01/0001
5383,United Arab Emirates,Ras Al Khaimah,City Center Al Naeem,"Sheikh Rashid Bin Said Road, Al Dhait Area",25.74899,55.92406,ATM,,Cash Withdrawal,,600 50 2030,,01/01/0001
6293,United Arab Emirates,Ras Al Khaimah,Manar Mall,"Ground level near food court, Al Muntasir Road, Al Nakheel area",25.783961,55.965771,ATM,,Cash Withdrawal,,600 50 2030,,01/01/0001
1091,United Arab Emirates,Sharjah,Matajer Al Juraina,"University City Road, Al Jurainah 2, Sharjah ",25.2962,55.4892,ATM,,Cash Withdrawal,,600 50 2030,,01/01/0001
301,United Arab Emirates,Sharjah,Sharjah Main Branch ATMs ,"Ibrahim Mohammed Al Medfa'a Street, Near Sharjah Central Post Office, Um Altaraffa Area",25.351967,55.388783,ATM,,Cash Withdrawal / Cash Deposit / Cheque Deposit,,600 50 2030,,01/01/0001
301,United Arab Emirates,Sharjah,Sharjah Main Branch,"Ibrahim Mohammed Al Medfa'a Street, Near Sharjah Central Post Office, Um Altaraffa Area",25.351967,55.388783,Branch,08:00 AM - 03:00 PM Monday to Thursday & Saturday <br/>​08:00 AM - 12:00 PM on Friday <br/>Closed on Sunday,"Teller Transaction / Customer Service / Safe Deposit Lockers Service / ATM Services (Cash withdrawals, Cash & Cheque Deposits)",4377 Sharjah,+971 6 5191616,,01/01/0001
301,United Arab Emirates,Sharjah,Sharjah Excellency Centre,"Al Nakheel Tower, Corniche street, Al Majaz 1, Sharjah ",25.339411,55.386208,Excellency,08:00 AM - 03:00 PM Monday to Thursday & Saturday <br/>​08:00 AM - 12:00 PM on Friday <br/>Closed on Sunday,"Teller Transaction / Customer Service / ATM Services (Cash withdrawals, Cash & Cheque Deposits)",30875 Sharjah,600 50 2004,,01/01/0001
302,United Arab Emirates,Sharjah,Al Zahia City Centre Branch ATMs,"Sheikh Mohammed Bin Zayed Street, Al Zahia City Centre, Ground level, near Entrance A",25.3157654,55.454977,ATM,,Cash Withdrawal / Cash Deposit / Cheque Deposit,,600 50 2030,,01/01/0001
302,United Arab Emirates,Sharjah,Al Zahia City Centre Branch,"Sheikh Mohammed Bin Zayed Street, Al Zahia City Centre, Ground level, near Entrance A",25.3157654,55.454977,Branch,10:00 AM - 09:00 PM Monday to Thursday & Saturday <br/>03:00 PM - 09:00 PM on Friday<br/> Closed on Sunday,"Teller Transaction / Customer Service / ATM Services (Cash withdrawals, Cash & Cheque Deposits)",23657 Sharjah,+971 6 5191650,,01/01/0001
304,United Arab Emirates,Sharjah,Al Buhaira Branch ATMs ,"Al Nakheel Tower, Corniche street, Al Majaz 1, Sharjah ",25.339411,55.386208,ATM,,Cash Withdrawal / Cash Deposit / Cheque Deposit,,600 50 2030,,01/01/0001
304,United Arab Emirates,Sharjah,Al Buhaira Branch,"Al Nakheel Tower, Corniche street, Al Majaz 1, Sharjah ",25.339411,55.386208,Branch,08:00 AM - 03:00 PM Monday to Thursday & Saturday <br/>​08:00 AM - 12:00 PM on Friday <br/>Closed on Sunday,"Teller Transaction / Customer Service / ATM Services (Cash withdrawals, Cash & Cheque Deposits)",30875 Sharjah,+971 6 5191500,,01/01/0001
306,United Arab Emirates,Sharjah,Dhaid Branch ATMs ,"Dhaid Mall - Al Dhaid Area, Al Melaiha - Al Madam Road",25.2807695,55.8769362,ATM,,Cash Withdrawal / Cash Deposit / Cheque Deposit,,600 50 2030,,01/01/0001
306,United Arab Emirates,Sharjah,Dhaid Branch,"Dhaid Mall - Al Dhaid Area, Al Melaiha - Al Madam Road",25.2807695,55.8769362,Branch,08:00 AM - 07:00 PM Monday to Thursday & Saturday ​<br/>03:00 PM - 09:00 PM on Friday<br/> Closed on Sunday,"Teller Transaction / Customer Service / ATM Services (Cash withdrawals, Cash & Cheque Deposits)",14709 Sharjah,+971 6 5193420,,01/01/0001
5113,United Arab Emirates,Sharjah,LuLu Hypermarket - Al Hazana,"Kuwait Street, Near Al Shaab Village",25.3745127,55.4208542,ATM,,Cash Withdrawal,,600 50 2030,,01/01/0001
5125,United Arab Emirates,Sharjah,Sharjah Coop - Muwailah,Muwailah 2 - University City Road - Sharjah,25.310003,55.456054,ATM,,Cash Withdrawal,,600 50 2030,,01/01/0001
5126,United Arab Emirates,Sharjah,Rolla Mall,"Ground level near the main entrance, Al Arouba Street, Near Clock Tower",25.35866,55.3894,ATM,,Cash Withdrawal,,600 50 2030,,01/01/0001
5140,United Arab Emirates,Sharjah,ADNOC Station - Al Ghubaiba,"Sheikh Saqr Bin Khalid Al Qasimi Street, Opposite to Baby Shop",25.341575,55.409243,ATM,,Cash Withdrawal,,600 50 2030,,01/01/0001
5150,United Arab Emirates,Sharjah,LuLu Hypermarket - Al Wahda Street,"Al Wahda Street, Industrial area 4, Near Toyota Showroom",25.332293,55.398924,ATM,,Cash Withdrawal / Cash Deposit,,600 50 2030,,01/01/0001
5162,United Arab Emirates,Sharjah,LuLu Hypermarket - Al Nahda,"Al Ittihad Road, Opposite New Al Nahda park, Al Nahda area",25.303256,55.374312,ATM,,Cash Withdrawal / Cash Deposit,,600 50 2030,,01/01/0001
5179,United Arab Emirates,Sharjah,City Center Sharjah,"Ground level -Car Park entrance, Al Wahda Road",25.3246,55.393299,ATM,,Cash Withdrawal,,600 50 2030,,01/01/0001
5218,United Arab Emirates,Sharjah,ADNOC Station - King Faisal,"King Faisal Road, Station ID 770, Near MacDonald's",25.33984,55.388212,ATM,,Cash Withdrawal,,600 50 2030,,01/01/0001
5259,United Arab Emirates,Sharjah,ADNOC Station - Thawi Musnad,Al Rowdat Suburb - Rodhat Al Sidir - Station ID 276 - Sharjah,25.285931,55.661503,ATM,,Cash Withdrawal,,600 50 2030,,01/01/0001
5293,United Arab Emirates,Sharjah,Sharjah Coop - Rahmania Mall ,Abu Amr Al Basri St - Al Rahmaniya - Kshishah 6 - Sharjah,25.3304353,55.5988189,ATM,,Cash Withdrawal,,600 50 2030,,01/01/0001
5324,United Arab Emirates,Sharjah,Souq Al Jubail,"Corniche Street, Al Jubail Area",25.349456,55.379269,ATM,,Cash Withdrawal,,600 50 2030,,01/01/0001
5336,United Arab Emirates,Sharjah,Simply Life Safeer Mall ATM,Safeer Mall Sharjah,25.325437,55.377528,ATM,,Cash Withdrawal / Cash Deposit / Cheque Deposit,,600 50 2030,,01/01/0001
5340,United Arab Emirates,Sharjah,Ansari Exchange - Al Qasimia Branch ,"Shop No. 3, Ground Floor, Al Qasmia Sharjah",25.346614,55.3997640,ATM,,Cash Withdrawal,,600 50 2030,,01/01/0001
5348,United Arab Emirates,Sharjah,Sharjah Central Mall,"Sharjah Centeral Mall, Ground Floor Lift Lobby, Opposite to Lulu Hypermarket, Samnan, Sharjah.",25.339935,55.417023,ATM,,Cash Withdrawal,,600 50 2030,,01/01/0001
5355,United Arab Emirates,Sharjah,ADNOC Station - Asrar,18 Al Nahda Street - Al Qusais Industrial Area - Industrial Area 3 - Station ID 178 - Sharjah,25.256702,55.38326,ATM,,Cash Withdrawal,,600 50 2030,,01/01/0001
5372,United Arab Emirates,Sharjah,City Center Nasseriya,"Sheikh Sultan Bin Saqr Al Qassimi Street , Near Sharjah Fire Station Headquarter",25.366742,55.403044,ATM,,Cash Withdrawal / Cash Deposit,,600 50 2030,,01/01/0001
5480,United Arab Emirates,Sharjah,ADNOC Station - Khalidiya,Al Arouba Street - Al Khalidiya Suburb - Station ID 579 - Sharjah,25.335564,55.37244,ATM,,Cash Withdrawal,,600 50 2030,,01/01/0001
5562,United Arab Emirates,Sharjah,ADNOC Station - Mughaider,Industrial Area - Muwailih Commercial - Station ID 629 - Sharjah,25.2936678,55.4574513,ATM,,Cash Withdrawal,,600 50 2030,,01/01/0001
5581,United Arab Emirates,Sharjah,ADNOC Station - Al Taawan,"Al Taawun Street, Station ID 183, Near Arab Mall and Taawun Roundabout",25.30766,55.367666,ATM,,Cash Withdrawal,,600 50 2030,,01/01/0001
5582,United Arab Emirates,Sharjah,ADNOC Station - Al Sharouq,"Al Taawun Street, Near Sharjah Palace Hotel & Taawun round about",25.3062903,55.3645384,ATM,,Cash Withdrawal,,600 50 2030,,01/01/0001
5586,United Arab Emirates,Sharjah,ADNOC Station - Al Minerva,"Sheikh Majed Bin Saqr Al Qasimi Street, Station ID 181, Near Kuwait Hospital Sharjah",25.370394,55.41323,ATM,,Cash Withdrawal,,600 50 2030,,01/01/0001
5591,United Arab Emirates,Sharjah,Sharjah Airport,"Sharjah Airport, Main Terminal Building, First Floor, Arrivals",25.322313,55.5206410,ATM,,Cash Withdrawal,,600 50 2030,,01/01/0001
5592,United Arab Emirates,Sharjah,ADNOC Station - Al Quoze,"Sheikh Khalid bin Khalid Al Qasimi Street, Station ID Al Quoz 880, Near Matajer, Al Quoz",25.352942,55.451396,ATM,,Cash Withdrawal,,600 50 2030,,01/01/0001
5593,United Arab Emirates,Sharjah,ADNOC Station - Al Nabooda,"Sheikh Mohammad Bin Zayed Road, Al Nabooda, Station ID  761, Opposite Saca International ",25.289804,55.430084,ATM,,Cash Withdrawal,,600 50 2030,,01/01/0001
6291,United Arab Emirates,Sharjah,Safeer Center - Kalba,Sharjah -Kalba Road - Near Kalba Health Complex Kalba Sharjah,25.068115,56.3537260,ATM,,Cash Withdrawal / Cash Deposit / Cheque Deposit,,600 50 2030,,01/01/0001
6295,United Arab Emirates,Sharjah,ADNOC Station - Maisaloon,"Wahda Street,  Near New Gold Souk ",25.345021,55.405575,ATM,,Cash Withdrawal,,600 50 2030,,01/01/0001
6491,United Arab Emirates,Sharjah,Mega Mall,"Ground level at Hypermarket entrance, Istiqlal Street, ",25.344559,55.398876,ATM,,Cash Withdrawal / Cash Deposit / Cheque Deposit,,600 50 2030,,01/01/0001
,United Arab Emirates,Sharjah,Sharjah Industrial Area ATMs ,"Al Maliha Road, , Sharjah Industrial Area 2  Near Divya Auto Spare Parts, Industrial Area 2 ",25.320571,55.4052950,ATM,,Cash Withdrawal / Cash Deposit / Cheque Deposit,,600 50 2030,,01/01/0001
5101,United Arab Emirates,Umm Al Quwain,Carrefour - UAQ,Carrefour Umm- Al- Quwain king Faisal street,25.547853,55.54473,ATM,,Cash Withdrawal / Cash Deposit / Cheque Deposit,,600 50 2030,,01/01/0001
5151,United Arab Emirates,Umm Al Quwain,LuLu Center - UAQ,"King Faisal Road, Opposite UAE Exchange",25.563722,55.551875,ATM,,Cash Withdrawal,,600 50 2030,,01/01/0001
5308,United Arab Emirates,Umm Al Quwain,ADNOC Station - Al Kaber,E55 - Al Serra - Station ID 622 - Umm Al Quwain,25.443617,55.62704,ATM,,Cash Withdrawal,,600 50 2030,,01/01/0001
5623,United Arab Emirates,Umm Al Quwain,Mall Of Umm Al Quwain,"Mall Of Umm Al Quwain, Near mall food court entrance, Plot 1/1, sector 3, block 26 al maktaa, area,  Umm Al Quwain.",25.521140,55.544312,ATM,,Cash Withdrawal / Cash Deposit / Cheque Deposit,,600 50 2030,,01/01/0001
